[
  {
    "village_code": "21679",
    "village": "BANDAR AGUNG",
    "postal_code": "34559"
  },
  {
    "village_code": "21749",
    "village": "BANJAR NEGERI",
    "postal_code": "34559"
  },
  {
    "village_code": "21753",
    "village": "BANJAR RATU",
    "postal_code": "34559"
  },
  {
    "village_code": "22360",
    "village": "KARANG MULYO",
    "postal_code": "34559"
  },
  {
    "village_code": "22363",
    "village": "KARANG REJO II",
    "postal_code": "34559"
  },
  {
    "village_code": "22369",
    "village": "KARANG SAKTI",
    "postal_code": "34559"
  },
  {
    "village_code": "22373",
    "village": "KARANG SARI",
    "postal_code": "34559"
  },
  {
    "village_code": "22853",
    "village": "NEGERI RATU",
    "postal_code": "34559"
  },
  {
    "village_code": "22864",
    "village": "NEGERI UJUNG KARANG",
    "postal_code": "34559"
  },
  {
    "village_code": "22931",
    "village": "PAKUAN AGUNG",
    "postal_code": "34559"
  },
  {
    "village_code": "23679",
    "village": "SUMBER AGUNG",
    "postal_code": "34559"
  }
]