[
  {
    "village_code": "21713",
    "village": "BANGUN JAYA",
    "postal_code": "34555"
  },
  {
    "village_code": "21798",
    "village": "BATU RAJA",
    "postal_code": "34555"
  },
  {
    "village_code": "21937",
    "village": "BUMI RAHARYA",
    "postal_code": "34555"
  },
  {
    "village_code": "22009",
    "village": "CIAMIS",
    "postal_code": "34555"
  },
  {
    "village_code": "22103",
    "village": "GEDUNG BATIN",
    "postal_code": "34555"
  },
  {
    "village_code": "22246",
    "village": "HANAKAU JAYA",
    "postal_code": "34555"
  },
  {
    "village_code": "22525",
    "village": "KOTA NEGARA",
    "postal_code": "34555"
  },
  {
    "village_code": "22524",
    "village": "KOTA NEGARA ILIR",
    "postal_code": "34555"
  },
  {
    "village_code": "22800",
    "village": "NEGARA BATIN",
    "postal_code": "34555"
  },
  {
    "village_code": "22796",
    "village": "NEGARA BATIN II",
    "postal_code": "34555"
  },
  {
    "village_code": "22812",
    "village": "NEGARA RATU",
    "postal_code": "34555"
  },
  {
    "village_code": "22857",
    "village": "NEGERI RATU",
    "postal_code": "34555"
  },
  {
    "village_code": "22860",
    "village": "NEGERI SAKTI",
    "postal_code": "34555"
  },
  {
    "village_code": "22885",
    "village": "OGAN JAYA",
    "postal_code": "34555"
  },
  {
    "village_code": "22900",
    "village": "PADANG RATU",
    "postal_code": "34555"
  }
]