[
  {
    "village_code": "21819",
    "village": "BERINGIN JAYA",
    "postal_code": "34555"
  },
  {
    "village_code": "21963",
    "village": "BUNGLAY TENGAH (BUNGLAO / BONGLAI)",
    "postal_code": "34555"
  },
  {
    "village_code": "22117",
    "village": "GEDUNG MAKRIFAT",
    "postal_code": "34555"
  },
  {
    "village_code": "22121",
    "village": "GEDUNG NEGARA",
    "postal_code": "34555"
  },
  {
    "village_code": "22124",
    "village": "GEDUNG RAJA",
    "postal_code": "34555"
  },
  {
    "village_code": "22262",
    "village": "HIBUL / IBUL JAYA",
    "postal_code": "34555"
  },
  {
    "village_code": "22619",
    "village": "LUBUK RUKAM",
    "postal_code": "34555"
  },
  {
    "village_code": "22806",
    "village": "NEGARA KEMAKMURAN",
    "postal_code": "34555"
  },
  {
    "village_code": "23826",
    "village": "TANJUNG HARAPAN",
    "postal_code": "34555"
  },
  {
    "village_code": "24020",
    "village": "TULUNG BUYUT",
    "postal_code": "34555"
  }
]