[
  {
    "village_code": "21848",
    "village": "BOJONG BARAT",
    "postal_code": "34511"
  },
  {
    "village_code": "22007",
    "village": "CEMPEDAK",
    "postal_code": "34516"
  },
  {
    "village_code": "22514",
    "village": "KOTA GAPURA",
    "postal_code": "34511"
  },
  {
    "village_code": "22530",
    "village": "KOTABUMI ILIR",
    "postal_code": "34517"
  },
  {
    "village_code": "22531",
    "village": "KOTABUMI PASAR",
    "postal_code": "34518"
  },
  {
    "village_code": "22533",
    "village": "KOTABUMI TENGAH",
    "postal_code": "34516"
  },
  {
    "village_code": "22532",
    "village": "KOTABUMI TENGAH BARAT",
    "postal_code": "34516"
  },
  {
    "village_code": "22534",
    "village": "KOTABUMI UDIK",
    "postal_code": "34518"
  },
  {
    "village_code": "23224",
    "village": "REJOSARI",
    "postal_code": "34514"
  },
  {
    "village_code": "23449",
    "village": "SINDANG SARI",
    "postal_code": "34517"
  },
  {
    "village_code": "23505",
    "village": "SRIBASUKI",
    "postal_code": "34515"
  },
  {
    "village_code": "23685",
    "village": "SUMBER ARUM",
    "postal_code": "34511"
  },
  {
    "village_code": "23759",
    "village": "TALANG BOJONG",
    "postal_code": "34511"
  }
]