[
  {
    "village_code": "22170",
    "village": "GUNUNG BESAR",
    "postal_code": "34582"
  },
  {
    "village_code": "22174",
    "village": "GUNUNG GIJUL",
    "postal_code": "34582"
  },
  {
    "village_code": "22202",
    "village": "GUNUNG SADAR",
    "postal_code": "34582"
  },
  {
    "village_code": "22425",
    "village": "KEDATON",
    "postal_code": "34582"
  },
  {
    "village_code": "22491",
    "village": "KINCIRAN",
    "postal_code": "34582"
  },
  {
    "village_code": "22866",
    "village": "NEGLA SARI",
    "postal_code": "34582"
  },
  {
    "village_code": "23024",
    "village": "PEKURUN BARAT",
    "postal_code": "34582"
  },
  {
    "village_code": "23025",
    "village": "PEKURUN SELATAN",
    "postal_code": "34582"
  },
  {
    "village_code": "23028",
    "village": "PEKURUN UTARA",
    "postal_code": "34582"
  },
  {
    "village_code": "23462",
    "village": "SRI BANDUNG",
    "postal_code": "34582"
  },
  {
    "village_code": "23517",
    "village": "SUBIK",
    "postal_code": "34582"
  }
]