[
  {
    "village_code": "75596",
    "village": "DELIT",
    "postal_code": "99564"
  },
  {
    "village_code": "75662",
    "village": "DOBOPEM",
    "postal_code": "99564"
  },
  {
    "village_code": "75689",
    "village": "DONDOKLEMA",
    "postal_code": "99564"
  },
  {
    "village_code": "75976",
    "village": "GISAROK",
    "postal_code": "99564"
  },
  {
    "village_code": "76302",
    "village": "ISIKLAK",
    "postal_code": "99564"
  },
  {
    "village_code": "76587",
    "village": "KEMAMBURU",
    "postal_code": "99564"
  },
  {
    "village_code": "76612",
    "village": "KERET ANGGOMA",
    "postal_code": "99564"
  },
  {
    "village_code": "77159",
    "village": "MANET",
    "postal_code": "99564"
  },
  {
    "village_code": "77336",
    "village": "MIRI",
    "postal_code": "99564"
  },
  {
    "village_code": "77337",
    "village": "MIRIKIL",
    "postal_code": "99564"
  },
  {
    "village_code": "77414",
    "village": "MUGI",
    "postal_code": "99564"
  },
  {
    "village_code": "77851",
    "village": "PARU",
    "postal_code": "99564"
  },
  {
    "village_code": "78153",
    "village": "SAMBUA",
    "postal_code": "99564"
  },
  {
    "village_code": "78187",
    "village": "SARIT",
    "postal_code": "99564"
  },
  {
    "village_code": "78859",
    "village": "UNUE",
    "postal_code": "99564"
  },
  {
    "village_code": "79278",
    "village": "WOMSIT",
    "postal_code": "99564"
  },
  {
    "village_code": "79345",
    "village": "WUNDUI",
    "postal_code": "99564"
  },
  {
    "village_code": "79524",
    "village": "YELSENGGE",
    "postal_code": "99564"
  }
]