[
  {
    "village_code": "15377",
    "village": "ABURAN BATANG TEBO",
    "postal_code": "37571"
  },
  {
    "village_code": "15476",
    "village": "BEDARO RAMPAK",
    "postal_code": "37571"
  },
  {
    "village_code": "15693",
    "village": "KANDANG",
    "postal_code": "37571"
  },
  {
    "village_code": "15952",
    "village": "MANGUN JAYO",
    "postal_code": "37571"
  },
  {
    "village_code": "16043",
    "village": "MUARA TEBO",
    "postal_code": "37571"
  },
  {
    "village_code": "16184",
    "village": "PELAYANG",
    "postal_code": "37571"
  },
  {
    "village_code": "16434",
    "village": "SEMABU",
    "postal_code": "37571"
  },
  {
    "village_code": "16563",
    "village": "SUNGAI ALAI",
    "postal_code": "37571"
  },
  {
    "village_code": "16623",
    "village": "SUNGAI KERUH",
    "postal_code": "37571"
  },
  {
    "village_code": "16824",
    "village": "TEBING TINGGI",
    "postal_code": "37571"
  },
  {
    "village_code": "16855",
    "village": "TELUK PANDAK",
    "postal_code": "37571"
  },
  {
    "village_code": "16879",
    "village": "TENGAH ULU",
    "postal_code": "37571"
  }
]