[
  {
    "village_code": "15503",
    "village": "BETUNG BEDARAH BARAT",
    "postal_code": "37572"
  },
  {
    "village_code": "15504",
    "village": "BETUNG BEDARAH TIMUR",
    "postal_code": "37572"
  },
  {
    "village_code": "15595",
    "village": "DESA TUO ILIR",
    "postal_code": "37572"
  },
  {
    "village_code": "15850",
    "village": "KUNANGAN",
    "postal_code": "37572"
  },
  {
    "village_code": "16021",
    "village": "MUARA KETALO",
    "postal_code": "37572"
  },
  {
    "village_code": "16416",
    "village": "SEI / SUNGAI BENGKAL",
    "postal_code": "37572"
  },
  {
    "village_code": "16415",
    "village": "SEI / SUNGAI BENGKAL BARAT",
    "postal_code": "37572"
  },
  {
    "village_code": "16565",
    "village": "SUNGAI ARO",
    "postal_code": "37572"
  },
  {
    "village_code": "16860",
    "village": "TELUK RENDAH ILIR",
    "postal_code": "37572"
  },
  {
    "village_code": "16861",
    "village": "TELUK RENDAH PASAR",
    "postal_code": "37572"
  },
  {
    "village_code": "16862",
    "village": "TELUK RENDAH ULU",
    "postal_code": "37572"
  }
]