[
  {
    "village_code": "6478",
    "village": "AEK BOLON JAE",
    "postal_code": "22312"
  },
  {
    "village_code": "6479",
    "village": "AEK BOLON JULU",
    "postal_code": "22312"
  },
  {
    "village_code": "6775",
    "village": "BALIGE I",
    "postal_code": "22316"
  },
  {
    "village_code": "6776",
    "village": "BALIGE II",
    "postal_code": "22316"
  },
  {
    "village_code": "6777",
    "village": "BALIGE III",
    "postal_code": "22315"
  },
  {
    "village_code": "6943",
    "village": "BARU ARA",
    "postal_code": "22312"
  },
  {
    "village_code": "7186",
    "village": "BONAN DOLOK I",
    "postal_code": "22312"
  },
  {
    "village_code": "7188",
    "village": "BONAN DOLOK II",
    "postal_code": "22312"
  },
  {
    "village_code": "7190",
    "village": "BONAN DOLOK III",
    "postal_code": "22312"
  },
  {
    "village_code": "7994",
    "village": "HINALANG BAGASAN",
    "postal_code": "22312"
  },
  {
    "village_code": "8053",
    "village": "HUTA BULU MEJAN",
    "postal_code": "22312"
  },
  {
    "village_code": "8054",
    "village": "HUTA DAME",
    "postal_code": "22312"
  },
  {
    "village_code": "8100",
    "village": "HUTA NAMORA",
    "postal_code": "22312"
  },
  {
    "village_code": "8160",
    "village": "HUTAGAOL PEATALUN (PEATALUM)",
    "postal_code": "22312"
  },
  {
    "village_code": "8803",
    "village": "LONGAT",
    "postal_code": "22312"
  },
  {
    "village_code": "8854",
    "village": "LUMBAN BUL BUL",
    "postal_code": "22312"
  },
  {
    "village_code": "8855",
    "village": "LUMBAN DOLOK HAUME BANGE",
    "postal_code": "22314"
  },
  {
    "village_code": "8860",
    "village": "LUMBAN GAOL",
    "postal_code": "22312"
  },
  {
    "village_code": "8864",
    "village": "LUMBAN GORAT",
    "postal_code": "22312"
  },
  {
    "village_code": "8883",
    "village": "LUMBAN PEA",
    "postal_code": "22312"
  },
  {
    "village_code": "8882",
    "village": "LUMBAN PEA TIMUR",
    "postal_code": "22312"
  },
  {
    "village_code": "8906",
    "village": "LUMBAN SILINTONG",
    "postal_code": "22312"
  },
  {
    "village_code": "9068",
    "village": "MATIO",
    "postal_code": "22312"
  },
  {
    "village_code": "9306",
    "village": "NAPITUPULU BAGASAN",
    "postal_code": "22311"
  },
  {
    "village_code": "9547",
    "village": "PAINDOAN",
    "postal_code": "22312"
  },
  {
    "village_code": "9736",
    "village": "PARDEDE ONAN",
    "postal_code": "22313"
  },
  {
    "village_code": "9840",
    "village": "PARSURATAN",
    "postal_code": "22312"
  },
  {
    "village_code": "10570",
    "village": "SANGKAR NIHUTA",
    "postal_code": "22312"
  },
  {
    "village_code": "10592",
    "village": "SARIBURAJA JANJI MARIA",
    "postal_code": "22312"
  },
  {
    "village_code": "10844",
    "village": "SIANIPAR SIHAIL HAIL",
    "postal_code": "22312"
  },
  {
    "village_code": "10900",
    "village": "SIBOLA HOTANGSAS",
    "postal_code": "22312"
  },
  {
    "village_code": "10923",
    "village": "SIBORUON",
    "postal_code": "22312"
  },
  {
    "village_code": "10941",
    "village": "SIBUNTUON",
    "postal_code": "22312"
  },
  {
    "village_code": "11159",
    "village": "SILALAHI PAGAR BATU",
    "postal_code": "22312"
  },
  {
    "village_code": "11868",
    "village": "TAMBUNAN SUNGE",
    "postal_code": "22312"
  }
]