[
  {
    "village_code": "6541",
    "village": "AEK NATOLU JAYA",
    "postal_code": "22386"
  },
  {
    "village_code": "7754",
    "village": "HATINGGIAN",
    "postal_code": "22386"
  },
  {
    "village_code": "8173",
    "village": "HUTANAMORA",
    "postal_code": "22386"
  },
  {
    "village_code": "8234",
    "village": "JANGGA DOLOK",
    "postal_code": "22386"
  },
  {
    "village_code": "8235",
    "village": "JANGGA TORUAN",
    "postal_code": "22386"
  },
  {
    "village_code": "8293",
    "village": "JONGGI NIHUTA",
    "postal_code": "22386"
  },
  {
    "village_code": "8740",
    "village": "LINTONG JULU",
    "postal_code": "22386"
  },
  {
    "village_code": "9890",
    "village": "PASAR LUMBAN JULU",
    "postal_code": "22386"
  },
  {
    "village_code": "10883",
    "village": "SIBARUANG",
    "postal_code": "22386"
  },
  {
    "village_code": "11417",
    "village": "SIONGGANG SELATAN",
    "postal_code": "22386"
  },
  {
    "village_code": "11418",
    "village": "SIONGGANG TENGAH",
    "postal_code": "22386"
  },
  {
    "village_code": "11419",
    "village": "SIONGGANG UTARA",
    "postal_code": "22386"
  }
]