[
  {
    "village_code": "7410",
    "village": "DOLOK NAGODANG",
    "postal_code": "22385"
  },
  {
    "village_code": "7423",
    "village": "DOLOK SARIBU JANJI MATOGU",
    "postal_code": "22385"
  },
  {
    "village_code": "7424",
    "village": "DOLOK SARIBU LUMBAN NABOLON",
    "postal_code": "22385"
  },
  {
    "village_code": "8853",
    "village": "LUMBAN BINANGA",
    "postal_code": "22385"
  },
  {
    "village_code": "8867",
    "village": "LUMBAN HOLBUNG",
    "postal_code": "22385"
  },
  {
    "village_code": "8879",
    "village": "LUMBAN NABOLON",
    "postal_code": "22385"
  },
  {
    "village_code": "9047",
    "village": "MAROM",
    "postal_code": "22385"
  },
  {
    "village_code": "9709",
    "village": "PARBAGASAN JANJI MATOGU",
    "postal_code": "22385"
  },
  {
    "village_code": "9779",
    "village": "PARHABINSARAN JANJI MATOGU",
    "postal_code": "22385"
  },
  {
    "village_code": "9792",
    "village": "PARIK",
    "postal_code": "22385"
  },
  {
    "village_code": "9845",
    "village": "PARTOR JANJI MATOGU",
    "postal_code": "22385"
  },
  {
    "village_code": "9846",
    "village": "PARTORUAN JANJI MATOGU",
    "postal_code": "22385"
  },
  {
    "village_code": "10553",
    "village": "SAMPUARA",
    "postal_code": "22385"
  },
  {
    "village_code": "10946",
    "village": "SIBUNTUON",
    "postal_code": "22385"
  },
  {
    "village_code": "11044",
    "village": "SIGAOL BARAT",
    "postal_code": "22385"
  },
  {
    "village_code": "11047",
    "village": "SIGAOL TIMUR",
    "postal_code": "22385"
  },
  {
    "village_code": "11501",
    "village": "SIREGAR AEK NALAS",
    "postal_code": "22385"
  }
]