[
  {
    "village_code": "75402",
    "village": "BOGIYATEUGI",
    "postal_code": "98862"
  },
  {
    "village_code": "75456",
    "village": "BOTUMUMA (BOTUMOMA)",
    "postal_code": "98862"
  },
  {
    "village_code": "75628",
    "village": "DIGIKEBO",
    "postal_code": "98862"
  },
  {
    "village_code": "77233",
    "village": "MATADI",
    "postal_code": "98862"
  },
  {
    "village_code": "77652",
    "village": "OBAIBEGA",
    "postal_code": "98862"
  },
  {
    "village_code": "77993",
    "village": "POUWODA (POUWUODA)",
    "postal_code": "98862"
  },
  {
    "village_code": "78046",
    "village": "PUWETA / PUETA I",
    "postal_code": "98862"
  },
  {
    "village_code": "78047",
    "village": "PUWETA / PUETA II",
    "postal_code": "98862"
  },
  {
    "village_code": "78802",
    "village": "TUWAIDA",
    "postal_code": "98862"
  },
  {
    "village_code": "78817",
    "village": "UGIKAGOUDA",
    "postal_code": "98862"
  },
  {
    "village_code": "78818",
    "village": "UGIKEBO",
    "postal_code": "98862"
  },
  {
    "village_code": "79549",
    "village": "YEPO (MAKIDIMI)",
    "postal_code": "98862"
  }
]