[
  {
    "village_code": "50412",
    "village": "DANGIN PURI KAJA",
    "postal_code": "80231"
  },
  {
    "village_code": "50413",
    "village": "DANGIN PURI KANGIN",
    "postal_code": "80233"
  },
  {
    "village_code": "50414",
    "village": "DANGIN PURI KAUH",
    "postal_code": "80231"
  },
  {
    "village_code": "50421",
    "village": "DAUH PURI KAJA",
    "postal_code": "80111"
  },
  {
    "village_code": "50659",
    "village": "PEGUYANGAN",
    "postal_code": "80115"
  },
  {
    "village_code": "50657",
    "village": "PEGUYANGAN KAJA",
    "postal_code": "80115"
  },
  {
    "village_code": "50658",
    "village": "PEGUYANGAN KANGIN",
    "postal_code": "80115"
  },
  {
    "village_code": "50674",
    "village": "PEMECUTAN KAJA",
    "postal_code": "80118"
  },
  {
    "village_code": "50915",
    "village": "TONJA",
    "postal_code": "80239"
  },
  {
    "village_code": "50933",
    "village": "UBUNG",
    "postal_code": "80116"
  },
  {
    "village_code": "50932",
    "village": "UBUNG KAJA",
    "postal_code": "80116"
  }
]