[
  {
    "village_code": "50416",
    "village": "DANGIN PURI",
    "postal_code": "80232"
  },
  {
    "village_code": "50415",
    "village": "DANGIN PURI KLOD",
    "postal_code": "80234"
  },
  {
    "village_code": "50530",
    "village": "KESIMAN",
    "postal_code": "80237"
  },
  {
    "village_code": "50528",
    "village": "KESIMAN KERTALANGU",
    "postal_code": "80237"
  },
  {
    "village_code": "50529",
    "village": "KESIMAN PETILAN",
    "postal_code": "80237"
  },
  {
    "village_code": "50685",
    "village": "PENATIH",
    "postal_code": "80238"
  },
  {
    "village_code": "50684",
    "village": "PENATIH DANGIN PURI",
    "postal_code": "80238"
  },
  {
    "village_code": "50848",
    "village": "SUMERTA",
    "postal_code": "80235"
  },
  {
    "village_code": "50845",
    "village": "SUMERTA KAJA",
    "postal_code": "80236"
  },
  {
    "village_code": "50846",
    "village": "SUMERTA KAUH",
    "postal_code": "80236"
  },
  {
    "village_code": "50847",
    "village": "SUMERTA KELOD / KLOD",
    "postal_code": "80239"
  }
]