[
  {
    "village_code": "50425",
    "village": "DAUH PURI",
    "postal_code": "80113"
  },
  {
    "village_code": "50422",
    "village": "DAUH PURI KANGIN",
    "postal_code": "80112"
  },
  {
    "village_code": "50423",
    "village": "DAUH PURI KAUH",
    "postal_code": "80113"
  },
  {
    "village_code": "50424",
    "village": "DAUH PURI KLOD / KELOD",
    "postal_code": "80114"
  },
  {
    "village_code": "50632",
    "village": "PADANGSAMBIAN",
    "postal_code": "80117"
  },
  {
    "village_code": "50630",
    "village": "PADANGSAMBIAN KAJA",
    "postal_code": "80117"
  },
  {
    "village_code": "50631",
    "village": "PADANGSAMBIAN KLOD / KELOD",
    "postal_code": "80117"
  },
  {
    "village_code": "50676",
    "village": "PEMECUTAN",
    "postal_code": "80119"
  },
  {
    "village_code": "50675",
    "village": "PEMECUTAN KLOD / KELOD",
    "postal_code": "80119"
  },
  {
    "village_code": "50875",
    "village": "TEGAL HARUM",
    "postal_code": "80119"
  },
  {
    "village_code": "50876",
    "village": "TEGAL KERTHA",
    "postal_code": "80119"
  }
]