[
  {
    "village_code": "25439",
    "village": "BANTARKALONG",
    "postal_code": "46187"
  },
  {
    "village_code": "25827",
    "village": "CIANDUM",
    "postal_code": "46189"
  },
  {
    "village_code": "26174",
    "village": "CIHERAS",
    "postal_code": "46189"
  },
  {
    "village_code": "26312",
    "village": "CIKAWUNGADING",
    "postal_code": "46189"
  },
  {
    "village_code": "26626",
    "village": "CIPANAS",
    "postal_code": "46189"
  },
  {
    "village_code": "26659",
    "village": "CIPATUJAH",
    "postal_code": "46189"
  },
  {
    "village_code": "26933",
    "village": "DARAWATI",
    "postal_code": "46189"
  },
  {
    "village_code": "28033",
    "village": "KERTASARI",
    "postal_code": "46189"
  },
  {
    "village_code": "28839",
    "village": "NAGROG",
    "postal_code": "46189"
  },
  {
    "village_code": "28845",
    "village": "NANGELASARI",
    "postal_code": "46189"
  },
  {
    "village_code": "29000",
    "village": "PADAWARAS",
    "postal_code": "46189"
  },
  {
    "village_code": "29088",
    "village": "PAMEUTINGAN",
    "postal_code": "46189"
  },
  {
    "village_code": "29942",
    "village": "SINDANGKERTA",
    "postal_code": "46189"
  },
  {
    "village_code": "30206",
    "village": "SUKAHURIP",
    "postal_code": "46189"
  },
  {
    "village_code": "30965",
    "village": "TOBONGJAYA",
    "postal_code": "46189"
  }
]