[
  {
    "village_code": "26877",
    "village": "CIWARAK",
    "postal_code": "46185"
  },
  {
    "village_code": "27471",
    "village": "JATIWARAS",
    "postal_code": "46185"
  },
  {
    "village_code": "27655",
    "village": "KAPUTIHAN",
    "postal_code": "46185"
  },
  {
    "village_code": "27972",
    "village": "KERSAGALIH",
    "postal_code": "46185"
  },
  {
    "village_code": "28028",
    "village": "KERTARAHAYU",
    "postal_code": "46185"
  },
  {
    "village_code": "28415",
    "village": "MANDALAHURIP",
    "postal_code": "46185"
  },
  {
    "village_code": "28420",
    "village": "MANDALAMEKAR",
    "postal_code": "46185"
  },
  {
    "village_code": "28896",
    "village": "NEGLASARI",
    "postal_code": "46185"
  },
  {
    "village_code": "29219",
    "village": "PAPAYAN",
    "postal_code": "46185"
  },
  {
    "village_code": "29844",
    "village": "SETIAWANGI",
    "postal_code": "46185"
  },
  {
    "village_code": "30269",
    "village": "SUKAKERTA",
    "postal_code": "46185"
  }
]