[
  {
    "village_code": "31254",
    "village": "BABADAN",
    "postal_code": "57376"
  },
  {
    "village_code": "32161",
    "village": "CANDEN",
    "postal_code": "57376"
  },
  {
    "village_code": "32231",
    "village": "CATUR",
    "postal_code": "57376"
  },
  {
    "village_code": "32270",
    "village": "CERMO",
    "postal_code": "57376"
  },
  {
    "village_code": "32485",
    "village": "DEMANGAN",
    "postal_code": "57376"
  },
  {
    "village_code": "33002",
    "village": "GLINTANG",
    "postal_code": "57376"
  },
  {
    "village_code": "33265",
    "village": "JAGOAN",
    "postal_code": "57376"
  },
  {
    "village_code": "33421",
    "village": "JATISARI",
    "postal_code": "57376"
  },
  {
    "village_code": "34926",
    "village": "KEPOH",
    "postal_code": "57376"
  },
  {
    "village_code": "36160",
    "village": "NGAGLIK",
    "postal_code": "57376"
  },
  {
    "village_code": "36305",
    "village": "NGLEMBU",
    "postal_code": "57376"
  },
  {
    "village_code": "37624",
    "village": "SAMBI",
    "postal_code": "57376"
  },
  {
    "village_code": "37951",
    "village": "SENTING",
    "postal_code": "57376"
  },
  {
    "village_code": "38883",
    "village": "TAWENGAN",
    "postal_code": "57376"
  },
  {
    "village_code": "39033",
    "village": "TEMPURSARI",
    "postal_code": "57376"
  },
  {
    "village_code": "39294",
    "village": "TROSOBO",
    "postal_code": "57376"
  }
]