[
  {
    "village_code": "31391",
    "village": "BANDUNG",
    "postal_code": "57382"
  },
  {
    "village_code": "31564",
    "village": "BANYUSRI",
    "postal_code": "57382"
  },
  {
    "village_code": "31725",
    "village": "BENGLE",
    "postal_code": "57382"
  },
  {
    "village_code": "31737",
    "village": "BERCAK",
    "postal_code": "57382"
  },
  {
    "village_code": "31875",
    "village": "BOJONG",
    "postal_code": "57382"
  },
  {
    "village_code": "31892",
    "village": "BOLO",
    "postal_code": "57382"
  },
  {
    "village_code": "32736",
    "village": "GARANGAN",
    "postal_code": "57382"
  },
  {
    "village_code": "32933",
    "village": "GILIREJO",
    "postal_code": "57382"
  },
  {
    "village_code": "33069",
    "village": "GOSONO",
    "postal_code": "57382"
  },
  {
    "village_code": "33198",
    "village": "GUNUNGSARI",
    "postal_code": "57382"
  },
  {
    "village_code": "33356",
    "village": "JATILAWANG",
    "postal_code": "57382"
  },
  {
    "village_code": "33896",
    "village": "KALINANAS",
    "postal_code": "57382"
  },
  {
    "village_code": "34229",
    "village": "KARANGJATI",
    "postal_code": "57382"
  },
  {
    "village_code": "34709",
    "village": "KEDUNGPILANG",
    "postal_code": "57382"
  },
  {
    "village_code": "35044",
    "village": "KETOYAN",
    "postal_code": "57382"
  },
  {
    "village_code": "36125",
    "village": "NGABLAK",
    "postal_code": "57382"
  },
  {
    "village_code": "37529",
    "village": "REPAKING",
    "postal_code": "57382"
  },
  {
    "village_code": "39688",
    "village": "WONOSEGORO",
    "postal_code": "57382"
  }
]