[
  {
    "village_code": "32361",
    "village": "CLUNTANG",
    "postal_code": "57331"
  },
  {
    "village_code": "32587",
    "village": "DRAGAN",
    "postal_code": "57331"
  },
  {
    "village_code": "33467",
    "village": "JEMOWO",
    "postal_code": "57331"
  },
  {
    "village_code": "34074",
    "village": "KARANG KENDAL",
    "postal_code": "57331"
  },
  {
    "village_code": "34117",
    "village": "KARANGANYAR",
    "postal_code": "57331"
  },
  {
    "village_code": "34560",
    "village": "KEBONGULO",
    "postal_code": "57331"
  },
  {
    "village_code": "34820",
    "village": "KEMBANGSARI",
    "postal_code": "57331"
  },
  {
    "village_code": "34931",
    "village": "KEPOSONG",
    "postal_code": "57331"
  },
  {
    "village_code": "35426",
    "village": "LAMPAR",
    "postal_code": "57331"
  },
  {
    "village_code": "35458",
    "village": "LANJARAN",
    "postal_code": "57331"
  },
  {
    "village_code": "36023",
    "village": "MRIYAN",
    "postal_code": "57331"
  },
  {
    "village_code": "36083",
    "village": "MUSUK",
    "postal_code": "57331"
  },
  {
    "village_code": "36457",
    "village": "PAGERJURANG",
    "postal_code": "57331"
  },
  {
    "village_code": "37404",
    "village": "PUSPORENGGO",
    "postal_code": "57331"
  },
  {
    "village_code": "37533",
    "village": "RINGIN LARIK",
    "postal_code": "57331"
  },
  {
    "village_code": "37703",
    "village": "SANGUP",
    "postal_code": "57331"
  },
  {
    "village_code": "38394",
    "village": "SRUNI",
    "postal_code": "57331"
  },
  {
    "village_code": "38462",
    "village": "SUKORAME",
    "postal_code": "57331"
  },
  {
    "village_code": "38470",
    "village": "SUKOREJO",
    "postal_code": "57331"
  },
  {
    "village_code": "38582",
    "village": "SUMUR",
    "postal_code": "57331"
  }
]