[
  {
    "village_code": "32524",
    "village": "DIBAL",
    "postal_code": "57375"
  },
  {
    "village_code": "32553",
    "village": "DONOHUDAN",
    "postal_code": "57375"
  },
  {
    "village_code": "32681",
    "village": "GAGAKSIPAT",
    "postal_code": "57375"
  },
  {
    "village_code": "32962",
    "village": "GIRIROTO",
    "postal_code": "57375"
  },
  {
    "village_code": "35061",
    "village": "KISMOYOSO (KESMOYOSO)",
    "postal_code": "57375"
  },
  {
    "village_code": "35716",
    "village": "MANGGUNG",
    "postal_code": "57375"
  },
  {
    "village_code": "36203",
    "village": "NGARGOREJO",
    "postal_code": "57375"
  },
  {
    "village_code": "36283",
    "village": "NGESREP",
    "postal_code": "57375"
  },
  {
    "village_code": "36584",
    "village": "PANDEYAN",
    "postal_code": "57375"
  },
  {
    "village_code": "37738",
    "village": "SAWAHAN",
    "postal_code": "57375"
  },
  {
    "village_code": "38187",
    "village": "SINDON",
    "postal_code": "57375"
  },
  {
    "village_code": "38270",
    "village": "SOBOKERTO",
    "postal_code": "57375"
  }
]