[
  {
    "village_code": "58778",
    "village": "AIR TAWAR",
    "postal_code": "71471"
  },
  {
    "village_code": "59164",
    "village": "CAKRU",
    "postal_code": "71471"
  },
  {
    "village_code": "59250",
    "village": "GUNTUNG",
    "postal_code": "71471"
  },
  {
    "village_code": "59438",
    "village": "KAMAYAHAN",
    "postal_code": "71471"
  },
  {
    "village_code": "59573",
    "village": "KUANGAN",
    "postal_code": "71471"
  },
  {
    "village_code": "59807",
    "village": "MUARA BARUH",
    "postal_code": "71471"
  },
  {
    "village_code": "59839",
    "village": "MURUNG KARANGAN",
    "postal_code": "71471"
  },
  {
    "village_code": "59871",
    "village": "PADANG BASAR HILIR",
    "postal_code": "71471"
  },
  {
    "village_code": "59872",
    "village": "PADANG BASAR HULU",
    "postal_code": "71471"
  },
  {
    "village_code": "59875",
    "village": "PADANG LUAR",
    "postal_code": "71471"
  },
  {
    "village_code": "59893",
    "village": "PAKACANGAN",
    "postal_code": "71471"
  },
  {
    "village_code": "59896",
    "village": "PAKAPURAN",
    "postal_code": "71471"
  },
  {
    "village_code": "59920",
    "village": "PAMINTANGAN",
    "postal_code": "71471"
  },
  {
    "village_code": "59926",
    "village": "PANANGIAN",
    "postal_code": "71471"
  },
  {
    "village_code": "59928",
    "village": "PANANGKALAAN",
    "postal_code": "71471"
  },
  {
    "village_code": "59927",
    "village": "PANANGKALAAN HULU",
    "postal_code": "71471"
  },
  {
    "village_code": "59943",
    "village": "PANDAWAN (PANDAWANAN)",
    "postal_code": "71471"
  },
  {
    "village_code": "59977",
    "village": "PANYAUNGAN",
    "postal_code": "71471"
  },
  {
    "village_code": "60086",
    "village": "PIMPING",
    "postal_code": "71471"
  },
  {
    "village_code": "60393",
    "village": "SEI / SUNGAI TURAK",
    "postal_code": "71471"
  },
  {
    "village_code": "60392",
    "village": "SEI / SUNGAI TURAK DALAM",
    "postal_code": "71471"
  },
  {
    "village_code": "60512",
    "village": "TABALONG MATI",
    "postal_code": "71471"
  },
  {
    "village_code": "60519",
    "village": "TABING LERING",
    "postal_code": "71471"
  },
  {
    "village_code": "60650",
    "village": "TAYUR",
    "postal_code": "71471"
  },
  {
    "village_code": "60657",
    "village": "TELAGA BAMBAN",
    "postal_code": "71471"
  },
  {
    "village_code": "60683",
    "village": "TELUK DAUN",
    "postal_code": "71471"
  }
]