[
  {
    "village_code": "20135",
    "village": "AIR RAMAN",
    "postal_code": "39374"
  },
  {
    "village_code": "20221",
    "village": "BATU BELARIK",
    "postal_code": "39374"
  },
  {
    "village_code": "20277",
    "village": "BUKIT MENYAN",
    "postal_code": "39374"
  },
  {
    "village_code": "20311",
    "village": "CINTA MANDI BARU",
    "postal_code": "39374"
  },
  {
    "village_code": "20312",
    "village": "CINTO MANDI (CINTA MANDI)",
    "postal_code": "39374"
  },
  {
    "village_code": "20376",
    "village": "EMBONG IJUK",
    "postal_code": "39374"
  },
  {
    "village_code": "20378",
    "village": "EMBONG SIDO",
    "postal_code": "39374"
  },
  {
    "village_code": "20410",
    "village": "GUNUNG AGUNG",
    "postal_code": "39374"
  },
  {
    "village_code": "20528",
    "village": "KEBAN AGUNG",
    "postal_code": "39374"
  },
  {
    "village_code": "20552",
    "village": "KEMBANG SERI",
    "postal_code": "39374"
  },
  {
    "village_code": "20580",
    "village": "KOTA AGUNG",
    "postal_code": "39374"
  },
  {
    "village_code": "20611",
    "village": "LANGGAR JAYA",
    "postal_code": "39374"
  },
  {
    "village_code": "20624",
    "village": "LIMBUR LAMA (LEMBUR LAMA)",
    "postal_code": "39374"
  },
  {
    "village_code": "20747",
    "village": "MUARA LANGKAP",
    "postal_code": "39374"
  },
  {
    "village_code": "20844",
    "village": "PAGAR AGUNG",
    "postal_code": "39374"
  },
  {
    "village_code": "21156",
    "village": "SOSOKAN CINTA MANDI",
    "postal_code": "39374"
  },
  {
    "village_code": "21269",
    "village": "TABA BARU",
    "postal_code": "39374"
  },
  {
    "village_code": "21368",
    "village": "TALANG PITO",
    "postal_code": "39374"
  },
  {
    "village_code": "21382",
    "village": "TALANG SAWAH",
    "postal_code": "39374"
  }
]