[
  {
    "village_code": "6573",
    "village": "AEK SIPITUDAI",
    "postal_code": "22396"
  },
  {
    "village_code": "7180",
    "village": "BOHO",
    "postal_code": "22396"
  },
  {
    "village_code": "7195",
    "village": "BONAN DOLOK",
    "postal_code": "22396"
  },
  {
    "village_code": "7559",
    "village": "GINOLAT",
    "postal_code": "22396"
  },
  {
    "village_code": "7752",
    "village": "HASINGGAAN",
    "postal_code": "22396"
  },
  {
    "village_code": "8065",
    "village": "HUTA GINJANG",
    "postal_code": "22396"
  },
  {
    "village_code": "8074",
    "village": "HUTA GURGUR",
    "postal_code": "22396"
  },
  {
    "village_code": "10587",
    "village": "SARI MARIHIT",
    "postal_code": "22396"
  },
  {
    "village_code": "10845",
    "village": "SIANJUR MULAMULA",
    "postal_code": "22396"
  },
  {
    "village_code": "10918",
    "village": "SIBORO",
    "postal_code": "22396"
  },
  {
    "village_code": "11391",
    "village": "SINGKAM",
    "postal_code": "22396"
  }
]