[
  {
    "village_code": "7738",
    "village": "HARIAN",
    "postal_code": "22391"
  },
  {
    "village_code": "8077",
    "village": "HUTA HOTANG",
    "postal_code": "22394"
  },
  {
    "village_code": "8254",
    "village": "JANJI MATOGU",
    "postal_code": "22394"
  },
  {
    "village_code": "9377",
    "village": "ONAN RUNGGU",
    "postal_code": "22394"
  },
  {
    "village_code": "9555",
    "village": "PAKPAHAN",
    "postal_code": "22394"
  },
  {
    "village_code": "9756",
    "village": "PARDOMUAN",
    "postal_code": "22394"
  },
  {
    "village_code": "10447",
    "village": "RINABOLAK",
    "postal_code": "22394"
  },
  {
    "village_code": "11194",
    "village": "SILIMA LOMBU",
    "postal_code": "22394"
  },
  {
    "village_code": "11469",
    "village": "SIPIRA",
    "postal_code": "22394"
  },
  {
    "village_code": "11572",
    "village": "SITAMIANG",
    "postal_code": "22394"
  },
  {
    "village_code": "11586",
    "village": "SITINJAK",
    "postal_code": "22394"
  },
  {
    "village_code": "11867",
    "village": "TAMBUN SUNGKEAN",
    "postal_code": "22394"
  }
]