[
  {
    "village_code": "8136",
    "village": "HUTA RIHIT",
    "postal_code": "22394"
  },
  {
    "village_code": "9261",
    "village": "NAINGGOLAN",
    "postal_code": "22394"
  },
  {
    "village_code": "9581",
    "village": "PANANGGANGAN",
    "postal_code": "22394"
  },
  {
    "village_code": "9607",
    "village": "PANGALOAN",
    "postal_code": "22394"
  },
  {
    "village_code": "9784",
    "village": "PARHUSIP III",
    "postal_code": "22394"
  },
  {
    "village_code": "9924",
    "village": "PASARAN I",
    "postal_code": "22394"
  },
  {
    "village_code": "9925",
    "village": "PASARAN PARSAORAN",
    "postal_code": "22394"
  },
  {
    "village_code": "10908",
    "village": "SIBONOR OMPURATUS",
    "postal_code": "22394"
  },
  {
    "village_code": "11365",
    "village": "SINAGA URUK PANDIANGAN",
    "postal_code": "22394"
  },
  {
    "village_code": "11465",
    "village": "SIPINGGAN LUMBAN SIANTAR",
    "postal_code": "22394"
  },
  {
    "village_code": "11513",
    "village": "SIRUMA HOMBAR",
    "postal_code": "22394"
  },
  {
    "village_code": "12225",
    "village": "TOGUAN GALUNG",
    "postal_code": "22394"
  }
]