[
  {
    "village_code": "40280",
    "village": "ARJOSARI",
    "postal_code": "65126"
  },
  {
    "village_code": "40399",
    "village": "BALEARJOSARI",
    "postal_code": "65126"
  },
  {
    "village_code": "41015",
    "village": "BLIMBING",
    "postal_code": "65125"
  },
  {
    "village_code": "41294",
    "village": "BUNULREJO",
    "postal_code": "65123"
  },
  {
    "village_code": "42532",
    "village": "JODIPAN",
    "postal_code": "65137"
  },
  {
    "village_code": "43660",
    "village": "KESATRIAN",
    "postal_code": "65121"
  },
  {
    "village_code": "45319",
    "village": "PANDANWANGI",
    "postal_code": "65124"
  },
  {
    "village_code": "45827",
    "village": "POLEHAN",
    "postal_code": "65121"
  },
  {
    "village_code": "45830",
    "village": "POLOWIJEN",
    "postal_code": "65126"
  },
  {
    "village_code": "46022",
    "village": "PURWANTORO",
    "postal_code": "65122"
  },
  {
    "village_code": "46031",
    "village": "PURWODADI",
    "postal_code": "65125"
  }
]