[
  {
    "village_code": "40720",
    "village": "BARENG",
    "postal_code": "65116"
  },
  {
    "village_code": "41762",
    "village": "GADINGKASRI",
    "postal_code": "65115"
  },
  {
    "village_code": "43096",
    "village": "KASIN",
    "postal_code": "65117"
  },
  {
    "village_code": "43125",
    "village": "KAUMAN",
    "postal_code": "65119"
  },
  {
    "village_code": "43730",
    "village": "KIDUL DALEM",
    "postal_code": "65119"
  },
  {
    "village_code": "43811",
    "village": "KLOJEN",
    "postal_code": "65111"
  },
  {
    "village_code": "45073",
    "village": "ORO ORO DOWO",
    "postal_code": "65119"
  },
  {
    "village_code": "45579",
    "village": "PENANGGUNGAN",
    "postal_code": "65113"
  },
  {
    "village_code": "46110",
    "village": "RAMPAL CELAKET",
    "postal_code": "65111"
  },
  {
    "village_code": "46290",
    "village": "SAMAAN",
    "postal_code": "65112"
  },
  {
    "village_code": "47126",
    "village": "SUKOHARJO",
    "postal_code": "65118"
  }
]