[
  {
    "village_code": "41617",
    "village": "DINOYO",
    "postal_code": "65144"
  },
  {
    "village_code": "42393",
    "village": "JATIMULYO",
    "postal_code": "65141"
  },
  {
    "village_code": "43704",
    "village": "KETAWANGGEDE",
    "postal_code": "65145"
  },
  {
    "village_code": "44210",
    "village": "LOWOKWARU",
    "postal_code": "65141"
  },
  {
    "village_code": "44484",
    "village": "MERJOSARI",
    "postal_code": "65144"
  },
  {
    "village_code": "44572",
    "village": "MOJOLANGU",
    "postal_code": "65142"
  },
  {
    "village_code": "47492",
    "village": "SUMBERSARI",
    "postal_code": "65145"
  },
  {
    "village_code": "47901",
    "village": "TASIKMADU",
    "postal_code": "65143"
  },
  {
    "village_code": "48161",
    "village": "TLOGOMAS",
    "postal_code": "65144"
  },
  {
    "village_code": "48302",
    "village": "TULUSREJO",
    "postal_code": "65141"
  },
  {
    "village_code": "48331",
    "village": "TUNGGULWULUNG",
    "postal_code": "65143"
  },
  {
    "village_code": "48341",
    "village": "TUNJUNGSEKAR",
    "postal_code": "65142"
  }
]