[
  {
    "village_code": "61806",
    "village": "ATAP",
    "postal_code": "77453"
  },
  {
    "village_code": "61824",
    "village": "BINANUN",
    "postal_code": "77453"
  },
  {
    "village_code": "61843",
    "village": "BUTAS BAGU",
    "postal_code": "77453"
  },
  {
    "village_code": "61881",
    "village": "KATUL",
    "postal_code": "77453"
  },
  {
    "village_code": "61898",
    "village": "LABUK",
    "postal_code": "77453"
  },
  {
    "village_code": "61927",
    "village": "LIUK BULU",
    "postal_code": "77453"
  },
  {
    "village_code": "62013",
    "village": "LUBAKAN",
    "postal_code": "77453"
  },
  {
    "village_code": "62014",
    "village": "LUBOK BUAT",
    "postal_code": "77453"
  },
  {
    "village_code": "62025",
    "village": "MAMBULU",
    "postal_code": "77453"
  },
  {
    "village_code": "62032",
    "village": "MANUK BUNGKUL",
    "postal_code": "77453"
  },
  {
    "village_code": "62101",
    "village": "PAGALUYON",
    "postal_code": "77453"
  },
  {
    "village_code": "62102",
    "village": "PAGAR",
    "postal_code": "77453"
  },
  {
    "village_code": "62115",
    "village": "PELAJU (PLAJU)",
    "postal_code": "77453"
  },
  {
    "village_code": "62126",
    "village": "PULAU KERAS",
    "postal_code": "77453"
  },
  {
    "village_code": "62143",
    "village": "SABULUAN",
    "postal_code": "77453"
  },
  {
    "village_code": "62144",
    "village": "SADUMAN",
    "postal_code": "77453"
  },
  {
    "village_code": "62214",
    "village": "TAGUL",
    "postal_code": "77453"
  },
  {
    "village_code": "62249",
    "village": "TEPIAN",
    "postal_code": "77453"
  },
  {
    "village_code": "62261",
    "village": "TUJUNG",
    "postal_code": "77453"
  },
  {
    "village_code": "62263",
    "village": "TULANG",
    "postal_code": "77453"
  }
]