[
  {
    "village_code": "61807",
    "village": "BA LIKU",
    "postal_code": "77456"
  },
  {
    "village_code": "61825",
    "village": "BINUANG (BA BINUANG)",
    "postal_code": "77456"
  },
  {
    "village_code": "61913",
    "village": "LIANG LUNUK",
    "postal_code": "77456"
  },
  {
    "village_code": "61946",
    "village": "LONG BIRAR",
    "postal_code": "77456"
  },
  {
    "village_code": "61949",
    "village": "LONG BUDUNG",
    "postal_code": "77456"
  },
  {
    "village_code": "61957",
    "village": "LONG KELUPAN  /  KLUPAN",
    "postal_code": "77456"
  },
  {
    "village_code": "61972",
    "village": "LONG MUTAN",
    "postal_code": "77456"
  },
  {
    "village_code": "61978",
    "village": "LONG PADI",
    "postal_code": "77456"
  },
  {
    "village_code": "61982",
    "village": "LONG PASIA",
    "postal_code": "77456"
  },
  {
    "village_code": "61990",
    "village": "LONG PUPUNG",
    "postal_code": "77456"
  },
  {
    "village_code": "61993",
    "village": "LONG RIAN",
    "postal_code": "77456"
  },
  {
    "village_code": "61994",
    "village": "LONG RUNGAN",
    "postal_code": "77456"
  },
  {
    "village_code": "62059",
    "village": "PA AMAI",
    "postal_code": "77456"
  },
  {
    "village_code": "62063",
    "village": "PA DALAN",
    "postal_code": "77456"
  },
  {
    "village_code": "62065",
    "village": "PA IBANG",
    "postal_code": "77456"
  },
  {
    "village_code": "62067",
    "village": "PA KABER",
    "postal_code": "77456"
  },
  {
    "village_code": "62078",
    "village": "PA MILAU",
    "postal_code": "77456"
  },
  {
    "village_code": "62091",
    "village": "PA SING",
    "postal_code": "77456"
  },
  {
    "village_code": "62093",
    "village": "PA TERA",
    "postal_code": "77456"
  },
  {
    "village_code": "62096",
    "village": "PA UPAN",
    "postal_code": "77456"
  },
  {
    "village_code": "62097",
    "village": "PA URANG",
    "postal_code": "77456"
  },
  {
    "village_code": "62099",
    "village": "PA YALAU",
    "postal_code": "77456"
  },
  {
    "village_code": "62220",
    "village": "TANG BADUI",
    "postal_code": "77456"
  },
  {
    "village_code": "62221",
    "village": "TANG PAYE",
    "postal_code": "77456"
  }
]