[
  {
    "village_code": "61815",
    "village": "BATUNG",
    "postal_code": "77457"
  },
  {
    "village_code": "61828",
    "village": "BOKOK",
    "postal_code": "77457"
  },
  {
    "village_code": "61836",
    "village": "BULU LAUN HILIR",
    "postal_code": "77457"
  },
  {
    "village_code": "61837",
    "village": "BULU LAUN HULU",
    "postal_code": "77457"
  },
  {
    "village_code": "61838",
    "village": "BULU LUAN HULU",
    "postal_code": "77457"
  },
  {
    "village_code": "61839",
    "village": "BULU MENGELOM",
    "postal_code": "77457"
  },
  {
    "village_code": "61850",
    "village": "DUYAN",
    "postal_code": "77457"
  },
  {
    "village_code": "61864",
    "village": "JUKUP",
    "postal_code": "77457"
  },
  {
    "village_code": "61865",
    "village": "KABUNGALOR",
    "postal_code": "77457"
  },
  {
    "village_code": "61866",
    "village": "KALAM BUKU",
    "postal_code": "77457"
  },
  {
    "village_code": "61869",
    "village": "KALISUN",
    "postal_code": "77457"
  },
  {
    "village_code": "61894",
    "village": "KUYO",
    "postal_code": "77457"
  },
  {
    "village_code": "61896",
    "village": "LABANG",
    "postal_code": "77457"
  },
  {
    "village_code": "61897",
    "village": "LABUK",
    "postal_code": "77457"
  },
  {
    "village_code": "61899",
    "village": "LAGAS",
    "postal_code": "77457"
  },
  {
    "village_code": "61902",
    "village": "LANGGASON",
    "postal_code": "77457"
  },
  {
    "village_code": "61906",
    "village": "LEPAGA",
    "postal_code": "77457"
  },
  {
    "village_code": "61922",
    "village": "LIMPAKON",
    "postal_code": "77457"
  },
  {
    "village_code": "61924",
    "village": "LINSAYUNG",
    "postal_code": "77457"
  },
  {
    "village_code": "61950",
    "village": "LONG BULU",
    "postal_code": "77457"
  },
  {
    "village_code": "62024",
    "village": "MAMANIS",
    "postal_code": "77457"
  },
  {
    "village_code": "62048",
    "village": "NAN SAPAN",
    "postal_code": "77457"
  },
  {
    "village_code": "62049",
    "village": "NANTUKIDAN",
    "postal_code": "77457"
  },
  {
    "village_code": "62052",
    "village": "NGAWOL",
    "postal_code": "77457"
  },
  {
    "village_code": "62104",
    "village": "PALUAN",
    "postal_code": "77457"
  },
  {
    "village_code": "62106",
    "village": "PANAS",
    "postal_code": "77457"
  },
  {
    "village_code": "62113",
    "village": "PAYANG",
    "postal_code": "77457"
  },
  {
    "village_code": "62147",
    "village": "SALAN",
    "postal_code": "77457"
  },
  {
    "village_code": "62154",
    "village": "SAMUNTI",
    "postal_code": "77457"
  },
  {
    "village_code": "62155",
    "village": "SANAL",
    "postal_code": "77457"
  },
  {
    "village_code": "62165",
    "village": "SEDALIT",
    "postal_code": "77457"
  },
  {
    "village_code": "62182",
    "village": "SEMATA",
    "postal_code": "77457"
  },
  {
    "village_code": "62199",
    "village": "SIBALU",
    "postal_code": "77457"
  },
  {
    "village_code": "62201",
    "village": "SINAMPALA DUA",
    "postal_code": "77457"
  },
  {
    "village_code": "62202",
    "village": "SINAMPALA SATU",
    "postal_code": "77457"
  },
  {
    "village_code": "62207",
    "village": "SUMANTIPAL",
    "postal_code": "77457"
  },
  {
    "village_code": "62208",
    "village": "SUMENTOBOL",
    "postal_code": "77457"
  },
  {
    "village_code": "62211",
    "village": "SUNGOI",
    "postal_code": "77457"
  },
  {
    "village_code": "62212",
    "village": "SUYADON",
    "postal_code": "77457"
  },
  {
    "village_code": "62216",
    "village": "TAMBALANG HILIR",
    "postal_code": "77457"
  },
  {
    "village_code": "62217",
    "village": "TAMBALANG ULU",
    "postal_code": "77457"
  },
  {
    "village_code": "62239",
    "village": "TANTALUJUK",
    "postal_code": "77457"
  },
  {
    "village_code": "62240",
    "village": "TANTU LIBING",
    "postal_code": "77457"
  },
  {
    "village_code": "62243",
    "village": "TAU LUMBIS",
    "postal_code": "77457"
  },
  {
    "village_code": "62254",
    "village": "TETAGAS",
    "postal_code": "77457"
  },
  {
    "village_code": "62259",
    "village": "TUBEL ALUNG (UBEL ALUNG)",
    "postal_code": "77457"
  },
  {
    "village_code": "62262",
    "village": "TUKULEN (TUKULON)",
    "postal_code": "77457"
  },
  {
    "village_code": "62264",
    "village": "TUMATALAS",
    "postal_code": "77457"
  },
  {
    "village_code": "62266",
    "village": "UBEL SULOK",
    "postal_code": "77457"
  }
]