[
  {
    "village_code": "61827",
    "village": "BLATIKON (BELATIKAN)",
    "postal_code": "77482"
  },
  {
    "village_code": "61892",
    "village": "KULUNSAYAN (KALUN SAYAN)",
    "postal_code": "77482"
  },
  {
    "village_code": "62050",
    "village": "NAPUTI",
    "postal_code": "77482"
  },
  {
    "village_code": "62148",
    "village": "SALANG",
    "postal_code": "77482"
  },
  {
    "village_code": "62163",
    "village": "SEBUKU I (SANUR)",
    "postal_code": "77482"
  },
  {
    "village_code": "62164",
    "village": "SEBUKU II (MAKMUR)",
    "postal_code": "77482"
  },
  {
    "village_code": "62175",
    "village": "SEKIKILAN",
    "postal_code": "77482"
  },
  {
    "village_code": "62186",
    "village": "SEMUNAD",
    "postal_code": "77482"
  },
  {
    "village_code": "62242",
    "village": "TAU BARU",
    "postal_code": "77482"
  },
  {
    "village_code": "62245",
    "village": "TEMBALANG",
    "postal_code": "77482"
  },
  {
    "village_code": "62257",
    "village": "TINAMPAK I",
    "postal_code": "77482"
  },
  {
    "village_code": "62258",
    "village": "TINAMPAK II",
    "postal_code": "77482"
  }
]