[
  {
    "village_code": "62522",
    "village": "BUMI BERINGIN",
    "postal_code": "95113"
  },
  {
    "village_code": "62545",
    "village": "CALACA",
    "postal_code": "95121"
  },
  {
    "village_code": "62657",
    "village": "ISTIQLAL",
    "postal_code": "95121"
  },
  {
    "village_code": "62860",
    "village": "KOMO LUAR",
    "postal_code": "95122"
  },
  {
    "village_code": "62937",
    "village": "LAWANG IRUNG",
    "postal_code": "95123"
  },
  {
    "village_code": "63033",
    "village": "MAHAKERET BARAT",
    "postal_code": "95112"
  },
  {
    "village_code": "63034",
    "village": "MAHAKERET TIMUR",
    "postal_code": "95112"
  },
  {
    "village_code": "63406",
    "village": "PINAESAAN",
    "postal_code": "95122"
  },
  {
    "village_code": "63788",
    "village": "TELING BAWAH",
    "postal_code": "95119"
  },
  {
    "village_code": "63811",
    "village": "TIKALA KUMARAKA",
    "postal_code": "95124"
  },
  {
    "village_code": "64019",
    "village": "WENANG SELATAN",
    "postal_code": "95111"
  },
  {
    "village_code": "64020",
    "village": "WENANG UTARA",
    "postal_code": "95111"
  }
]