[
  {
    "village_code": "25276",
    "village": "ARGASARI",
    "postal_code": "45463"
  },
  {
    "village_code": "25759",
    "village": "CAMPAGA",
    "postal_code": "45463"
  },
  {
    "village_code": "25937",
    "village": "CIBEUREUM",
    "postal_code": "45463"
  },
  {
    "village_code": "26048",
    "village": "CICANIR",
    "postal_code": "45463"
  },
  {
    "village_code": "26334",
    "village": "CIKEUSAL",
    "postal_code": "45463"
  },
  {
    "village_code": "27056",
    "village": "GANEAS",
    "postal_code": "45463"
  },
  {
    "village_code": "27225",
    "village": "GUNUNGMANIK",
    "postal_code": "45463"
  },
  {
    "village_code": "27429",
    "village": "JATIPAMOR",
    "postal_code": "45463"
  },
  {
    "village_code": "28030",
    "village": "KERTARAHAYU",
    "postal_code": "45463"
  },
  {
    "village_code": "28180",
    "village": "LAMPUYANG",
    "postal_code": "45463"
  },
  {
    "village_code": "28520",
    "village": "MARGAMUKTI",
    "postal_code": "45463"
  },
  {
    "village_code": "28589",
    "village": "MEKARHURIP",
    "postal_code": "45463"
  },
  {
    "village_code": "28662",
    "village": "MEKARRAHARJA",
    "postal_code": "45463"
  },
  {
    "village_code": "29687",
    "village": "SALADO",
    "postal_code": "45463"
  },
  {
    "village_code": "30466",
    "village": "SUKAPERNA",
    "postal_code": "45463"
  },
  {
    "village_code": "30704",
    "village": "TALAGAKULON",
    "postal_code": "45463"
  },
  {
    "village_code": "30716",
    "village": "TALAGAWETAN",
    "postal_code": "45463"
  }
]