[
  {
    "village_code": "25372",
    "village": "BALIDA",
    "postal_code": "45453"
  },
  {
    "village_code": "25504",
    "village": "BATURUYUK",
    "postal_code": "45453"
  },
  {
    "village_code": "25614",
    "village": "BOJONGCIDERES",
    "postal_code": "45453"
  },
  {
    "village_code": "26953",
    "village": "DAWUAN",
    "postal_code": "45453"
  },
  {
    "village_code": "27053",
    "village": "GANDU",
    "postal_code": "45453"
  },
  {
    "village_code": "27111",
    "village": "GENTENG",
    "postal_code": "45453"
  },
  {
    "village_code": "27688",
    "village": "KARANGANYAR",
    "postal_code": "45453"
  },
  {
    "village_code": "28433",
    "village": "MANDAPA",
    "postal_code": "45453"
  },
  {
    "village_code": "29347",
    "village": "PASIRMALATI",
    "postal_code": "45453"
  },
  {
    "village_code": "29700",
    "village": "SALAWANA",
    "postal_code": "45453"
  },
  {
    "village_code": "29898",
    "village": "SINARJATI",
    "postal_code": "45453"
  }
]