[
  {
    "village_code": "25466",
    "village": "BANYUSARI",
    "postal_code": "45464"
  },
  {
    "village_code": "25729",
    "village": "BUNINAGARA",
    "postal_code": "45464"
  },
  {
    "village_code": "26530",
    "village": "CIMUNCANG",
    "postal_code": "45464"
  },
  {
    "village_code": "26730",
    "village": "CIRANCA",
    "postal_code": "45464"
  },
  {
    "village_code": "27153",
    "village": "GIRIMUKTI",
    "postal_code": "45464"
  },
  {
    "village_code": "27332",
    "village": "JAGAMULYA",
    "postal_code": "45464"
  },
  {
    "village_code": "27967",
    "village": "KERAMAT JAYA",
    "postal_code": "45464"
  },
  {
    "village_code": "28215",
    "village": "LEBAKWANGI",
    "postal_code": "45464"
  },
  {
    "village_code": "28397",
    "village": "MALAUSMA",
    "postal_code": "45464"
  },
  {
    "village_code": "30164",
    "village": "SUKADANA",
    "postal_code": "45464"
  },
  {
    "village_code": "31147",
    "village": "WERASARI",
    "postal_code": "45464"
  }
]