[
  {
    "village_code": "25738",
    "village": "BUNIWANGI",
    "postal_code": "45475"
  },
  {
    "village_code": "26777",
    "village": "CISAMBENG",
    "postal_code": "45475"
  },
  {
    "village_code": "27015",
    "village": "ENGGALWANGI",
    "postal_code": "45475"
  },
  {
    "village_code": "27659",
    "village": "KARAMAT",
    "postal_code": "45475"
  },
  {
    "village_code": "28382",
    "village": "MAJASUKA",
    "postal_code": "45475"
  },
  {
    "village_code": "29052",
    "village": "PALASAH",
    "postal_code": "45475"
  },
  {
    "village_code": "29308",
    "village": "PASIR",
    "postal_code": "45475"
  },
  {
    "village_code": "29922",
    "village": "SINDANGHAJI",
    "postal_code": "45475"
  },
  {
    "village_code": "30008",
    "village": "SINDANGWASA",
    "postal_code": "45475"
  },
  {
    "village_code": "30852",
    "village": "TARIKOLOT",
    "postal_code": "45475"
  },
  {
    "village_code": "30975",
    "village": "TRAJAYA",
    "postal_code": "45475"
  },
  {
    "village_code": "31117",
    "village": "WARINGIN",
    "postal_code": "45475"
  },
  {
    "village_code": "31146",
    "village": "WERAGATI",
    "postal_code": "45475"
  }
]