[
  {
    "village_code": "52324",
    "village": "BOAFEO",
    "postal_code": "86352"
  },
  {
    "village_code": "52917",
    "village": "KAMUMBHEKA / KAMUBHEKA",
    "postal_code": "86352"
  },
  {
    "village_code": "52959",
    "village": "KEBIRANGGA",
    "postal_code": "86352"
  },
  {
    "village_code": "52957",
    "village": "KEBIRANGGA SELATAN",
    "postal_code": "86352"
  },
  {
    "village_code": "52958",
    "village": "KEBIRANGGA TENGAH",
    "postal_code": "86352"
  },
  {
    "village_code": "53023",
    "village": "KOBALEBA",
    "postal_code": "86352"
  },
  {
    "village_code": "53047",
    "village": "KOLIPAKA",
    "postal_code": "86352"
  },
  {
    "village_code": "53449",
    "village": "MAGEKAPA",
    "postal_code": "86352"
  },
  {
    "village_code": "53677",
    "village": "MUNDINGGASA",
    "postal_code": "86352"
  },
  {
    "village_code": "53687",
    "village": "NABE",
    "postal_code": "86352"
  },
  {
    "village_code": "53769",
    "village": "NATANANGGE",
    "postal_code": "86352"
  }
]