[
  {
    "village_code": "52376",
    "village": "BU TANALAGU",
    "postal_code": "86361"
  },
  {
    "village_code": "52476",
    "village": "DETUPERA",
    "postal_code": "86361"
  },
  {
    "village_code": "52571",
    "village": "FATAMARI",
    "postal_code": "86361"
  },
  {
    "village_code": "52799",
    "village": "HUBATUWA / HOBATUA",
    "postal_code": "86361"
  },
  {
    "village_code": "53355",
    "village": "LIABEKE",
    "postal_code": "86361"
  },
  {
    "village_code": "53600",
    "village": "MBEWAWORA",
    "postal_code": "86361"
  },
  {
    "village_code": "53928",
    "village": "NUA LIMA",
    "postal_code": "86361"
  },
  {
    "village_code": "54375",
    "village": "RANGGATALO",
    "postal_code": "86361"
  },
  {
    "village_code": "54657",
    "village": "TANAROGA",
    "postal_code": "86361"
  },
  {
    "village_code": "55077",
    "village": "WATUNESO",
    "postal_code": "86361"
  },
  {
    "village_code": "55156",
    "village": "WOLOARO / WOLOARA",
    "postal_code": "86361"
  },
  {
    "village_code": "55173",
    "village": "WOLOLELEA (WOLOLELA A)",
    "postal_code": "86361"
  },
  {
    "village_code": "55190",
    "village": "WOLOSAMBI",
    "postal_code": "86361"
  }
]