[
  {
    "village_code": "31257",
    "village": "BABAKAN",
    "postal_code": "52365"
  },
  {
    "village_code": "31839",
    "village": "BODEH",
    "postal_code": "52365"
  },
  {
    "village_code": "32207",
    "village": "CANGAK",
    "postal_code": "52365"
  },
  {
    "village_code": "33175",
    "village": "GUNUNGBATU",
    "postal_code": "52365"
  },
  {
    "village_code": "33378",
    "village": "JATINGARANG",
    "postal_code": "52365"
  },
  {
    "village_code": "33410",
    "village": "JATIROYOM",
    "postal_code": "52365"
  },
  {
    "village_code": "33639",
    "village": "JRAGANAN",
    "postal_code": "52365"
  },
  {
    "village_code": "34164",
    "village": "KARANGBRAI",
    "postal_code": "52365"
  },
  {
    "village_code": "34510",
    "village": "KEBANDARAN",
    "postal_code": "52365"
  },
  {
    "village_code": "34513",
    "village": "KEBANDUNGAN",
    "postal_code": "52365"
  },
  {
    "village_code": "34781",
    "village": "KELANGDEPOK",
    "postal_code": "52365"
  },
  {
    "village_code": "34995",
    "village": "KESESIREJO",
    "postal_code": "52365"
  },
  {
    "village_code": "35407",
    "village": "KWASEN",
    "postal_code": "52365"
  },
  {
    "village_code": "35587",
    "village": "LONGKEYANG",
    "postal_code": "52365"
  },
  {
    "village_code": "36054",
    "village": "MUNCANG",
    "postal_code": "52365"
  },
  {
    "village_code": "36675",
    "village": "PARUNGGALIH",
    "postal_code": "52365"
  },
  {
    "village_code": "36700",
    "village": "PASIR",
    "postal_code": "52365"
  },
  {
    "village_code": "36748",
    "village": "PAYUNG",
    "postal_code": "52365"
  },
  {
    "village_code": "36869",
    "village": "PENDOWO",
    "postal_code": "52365"
  }
]