[
  {
    "village_code": "31838",
    "village": "BODAS",
    "postal_code": "52357"
  },
  {
    "village_code": "31907",
    "village": "BONGAS",
    "postal_code": "52357"
  },
  {
    "village_code": "32235",
    "village": "CAWET",
    "postal_code": "52357"
  },
  {
    "village_code": "32296",
    "village": "CIKADU",
    "postal_code": "52357"
  },
  {
    "village_code": "32734",
    "village": "GAPURA",
    "postal_code": "52357"
  },
  {
    "village_code": "33609",
    "village": "JOJOGAN",
    "postal_code": "52357"
  },
  {
    "village_code": "35663",
    "village": "MAJAKERTA",
    "postal_code": "52357"
  },
  {
    "village_code": "35665",
    "village": "MAJALANGU",
    "postal_code": "52357"
  },
  {
    "village_code": "35820",
    "village": "MEDAYU",
    "postal_code": "52357"
  },
  {
    "village_code": "36438",
    "village": "PAGELARAN",
    "postal_code": "52357"
  },
  {
    "village_code": "38742",
    "village": "TAMBI",
    "postal_code": "52357"
  },
  {
    "village_code": "39131",
    "village": "TLAGASANA",
    "postal_code": "52357"
  },
  {
    "village_code": "39334",
    "village": "TUNDAGAN",
    "postal_code": "52357"
  },
  {
    "village_code": "39502",
    "village": "WATUKUMPUL",
    "postal_code": "52357"
  },
  {
    "village_code": "39589",
    "village": "WISNU",
    "postal_code": "52357"
  }
]