[
  {
    "village_code": "21615",
    "village": "AIR ABANG",
    "postal_code": "35377"
  },
  {
    "village_code": "22030",
    "village": "DATARAJAN",
    "postal_code": "35377"
  },
  {
    "village_code": "22210",
    "village": "GUNUNG SARI",
    "postal_code": "35387"
  },
  {
    "village_code": "22235",
    "village": "GUNUNGTIGA",
    "postal_code": "35387"
  },
  {
    "village_code": "22379",
    "village": "KARANGREJO",
    "postal_code": "35387"
  },
  {
    "village_code": "22745",
    "village": "MUARA DUA ULU BELU",
    "postal_code": "35387"
  },
  {
    "village_code": "22870",
    "village": "NGARIP",
    "postal_code": "35387"
  },
  {
    "village_code": "22921",
    "village": "PAGARALAM ULUBELU",
    "postal_code": "35387"
  },
  {
    "village_code": "23049",
    "village": "PENANTIAN ULUBELU",
    "postal_code": "35387"
  },
  {
    "village_code": "23081",
    "village": "PETAY KAYU",
    "postal_code": "35387"
  },
  {
    "village_code": "23228",
    "village": "REJOSARI",
    "postal_code": "35387"
  },
  {
    "village_code": "23404",
    "village": "SINAR BANTEN",
    "postal_code": "35387"
  },
  {
    "village_code": "23456",
    "village": "SIRNAGALIH",
    "postal_code": "35387"
  },
  {
    "village_code": "23542",
    "village": "SUKA MAJU",
    "postal_code": "35387"
  },
  {
    "village_code": "23816",
    "village": "TANJUNG BARU",
    "postal_code": "35387"
  },
  {
    "village_code": "24040",
    "village": "ULU SEMONG",
    "postal_code": "35387"
  }
]