[
  {
    "village_code": "21721",
    "village": "BANGUN REJO",
    "postal_code": "35386"
  },
  {
    "village_code": "22076",
    "village": "GARUT",
    "postal_code": "35386"
  },
  {
    "village_code": "22300",
    "village": "KACA PURA",
    "postal_code": "35386"
  },
  {
    "village_code": "22341",
    "village": "KANOMAN",
    "postal_code": "35386"
  },
  {
    "village_code": "22345",
    "village": "KARANG AGUNG",
    "postal_code": "35386"
  },
  {
    "village_code": "22367",
    "village": "KARANG REJO",
    "postal_code": "35386"
  },
  {
    "village_code": "22679",
    "village": "MARGOMULYO",
    "postal_code": "35386"
  },
  {
    "village_code": "22979",
    "village": "PARDA WARAS",
    "postal_code": "35386"
  },
  {
    "village_code": "23282",
    "village": "SEDAYU",
    "postal_code": "35386"
  },
  {
    "village_code": "23328",
    "village": "SIDO DADI",
    "postal_code": "35386"
  },
  {
    "village_code": "23337",
    "village": "SIDO MULYO",
    "postal_code": "35386"
  },
  {
    "village_code": "23476",
    "village": "SRI KATON",
    "postal_code": "35386"
  },
  {
    "village_code": "23480",
    "village": "SRI KUNCORO",
    "postal_code": "35386"
  },
  {
    "village_code": "23495",
    "village": "SRI PURNOMO",
    "postal_code": "35386"
  },
  {
    "village_code": "23520",
    "village": "SUDIMORO",
    "postal_code": "35386"
  },
  {
    "village_code": "23519",
    "village": "SUDIMORO BANGUN",
    "postal_code": "35386"
  },
  {
    "village_code": "23601",
    "village": "SUKAJAYA",
    "postal_code": "35386"
  },
  {
    "village_code": "23638",
    "village": "SUKARAJA",
    "postal_code": "35386"
  },
  {
    "village_code": "24010",
    "village": "TUGU PAPAK",
    "postal_code": "35386"
  },
  {
    "village_code": "24012",
    "village": "TUGU REJO",
    "postal_code": "35386"
  },
  {
    "village_code": "24016",
    "village": "TULUNG ASAHAN",
    "postal_code": "35386"
  },
  {
    "village_code": "24101",
    "village": "WAY KERAP",
    "postal_code": "35386"
  }
]