[
  {
    "village_code": "21778",
    "village": "BAROS",
    "postal_code": "35611"
  },
  {
    "village_code": "21815",
    "village": "BENTENG JAYA",
    "postal_code": "35384"
  },
  {
    "village_code": "21984",
    "village": "CAMPANG TIGA",
    "postal_code": "35384"
  },
  {
    "village_code": "22421",
    "village": "KEDAMAIAN",
    "postal_code": "35384"
  },
  {
    "village_code": "22451",
    "village": "KELUNGU",
    "postal_code": "35384"
  },
  {
    "village_code": "22499",
    "village": "KOTA AGUNG",
    "postal_code": "35384"
  },
  {
    "village_code": "22507",
    "village": "KOTA BATU",
    "postal_code": "35384"
  },
  {
    "village_code": "22554",
    "village": "KURIPAN",
    "postal_code": "35613"
  },
  {
    "village_code": "22561",
    "village": "KUSA",
    "postal_code": "35384"
  },
  {
    "village_code": "22852",
    "village": "NEGERI RATU",
    "postal_code": "35384"
  },
  {
    "village_code": "22983",
    "village": "PARDASUKA",
    "postal_code": "35382"
  },
  {
    "village_code": "22992",
    "village": "PASAR MADANG",
    "postal_code": "35384"
  },
  {
    "village_code": "23048",
    "village": "PENANGGUNGAN",
    "postal_code": "35384"
  },
  {
    "village_code": "23942",
    "village": "TERATAS",
    "postal_code": "35384"
  },
  {
    "village_code": "23949",
    "village": "TERBAYA",
    "postal_code": "35684"
  },
  {
    "village_code": "23950",
    "village": "TERDANA",
    "postal_code": "35384"
  }
]