[
  {
    "village_code": "21791",
    "village": "BATU KERAMAT",
    "postal_code": "35384"
  },
  {
    "village_code": "22306",
    "village": "KAGUNGAN",
    "postal_code": "35384"
  },
  {
    "village_code": "22333",
    "village": "KAMPUNG BARU",
    "postal_code": "35384"
  },
  {
    "village_code": "22384",
    "village": "KARTA",
    "postal_code": "35384"
  },
  {
    "village_code": "22726",
    "village": "MENGGALA",
    "postal_code": "35384"
  },
  {
    "village_code": "22758",
    "village": "MULANG MAYA",
    "postal_code": "35384"
  },
  {
    "village_code": "23528",
    "village": "SUKA BANJAR",
    "postal_code": "35384"
  },
  {
    "village_code": "23768",
    "village": "TALANG REJO",
    "postal_code": "35384"
  },
  {
    "village_code": "23810",
    "village": "TANJUNG ANOM",
    "postal_code": "35384"
  },
  {
    "village_code": "23897",
    "village": "TANJUNGJATI",
    "postal_code": "35384"
  },
  {
    "village_code": "23913",
    "village": "TEBA",
    "postal_code": "35384"
  },
  {
    "village_code": "24043",
    "village": "UMBUL BUAH",
    "postal_code": "35384"
  }
]