[
  {
    "village_code": "21827",
    "village": "BETUNG",
    "postal_code": "35382"
  },
  {
    "village_code": "22236",
    "village": "GURING",
    "postal_code": "35382"
  },
  {
    "village_code": "22336",
    "village": "KAMPUNG BARU",
    "postal_code": "35382"
  },
  {
    "village_code": "22353",
    "village": "KARANG BRAK",
    "postal_code": "35382"
  },
  {
    "village_code": "22403",
    "village": "KAUR GADING",
    "postal_code": "35382"
  },
  {
    "village_code": "22685",
    "village": "MARTANDA",
    "postal_code": "35382"
  },
  {
    "village_code": "23077",
    "village": "PESANGUAN",
    "postal_code": "35382"
  },
  {
    "village_code": "23795",
    "village": "TAMPANG",
    "postal_code": "35382"
  },
  {
    "village_code": "23794",
    "village": "TAMPANG MUDA",
    "postal_code": "35382"
  },
  {
    "village_code": "23894",
    "village": "TANJUNGAN",
    "postal_code": "35382"
  },
  {
    "village_code": "23932",
    "village": "TELUK BRAK",
    "postal_code": "35382"
  },
  {
    "village_code": "23955",
    "village": "TIROM",
    "postal_code": "35382"
  },
  {
    "village_code": "24077",
    "village": "WAY ASAHAN",
    "postal_code": "35382"
  },
  {
    "village_code": "24117",
    "village": "WAY NIPAH",
    "postal_code": "35382"
  }
]