[
  {
    "village_code": "58797",
    "village": "ALUR",
    "postal_code": "70881"
  },
  {
    "village_code": "58851",
    "village": "ASAM ASAM",
    "postal_code": "70881"
  },
  {
    "village_code": "58852",
    "village": "ASAM JAYA",
    "postal_code": "70881"
  },
  {
    "village_code": "58856",
    "village": "ASRI MULIA",
    "postal_code": "70881"
  },
  {
    "village_code": "59010",
    "village": "BATALANG",
    "postal_code": "70881"
  },
  {
    "village_code": "59404",
    "village": "JORONG",
    "postal_code": "70881"
  },
  {
    "village_code": "59484",
    "village": "KARANG REJO",
    "postal_code": "70881"
  },
  {
    "village_code": "59806",
    "village": "MUARA ASAM ASAM",
    "postal_code": "70881"
  },
  {
    "village_code": "60200",
    "village": "SABUHUR",
    "postal_code": "70881"
  },
  {
    "village_code": "60441",
    "village": "SIMPANG EMPAT SUNGAIBARU",
    "postal_code": "70881"
  },
  {
    "village_code": "60509",
    "village": "SWARANGAN",
    "postal_code": "70881"
  }
]