[
  {
    "village_code": "59024",
    "village": "BATILAI",
    "postal_code": "70861"
  },
  {
    "village_code": "59082",
    "village": "BENUA LAWAS",
    "postal_code": "70861"
  },
  {
    "village_code": "59085",
    "village": "BENUA TENGAH",
    "postal_code": "70861"
  },
  {
    "village_code": "59260",
    "village": "GUNUNG MAKMUR",
    "postal_code": "70861"
  },
  {
    "village_code": "59572",
    "village": "KUALA TAMBANGAN",
    "postal_code": "70861"
  },
  {
    "village_code": "60027",
    "village": "PEGATAN BESAR",
    "postal_code": "70861"
  },
  {
    "village_code": "60158",
    "village": "RANGGANG",
    "postal_code": "70861"
  },
  {
    "village_code": "60157",
    "village": "RANGGANG DALAM",
    "postal_code": "70861"
  },
  {
    "village_code": "60488",
    "village": "SUMBER MAKMUR",
    "postal_code": "70861"
  },
  {
    "village_code": "60513",
    "village": "TABANIO",
    "postal_code": "70861"
  },
  {
    "village_code": "60533",
    "village": "TAKISUNG",
    "postal_code": "70861"
  },
  {
    "village_code": "60662",
    "village": "TELAGA LANGSAT",
    "postal_code": "70861"
  }
]