[
  {
    "village_code": "21768",
    "village": "BANJARMASIN",
    "postal_code": "35592"
  },
  {
    "village_code": "21807",
    "village": "BELAMBANGAN",
    "postal_code": "35592"
  },
  {
    "village_code": "22069",
    "village": "GANDRI",
    "postal_code": "35592"
  },
  {
    "village_code": "22085",
    "village": "GAYAM",
    "postal_code": "35592"
  },
  {
    "village_code": "22137",
    "village": "GEDUNGHARTA",
    "postal_code": "35592"
  },
  {
    "village_code": "22338",
    "village": "KAMPUNGBARU",
    "postal_code": "35592"
  },
  {
    "village_code": "22445",
    "village": "KEKILING",
    "postal_code": "35592"
  },
  {
    "village_code": "22449",
    "village": "KELAU",
    "postal_code": "35592"
  },
  {
    "village_code": "22494",
    "village": "KLATEN",
    "postal_code": "35592"
  },
  {
    "village_code": "22557",
    "village": "KURIPAN",
    "postal_code": "35592"
  },
  {
    "village_code": "22888",
    "village": "PADAN",
    "postal_code": "35592"
  },
  {
    "village_code": "22962",
    "village": "PANENGAHAN",
    "postal_code": "35592"
  },
  {
    "village_code": "23000",
    "village": "PASURUAN",
    "postal_code": "35592"
  },
  {
    "village_code": "23086",
    "village": "PISANG",
    "postal_code": "35592"
  },
  {
    "village_code": "23207",
    "village": "RAWI",
    "postal_code": "35592"
  },
  {
    "village_code": "23243",
    "village": "RUANG TENGAH",
    "postal_code": "35592"
  },
  {
    "village_code": "23566",
    "village": "SUKABARU",
    "postal_code": "35592"
  },
  {
    "village_code": "23600",
    "village": "SUKAJAYA",
    "postal_code": "35592"
  },
  {
    "village_code": "23776",
    "village": "TAMAN BARU",
    "postal_code": "35592"
  },
  {
    "village_code": "23833",
    "village": "TANJUNG HERAN",
    "postal_code": "35592"
  },
  {
    "village_code": "23951",
    "village": "TETAAN",
    "postal_code": "35592"
  },
  {
    "village_code": "24098",
    "village": "WAY KALAM",
    "postal_code": "35592"
  }
]