[
  {
    "village_code": "21776",
    "village": "BANYUMAS",
    "postal_code": "35356"
  },
  {
    "village_code": "21800",
    "village": "BATULIMAN INDAH",
    "postal_code": "35356"
  },
  {
    "village_code": "21822",
    "village": "BERINGIN KENCANA",
    "postal_code": "35356"
  },
  {
    "village_code": "21919",
    "village": "BUMI JAYA",
    "postal_code": "35356"
  },
  {
    "village_code": "22014",
    "village": "CINTAMULYA",
    "postal_code": "35356"
  },
  {
    "village_code": "22396",
    "village": "KARYA MULYA SARI",
    "postal_code": "35356"
  },
  {
    "village_code": "23193",
    "village": "RANTAU MINYAK",
    "postal_code": "35356"
  },
  {
    "village_code": "23205",
    "village": "RAWA SELAPAN",
    "postal_code": "35356"
  },
  {
    "village_code": "23345",
    "village": "SIDOASRI",
    "postal_code": "35356"
  },
  {
    "village_code": "23429",
    "village": "SINAR PALEMBANG",
    "postal_code": "35356"
  },
  {
    "village_code": "23430",
    "village": "SINAR PASEMAH",
    "postal_code": "35356"
  },
  {
    "village_code": "23958",
    "village": "TITIWANGI (CANDIPURO)",
    "postal_code": "35356"
  },
  {
    "village_code": "23997",
    "village": "TRIMOMUKTI",
    "postal_code": "35356"
  },
  {
    "village_code": "24084",
    "village": "WAY GELAM",
    "postal_code": "35356"
  }
]