[
  {
    "village_code": "306",
    "village": "ANEUK GLEE",
    "postal_code": "23363"
  },
  {
    "village_code": "1314",
    "village": "COT KAREUNG",
    "postal_code": "23363"
  },
  {
    "village_code": "1466",
    "village": "CUREH",
    "postal_code": "23363"
  },
  {
    "village_code": "1649",
    "village": "EMPEE ARA",
    "postal_code": "23363"
  },
  {
    "village_code": "1949",
    "village": "GROT MEUNASAH BARO",
    "postal_code": "23363"
  },
  {
    "village_code": "1950",
    "village": "GROT MEUNASAH BLANG",
    "postal_code": "23363"
  },
  {
    "village_code": "1951",
    "village": "GROT MEUNASAH MANYANG",
    "postal_code": "23363"
  },
  {
    "village_code": "2075",
    "village": "INDRAPURI",
    "postal_code": "23363"
  },
  {
    "village_code": "2183",
    "village": "JRUEK BAK KREH",
    "postal_code": "23363"
  },
  {
    "village_code": "2184",
    "village": "JRUEK BALEE",
    "postal_code": "23363"
  },
  {
    "village_code": "2607",
    "village": "KRUENG LAMKAREUNG",
    "postal_code": "23363"
  },
  {
    "village_code": "2919",
    "village": "LAM BEUTONG",
    "postal_code": "23363"
  },
  {
    "village_code": "2940",
    "village": "LAM ILIE GANTO",
    "postal_code": "23363"
  },
  {
    "village_code": "2941",
    "village": "LAM ILIE MESJID",
    "postal_code": "23363"
  },
  {
    "village_code": "2942",
    "village": "LAM ILIE TEUNGOH",
    "postal_code": "23363"
  },
  {
    "village_code": "2956",
    "village": "LAM LUENG",
    "postal_code": "23363"
  },
  {
    "village_code": "2973",
    "village": "LAM SIOT",
    "postal_code": "23363"
  },
  {
    "village_code": "3017",
    "village": "LAMBUNOT",
    "postal_code": "23363"
  },
  {
    "village_code": "3046",
    "village": "LAMLEUBOK",
    "postal_code": "23363"
  },
  {
    "village_code": "3057",
    "village": "LAMPANAH BARO",
    "postal_code": "23363"
  },
  {
    "village_code": "3058",
    "village": "LAMPANAH DAYAH",
    "postal_code": "23363"
  },
  {
    "village_code": "3060",
    "village": "LAMPANAH RANJO",
    "postal_code": "23363"
  },
  {
    "village_code": "3061",
    "village": "LAMPANAH TEUNGOH",
    "postal_code": "23363"
  },
  {
    "village_code": "3062",
    "village": "LAMPANAH TUNONG",
    "postal_code": "23363"
  },
  {
    "village_code": "3099",
    "village": "LAMPUPOK BARO",
    "postal_code": "23363"
  },
  {
    "village_code": "3100",
    "village": "LAMPUPOK RAYA",
    "postal_code": "23363"
  },
  {
    "village_code": "3307",
    "village": "LHEUE JEUMPA",
    "postal_code": "23363"
  },
  {
    "village_code": "3419",
    "village": "LIMO BLANG",
    "postal_code": "23363"
  },
  {
    "village_code": "3420",
    "village": "LIMO LAMLUWEUNG (LAMLUENG)",
    "postal_code": "23363"
  },
  {
    "village_code": "3421",
    "village": "LIMO MESJID",
    "postal_code": "23363"
  },
  {
    "village_code": "3432",
    "village": "LINGOM",
    "postal_code": "23363"
  },
  {
    "village_code": "3554",
    "village": "MANGGRA",
    "postal_code": "23363"
  },
  {
    "village_code": "3843",
    "village": "MEUNARA",
    "postal_code": "23363"
  },
  {
    "village_code": "4081",
    "village": "MEUSALEE LHOK",
    "postal_code": "23363"
  },
  {
    "village_code": "4096",
    "village": "MON ALUE",
    "postal_code": "23363"
  },
  {
    "village_code": "4152",
    "village": "MUREU BARO",
    "postal_code": "23363"
  },
  {
    "village_code": "4153",
    "village": "MUREU BUENG-UE",
    "postal_code": "23363"
  },
  {
    "village_code": "4154",
    "village": "MUREU LAM GLUMPANG",
    "postal_code": "23363"
  },
  {
    "village_code": "4155",
    "village": "MUREU ULEE TITI",
    "postal_code": "23363"
  },
  {
    "village_code": "4480",
    "village": "PASAR INDRAPURI",
    "postal_code": "23363"
  },
  {
    "village_code": "5168",
    "village": "REUKIH DAYAH",
    "postal_code": "23363"
  },
  {
    "village_code": "5169",
    "village": "REUKIH KEUPULA",
    "postal_code": "23363"
  },
  {
    "village_code": "5212",
    "village": "RITING",
    "postal_code": "23363"
  },
  {
    "village_code": "5352",
    "village": "SEOT / SEUOT BAROH",
    "postal_code": "23363"
  },
  {
    "village_code": "5353",
    "village": "SEOT / SEUOT TUNONG",
    "postal_code": "23363"
  },
  {
    "village_code": "5392",
    "village": "SEULANGAI",
    "postal_code": "23363"
  },
  {
    "village_code": "5540",
    "village": "SEUREUMO",
    "postal_code": "23363"
  },
  {
    "village_code": "5571",
    "village": "SIHOM COT",
    "postal_code": "23363"
  },
  {
    "village_code": "5572",
    "village": "SIHOM LHOK",
    "postal_code": "23363"
  },
  {
    "village_code": "5640",
    "village": "SINYEU",
    "postal_code": "23363"
  },
  {
    "village_code": "6345",
    "village": "ULEE KAREUNG",
    "postal_code": "23363"
  },
  {
    "village_code": "6355",
    "village": "ULEE OE",
    "postal_code": "23363"
  }
]