[
  {
    "village_code": "453",
    "village": "BAET",
    "postal_code": "23373"
  },
  {
    "village_code": "850",
    "village": "BLANG KRUENG",
    "postal_code": "23373"
  },
  {
    "village_code": "1183",
    "village": "CADEK",
    "postal_code": "23373"
  },
  {
    "village_code": "1396",
    "village": "COT PAYA",
    "postal_code": "23373"
  },
  {
    "village_code": "2229",
    "village": "KAJHU",
    "postal_code": "23373"
  },
  {
    "village_code": "2541",
    "village": "KLIENG COT ARON",
    "postal_code": "23373"
  },
  {
    "village_code": "2543",
    "village": "KLIENG MEURIA",
    "postal_code": "23373"
  },
  {
    "village_code": "2856",
    "village": "LABUI",
    "postal_code": "23373"
  },
  {
    "village_code": "2910",
    "village": "LAM ASAN",
    "postal_code": "23373"
  },
  {
    "village_code": "2915",
    "village": "LAM BADA LHOK",
    "postal_code": "23373"
  },
  {
    "village_code": "2981",
    "village": "LAM UJONG",
    "postal_code": "23373"
  },
  {
    "village_code": "3077",
    "village": "LAMPINEUNG",
    "postal_code": "23373"
  },
  {
    "village_code": "4091",
    "village": "MIRUK LAM REUDEUP",
    "postal_code": "23373"
  }
]