[
  {
    "village_code": "471",
    "village": "BAK SUKON",
    "postal_code": "23363"
  },
  {
    "village_code": "524",
    "village": "BANDASAFA",
    "postal_code": "23363"
  },
  {
    "village_code": "548",
    "village": "BARIH LHOK",
    "postal_code": "23363"
  },
  {
    "village_code": "737",
    "village": "BITHAK",
    "postal_code": "23363"
  },
  {
    "village_code": "1032",
    "village": "BUENG SIMEK",
    "postal_code": "23363"
  },
  {
    "village_code": "1270",
    "village": "COT BAYU",
    "postal_code": "23363"
  },
  {
    "village_code": "1921",
    "village": "GLEE JAI",
    "postal_code": "23363"
  },
  {
    "village_code": "2040",
    "village": "IE ALANG DAYAH",
    "postal_code": "23363"
  },
  {
    "village_code": "2041",
    "village": "IE ALANG LAM GHUI",
    "postal_code": "23363"
  },
  {
    "village_code": "2042",
    "village": "IE ALANG LAM KREUMEUH (KEUREUMEUN)",
    "postal_code": "23363"
  },
  {
    "village_code": "2043",
    "village": "IE ALANG MESJID",
    "postal_code": "23363"
  },
  {
    "village_code": "2481",
    "village": "KEUMIREU",
    "postal_code": "23363"
  },
  {
    "village_code": "2506",
    "village": "KEURUWEUNG BLANG",
    "postal_code": "23363"
  },
  {
    "village_code": "2507",
    "village": "KEURUWEUNG KRUENG",
    "postal_code": "23363"
  },
  {
    "village_code": "2902",
    "village": "LAM ALING / ALIENG",
    "postal_code": "23363"
  },
  {
    "village_code": "2918",
    "village": "LAM BEUGAK",
    "postal_code": "23363"
  },
  {
    "village_code": "2948",
    "village": "LAM KLENG / KLEENG",
    "postal_code": "23363"
  },
  {
    "village_code": "2953",
    "village": "LAM LEUOT",
    "postal_code": "23363"
  },
  {
    "village_code": "2954",
    "village": "LAM LEUPUNG",
    "postal_code": "23363"
  },
  {
    "village_code": "3055",
    "village": "LAMPAKUK",
    "postal_code": "23363"
  },
  {
    "village_code": "3090",
    "village": "LAMPOH RAJA",
    "postal_code": "23363"
  },
  {
    "village_code": "3109",
    "village": "LAMSIE (LAMSIEM)",
    "postal_code": "23372"
  },
  {
    "village_code": "3127",
    "village": "LAMTUI",
    "postal_code": "23363"
  },
  {
    "village_code": "3291",
    "village": "LEUPUNG BALEU / BALEE",
    "postal_code": "23363"
  },
  {
    "village_code": "3292",
    "village": "LEUPUNG BRUK / BRUEK",
    "postal_code": "23363"
  },
  {
    "village_code": "3516",
    "village": "MAHENG",
    "postal_code": "23363"
  },
  {
    "village_code": "4270",
    "village": "PAKUK",
    "postal_code": "23363"
  },
  {
    "village_code": "4485",
    "village": "PASAR LAMPAKUK",
    "postal_code": "23363"
  },
  {
    "village_code": "5567",
    "village": "SIGAPANG",
    "postal_code": "23363"
  },
  {
    "village_code": "5648",
    "village": "SIRON BLANG",
    "postal_code": "23363"
  },
  {
    "village_code": "5649",
    "village": "SIRON KRUENG",
    "postal_code": "23363"
  },
  {
    "village_code": "6205",
    "village": "TUTUI / TUTUE",
    "postal_code": "23363"
  }
]