[
  {
    "village_code": "31361",
    "village": "BANARAN",
    "postal_code": "57664"
  },
  {
    "village_code": "32704",
    "village": "GAMBIRMANIS",
    "postal_code": "57664"
  },
  {
    "village_code": "32764",
    "village": "GEBANGHARJO",
    "postal_code": "57664"
  },
  {
    "village_code": "32794",
    "village": "GEDONG",
    "postal_code": "57664"
  },
  {
    "village_code": "33001",
    "village": "GLINGGANG",
    "postal_code": "57664"
  },
  {
    "village_code": "33548",
    "village": "JIMBAR",
    "postal_code": "57664"
  },
  {
    "village_code": "33598",
    "village": "JOHO",
    "postal_code": "57664"
  },
  {
    "village_code": "35485",
    "village": "LEBAK",
    "postal_code": "57664"
  },
  {
    "village_code": "36980",
    "village": "PETIRSARI",
    "postal_code": "57664"
  },
  {
    "village_code": "37160",
    "village": "PRACIMANTORO",
    "postal_code": "57664"
  },
  {
    "village_code": "37642",
    "village": "SAMBIROTO",
    "postal_code": "57664"
  },
  {
    "village_code": "37775",
    "village": "SEDAYU",
    "postal_code": "57664"
  },
  {
    "village_code": "38405",
    "village": "SUCI",
    "postal_code": "57664"
  },
  {
    "village_code": "38520",
    "village": "SUMBERAGUNG",
    "postal_code": "57664"
  },
  {
    "village_code": "39297",
    "village": "TRUKAN",
    "postal_code": "57664"
  },
  {
    "village_code": "39304",
    "village": "TUBOKARTO",
    "postal_code": "57664"
  },
  {
    "village_code": "39477",
    "village": "WATANGREJO",
    "postal_code": "57664"
  },
  {
    "village_code": "39610",
    "village": "WONODADI",
    "postal_code": "57664"
  }
]