[
  {
    "village_code": "32077",
    "village": "BULUSULUR",
    "postal_code": "57615"
  },
  {
    "village_code": "32955",
    "village": "GIRIPURWO",
    "postal_code": "57612"
  },
  {
    "village_code": "32966",
    "village": "GIRITIRTO",
    "postal_code": "57611"
  },
  {
    "village_code": "32972",
    "village": "GIRIWONO",
    "postal_code": "57613"
  },
  {
    "village_code": "35758",
    "village": "MANJUNG",
    "postal_code": "57615"
  },
  {
    "village_code": "37120",
    "village": "POKOHKIDUL",
    "postal_code": "57615"
  },
  {
    "village_code": "37380",
    "village": "PURWOREJO",
    "postal_code": "57615"
  },
  {
    "village_code": "37400",
    "village": "PURWOSARI",
    "postal_code": "57615"
  },
  {
    "village_code": "37899",
    "village": "SENDANG",
    "postal_code": "57615"
  },
  {
    "village_code": "38344",
    "village": "SONOHARJO",
    "postal_code": "57615"
  },
  {
    "village_code": "39604",
    "village": "WONOBOYO",
    "postal_code": "57615"
  },
  {
    "village_code": "39619",
    "village": "WONOHARJO",
    "postal_code": "57615"
  },
  {
    "village_code": "39621",
    "village": "WONOKARTO",
    "postal_code": "57612"
  },
  {
    "village_code": "39635",
    "village": "WONOKERTO",
    "postal_code": "57615"
  },
  {
    "village_code": "39740",
    "village": "WURYOREJO",
    "postal_code": "57614"
  }
]