[
  {
    "village_code": "32818",
    "village": "GEMANTAR",
    "postal_code": "57652"
  },
  {
    "village_code": "33325",
    "village": "JATEN",
    "postal_code": "57652"
  },
  {
    "village_code": "33479",
    "village": "JENDI",
    "postal_code": "57652"
  },
  {
    "village_code": "33764",
    "village": "KALIANCAR",
    "postal_code": "57652"
  },
  {
    "village_code": "34785",
    "village": "KELORAN",
    "postal_code": "57652"
  },
  {
    "village_code": "34922",
    "village": "KEPATIHAN",
    "postal_code": "57652"
  },
  {
    "village_code": "36093",
    "village": "NAMBANGAN",
    "postal_code": "57652"
  },
  {
    "village_code": "36668",
    "village": "PARE",
    "postal_code": "57652"
  },
  {
    "village_code": "37257",
    "village": "PULE",
    "postal_code": "57652"
  },
  {
    "village_code": "37914",
    "village": "SENDANGIJO",
    "postal_code": "57652"
  },
  {
    "village_code": "38201",
    "village": "SINGODUTAN",
    "postal_code": "57652"
  }
]