[
  {
    "village_code": "33381",
    "village": "JATINOM",
    "postal_code": "57682"
  },
  {
    "village_code": "34499",
    "village": "KAYULOKO",
    "postal_code": "57682"
  },
  {
    "village_code": "34542",
    "village": "KEBONAGUNG",
    "postal_code": "57682"
  },
  {
    "village_code": "34683",
    "village": "KEDUNGGUPIT",
    "postal_code": "57682"
  },
  {
    "village_code": "35985",
    "village": "MOJORENO",
    "postal_code": "57682"
  },
  {
    "village_code": "36121",
    "village": "NGABEYAN",
    "postal_code": "57682"
  },
  {
    "village_code": "37862",
    "village": "SEMBUKAN",
    "postal_code": "57682"
  },
  {
    "village_code": "37888",
    "village": "SEMPUKEREP",
    "postal_code": "57682"
  },
  {
    "village_code": "38053",
    "village": "SIDOHARJO",
    "postal_code": "57682"
  },
  {
    "village_code": "39035",
    "village": "TEMPURSARI",
    "postal_code": "57682"
  },
  {
    "village_code": "39255",
    "village": "TREMES",
    "postal_code": "57682"
  },
  {
    "village_code": "39539",
    "village": "WIDORO",
    "postal_code": "57682"
  }
]