[
  {
    "village_code": "25532",
    "village": "BENDA",
    "postal_code": "45283"
  },
  {
    "village_code": "26994",
    "village": "DUKUHJERUK",
    "postal_code": "45283"
  },
  {
    "village_code": "26999",
    "village": "DUKUHTENGAH",
    "postal_code": "45283"
  },
  {
    "village_code": "27653",
    "village": "KAPLONGANLOR",
    "postal_code": "45283"
  },
  {
    "village_code": "27683",
    "village": "KARANGAMPEL",
    "postal_code": "45283"
  },
  {
    "village_code": "27681",
    "village": "KARANGAMPEL KIDUL",
    "postal_code": "45283"
  },
  {
    "village_code": "28793",
    "village": "MUNDU",
    "postal_code": "45283"
  },
  {
    "village_code": "29462",
    "village": "PRINGGACALA",
    "postal_code": "45283"
  },
  {
    "village_code": "29816",
    "village": "SENDANG",
    "postal_code": "45283"
  },
  {
    "village_code": "30805",
    "village": "TANJUNGPURA",
    "postal_code": "45283"
  },
  {
    "village_code": "30821",
    "village": "TANJUNGSARI",
    "postal_code": "45283"
  }
]