[
  {
    "village_code": "25810",
    "village": "CEMPEH",
    "postal_code": "45261"
  },
  {
    "village_code": "28190",
    "village": "LANGGENGSARI",
    "postal_code": "45261"
  },
  {
    "village_code": "28227",
    "village": "LELEA",
    "postal_code": "45261"
  },
  {
    "village_code": "28914",
    "village": "NUNUK",
    "postal_code": "45261"
  },
  {
    "village_code": "29140",
    "village": "PANGAUBAN",
    "postal_code": "45261"
  },
  {
    "village_code": "30730",
    "village": "TAMANSARI",
    "postal_code": "45261"
  },
  {
    "village_code": "30912",
    "village": "TELAGASARI",
    "postal_code": "45261"
  },
  {
    "village_code": "30926",
    "village": "TEMPEL",
    "postal_code": "45261"
  },
  {
    "village_code": "30927",
    "village": "TEMPELKULON",
    "postal_code": "45261"
  },
  {
    "village_code": "30987",
    "village": "TUGU",
    "postal_code": "45261"
  },
  {
    "village_code": "31002",
    "village": "TUNGGULPAYUNG",
    "postal_code": "45261"
  }
]