[
  {
    "village_code": "26915",
    "village": "DADAP",
    "postal_code": "45282"
  },
  {
    "village_code": "27534",
    "village": "JUNTI KEBON",
    "postal_code": "45282"
  },
  {
    "village_code": "27535",
    "village": "JUNTIKEDOKAN",
    "postal_code": "45282"
  },
  {
    "village_code": "27536",
    "village": "JUNTINYUAT",
    "postal_code": "45282"
  },
  {
    "village_code": "27537",
    "village": "JUNTIWEDEN",
    "postal_code": "45282"
  },
  {
    "village_code": "28300",
    "village": "LIMBANGAN",
    "postal_code": "45282"
  },
  {
    "village_code": "28346",
    "village": "LOMBANG",
    "postal_code": "45282"
  },
  {
    "village_code": "29446",
    "village": "PONDOH",
    "postal_code": "45282"
  },
  {
    "village_code": "29707",
    "village": "SAMBIMAYA",
    "postal_code": "45282"
  },
  {
    "village_code": "29781",
    "village": "SEGERAN",
    "postal_code": "45282"
  },
  {
    "village_code": "29780",
    "village": "SEGERAN KIDUL",
    "postal_code": "45282"
  },
  {
    "village_code": "30955",
    "village": "TINUMPUK",
    "postal_code": "45282"
  }
]