[
  {
    "village_code": "26993",
    "village": "DUKUHJATI",
    "postal_code": "45284"
  },
  {
    "village_code": "27584",
    "village": "KALIANYAR",
    "postal_code": "45284"
  },
  {
    "village_code": "27654",
    "village": "KAPRINGAN",
    "postal_code": "45284"
  },
  {
    "village_code": "27943",
    "village": "KEDUNGWUNGU",
    "postal_code": "45284"
  },
  {
    "village_code": "28108",
    "village": "KRANGKENG",
    "postal_code": "45284"
  },
  {
    "village_code": "28364",
    "village": "LUWUNGGESIK",
    "postal_code": "45284"
  },
  {
    "village_code": "29494",
    "village": "PURWAJAYA",
    "postal_code": "45284"
  },
  {
    "village_code": "30017",
    "village": "SINGAKERTA",
    "postal_code": "45284"
  },
  {
    "village_code": "30114",
    "village": "SRENGSENG",
    "postal_code": "45284"
  },
  {
    "village_code": "30767",
    "village": "TANJAKAN",
    "postal_code": "45284"
  },
  {
    "village_code": "30889",
    "village": "TEGALMULYA",
    "postal_code": "45284"
  }
]