[
  {
    "village_code": "25349",
    "village": "BAGENDIT",
    "postal_code": "44191"
  },
  {
    "village_code": "25462",
    "village": "BANYURESMI",
    "postal_code": "44191"
  },
  {
    "village_code": "25548",
    "village": "BINAKARYA",
    "postal_code": "44191"
  },
  {
    "village_code": "26504",
    "village": "CIMAREME",
    "postal_code": "44191"
  },
  {
    "village_code": "26695",
    "village": "CIPICUNG",
    "postal_code": "44191"
  },
  {
    "village_code": "26926",
    "village": "DANGDEUR",
    "postal_code": "44191"
  },
  {
    "village_code": "27841",
    "village": "KARYAMUKTI",
    "postal_code": "44191"
  },
  {
    "village_code": "27853",
    "village": "KARYASARI",
    "postal_code": "44191"
  },
  {
    "village_code": "29083",
    "village": "PAMEKARSARI",
    "postal_code": "44191"
  },
  {
    "village_code": "30257",
    "village": "SUKAKARYA",
    "postal_code": "44191"
  },
  {
    "village_code": "30275",
    "village": "SUKALAKSANA",
    "postal_code": "44191"
  },
  {
    "village_code": "30394",
    "village": "SUKAMUKTI",
    "postal_code": "44191"
  },
  {
    "village_code": "30484",
    "village": "SUKARAJA",
    "postal_code": "44191"
  },
  {
    "village_code": "30514",
    "village": "SUKARATU",
    "postal_code": "44191"
  },
  {
    "village_code": "30570",
    "village": "SUKASENANG",
    "postal_code": "44191"
  }
]