[
  {
    "village_code": "25418",
    "village": "BANJARSARI",
    "postal_code": "44162"
  },
  {
    "village_code": "25512",
    "village": "BAYONGBONG",
    "postal_code": "44162"
  },
  {
    "village_code": "26030",
    "village": "CIBURUY",
    "postal_code": "44162"
  },
  {
    "village_code": "26084",
    "village": "CIELA",
    "postal_code": "44162"
  },
  {
    "village_code": "26315",
    "village": "CIKEDOKAN",
    "postal_code": "44162"
  },
  {
    "village_code": "26557",
    "village": "CINISTI",
    "postal_code": "44162"
  },
  {
    "village_code": "27279",
    "village": "HEGARMANAH",
    "postal_code": "44162"
  },
  {
    "village_code": "27833",
    "village": "KARYAJAYA",
    "postal_code": "44162"
  },
  {
    "village_code": "28596",
    "village": "MEKARJAYA",
    "postal_code": "44162"
  },
  {
    "village_code": "28668",
    "village": "MEKARSARI",
    "postal_code": "44162"
  },
  {
    "village_code": "28777",
    "village": "MULYASARI",
    "postal_code": "44162"
  },
  {
    "village_code": "29071",
    "village": "PAMALAYAN",
    "postal_code": "44162"
  },
  {
    "village_code": "29129",
    "village": "PANEMBONG",
    "postal_code": "44162"
  },
  {
    "village_code": "29692",
    "village": "SALAKURAY",
    "postal_code": "44162"
  },
  {
    "village_code": "30036",
    "village": "SIRNAGALIH",
    "postal_code": "44162"
  },
  {
    "village_code": "30343",
    "village": "SUKAMANAH",
    "postal_code": "44162"
  },
  {
    "village_code": "30497",
    "village": "SUKARAME",
    "postal_code": "44162"
  },
  {
    "village_code": "30571",
    "village": "SUKASENANG",
    "postal_code": "44162"
  }
]