[
  {
    "village_code": "25423",
    "village": "BANJARWANGI",
    "postal_code": "44172"
  },
  {
    "village_code": "25596",
    "village": "BOJONG",
    "postal_code": "44172"
  },
  {
    "village_code": "26929",
    "village": "DANGIANG",
    "postal_code": "44172"
  },
  {
    "village_code": "27478",
    "village": "JAYABAKTI",
    "postal_code": "44172"
  },
  {
    "village_code": "27549",
    "village": "KADONGDONG",
    "postal_code": "44172"
  },
  {
    "village_code": "28768",
    "village": "MULYAJAYA",
    "postal_code": "44172"
  },
  {
    "village_code": "28959",
    "village": "PADAHURIP",
    "postal_code": "44172"
  },
  {
    "village_code": "30702",
    "village": "TALAGAJAYA",
    "postal_code": "44172"
  },
  {
    "village_code": "30707",
    "village": "TALAGASARI",
    "postal_code": "44172"
  },
  {
    "village_code": "30783",
    "village": "TANJUNGJAYA",
    "postal_code": "44172"
  },
  {
    "village_code": "31086",
    "village": "WANGUNJAYA",
    "postal_code": "44172"
  }
]