[
  {
    "village_code": "25480",
    "village": "BARUDUA",
    "postal_code": "44188"
  },
  {
    "village_code": "25733",
    "village": "BUNISARI",
    "postal_code": "44188"
  },
  {
    "village_code": "25764",
    "village": "CAMPAKA",
    "postal_code": "44188"
  },
  {
    "village_code": "26007",
    "village": "CIBUNAR",
    "postal_code": "44188"
  },
  {
    "village_code": "26161",
    "village": "CIHAURKUNING",
    "postal_code": "44188"
  },
  {
    "village_code": "26286",
    "village": "CIKARAG",
    "postal_code": "44188"
  },
  {
    "village_code": "26400",
    "village": "CILAMPUYANG",
    "postal_code": "44188"
  },
  {
    "village_code": "26536",
    "village": "CINAGARA",
    "postal_code": "44188"
  },
  {
    "village_code": "26811",
    "village": "CISITU",
    "postal_code": "44188"
  },
  {
    "village_code": "26857",
    "village": "CITERAS",
    "postal_code": "44188"
  },
  {
    "village_code": "27142",
    "village": "GIRIMAKMUR",
    "postal_code": "44188"
  },
  {
    "village_code": "27749",
    "village": "KARANGMULYA",
    "postal_code": "44188"
  },
  {
    "village_code": "28154",
    "village": "KUTANAGARA",
    "postal_code": "44188"
  },
  {
    "village_code": "28293",
    "village": "LEWOBARU",
    "postal_code": "44188"
  },
  {
    "village_code": "28388",
    "village": "MALANGBONG",
    "postal_code": "44188"
  },
  {
    "village_code": "28565",
    "village": "MEKAR MULYA",
    "postal_code": "44188"
  },
  {
    "village_code": "28574",
    "village": "MEKARASIH",
    "postal_code": "44188"
  },
  {
    "village_code": "29683",
    "village": "SAKAWAYANA",
    "postal_code": "44188"
  },
  {
    "village_code": "29722",
    "village": "SANDING",
    "postal_code": "44188"
  },
  {
    "village_code": "29787",
    "village": "SEKARWANGI",
    "postal_code": "44188"
  },
  {
    "village_code": "30242",
    "village": "SUKAJAYA",
    "postal_code": "44188"
  },
  {
    "village_code": "30356",
    "village": "SUKAMANAH",
    "postal_code": "44188"
  },
  {
    "village_code": "30508",
    "village": "SUKARASA",
    "postal_code": "44188"
  },
  {
    "village_code": "30519",
    "village": "SUKARATU",
    "postal_code": "44188"
  }
]