[
  {
    "village_code": "26010",
    "village": "CIBUNAR",
    "postal_code": "44151"
  },
  {
    "village_code": "27273",
    "village": "HAURPANGGUNG",
    "postal_code": "44151"
  },
  {
    "village_code": "27504",
    "village": "JAYARAGA",
    "postal_code": "44151"
  },
  {
    "village_code": "27511",
    "village": "JAYAWARAS",
    "postal_code": "44151"
  },
  {
    "village_code": "27975",
    "village": "KERSAMENAK",
    "postal_code": "44151"
  },
  {
    "village_code": "28586",
    "village": "MEKARGALIH",
    "postal_code": "44151"
  },
  {
    "village_code": "29380",
    "village": "PATARUMAN",
    "postal_code": "44151"
  },
  {
    "village_code": "30146",
    "village": "SUKABAKTI",
    "postal_code": "44151"
  },
  {
    "village_code": "30179",
    "village": "SUKAGALIH",
    "postal_code": "44151"
  },
  {
    "village_code": "30254",
    "village": "SUKAJAYA",
    "postal_code": "44151"
  },
  {
    "village_code": "30262",
    "village": "SUKAKARYA",
    "postal_code": "44151"
  },
  {
    "village_code": "30857",
    "village": "TAROGONG",
    "postal_code": "44151"
  }
]