[
  {
    "village_code": "26104",
    "village": "CIGARONGGONG",
    "postal_code": "44176"
  },
  {
    "village_code": "27829",
    "village": "KARYA MUKTI",
    "postal_code": "44176"
  },
  {
    "village_code": "27854",
    "village": "KARYASARI",
    "postal_code": "44176"
  },
  {
    "village_code": "28541",
    "village": "MAROKO",
    "postal_code": "44176"
  },
  {
    "village_code": "28641",
    "village": "MEKARMUKTI",
    "postal_code": "44176"
  },
  {
    "village_code": "28670",
    "village": "MEKARSARI",
    "postal_code": "44176"
  },
  {
    "village_code": "28715",
    "village": "MEKARWANGI",
    "postal_code": "44176"
  },
  {
    "village_code": "28841",
    "village": "NAJATEN",
    "postal_code": "44176"
  },
  {
    "village_code": "29675",
    "village": "SAGARA",
    "postal_code": "44176"
  },
  {
    "village_code": "29721",
    "village": "SANCANG",
    "postal_code": "44176"
  },
  {
    "village_code": "29880",
    "village": "SIMPANG",
    "postal_code": "44176"
  }
]