[
  {
    "village_code": "26477",
    "village": "CIMANGANTEN",
    "postal_code": "44151"
  },
  {
    "village_code": "27386",
    "village": "JATI",
    "postal_code": "44151"
  },
  {
    "village_code": "28189",
    "village": "LANGENSARI",
    "postal_code": "44151"
  },
  {
    "village_code": "28630",
    "village": "MEKARJAYA",
    "postal_code": "44151"
  },
  {
    "village_code": "28730",
    "village": "MEKARWANGI",
    "postal_code": "44151"
  },
  {
    "village_code": "29113",
    "village": "PANANJUNG",
    "postal_code": "44151"
  },
  {
    "village_code": "29177",
    "village": "PANJIWANGI",
    "postal_code": "44151"
  },
  {
    "village_code": "29280",
    "village": "PASAWAHAN",
    "postal_code": "44151"
  },
  {
    "village_code": "29574",
    "village": "RANCABANGO",
    "postal_code": "44151"
  },
  {
    "village_code": "30056",
    "village": "SIRNAJAYA",
    "postal_code": "44151"
  },
  {
    "village_code": "30228",
    "village": "SUKAJADI",
    "postal_code": "44151"
  },
  {
    "village_code": "30608",
    "village": "SUKAWANGI",
    "postal_code": "44151"
  },
  {
    "village_code": "30790",
    "village": "TANJUNGKAMUNING",
    "postal_code": "44151"
  }
]