[
  {
    "village_code": "28539",
    "village": "MARIPARI",
    "postal_code": "44184"
  },
  {
    "village_code": "28588",
    "village": "MEKARHURIP",
    "postal_code": "44184"
  },
  {
    "village_code": "28636",
    "village": "MEKARLUYU",
    "postal_code": "44184"
  },
  {
    "village_code": "28727",
    "village": "MEKARWANGI",
    "postal_code": "44184"
  },
  {
    "village_code": "29267",
    "village": "PASANGGRAHAN",
    "postal_code": "44184"
  },
  {
    "village_code": "30131",
    "village": "SUDALARANG",
    "postal_code": "44184"
  },
  {
    "village_code": "30187",
    "village": "SUKAHAJI",
    "postal_code": "44184"
  },
  {
    "village_code": "30295",
    "village": "SUKALUYU",
    "postal_code": "44184"
  },
  {
    "village_code": "30407",
    "village": "SUKAMUKTI",
    "postal_code": "44184"
  },
  {
    "village_code": "30583",
    "village": "SUKASONO",
    "postal_code": "44184"
  },
  {
    "village_code": "30617",
    "village": "SUKAWENING",
    "postal_code": "44184"
  }
]