[
  {
    "village_code": "40257",
    "village": "ANGGASWANGI",
    "postal_code": "61258"
  },
  {
    "village_code": "40545",
    "village": "BANGSRI",
    "postal_code": "61258"
  },
  {
    "village_code": "41371",
    "village": "CANGKRINGSARI",
    "postal_code": "61258"
  },
  {
    "village_code": "42542",
    "village": "JOGOSATRU",
    "postal_code": "61258"
  },
  {
    "village_code": "42603",
    "village": "JUMPUTREJO",
    "postal_code": "61258"
  },
  {
    "village_code": "43202",
    "village": "KEBONAGUNG",
    "postal_code": "61258"
  },
  {
    "village_code": "43433",
    "village": "KELOPOSEPULUH",
    "postal_code": "61258"
  },
  {
    "village_code": "44387",
    "village": "MASANGAN KULON",
    "postal_code": "61258"
  },
  {
    "village_code": "44388",
    "village": "MASANGAN WETAN",
    "postal_code": "61258"
  },
  {
    "village_code": "44826",
    "village": "NGARESREJO",
    "postal_code": "61258"
  },
  {
    "village_code": "45128",
    "village": "PADEMONEGORO",
    "postal_code": "61258"
  },
  {
    "village_code": "45398",
    "village": "PANJUNAN",
    "postal_code": "61216"
  },
  {
    "village_code": "45543",
    "village": "PEKARUNGAN",
    "postal_code": "61258"
  },
  {
    "village_code": "45777",
    "village": "PLUMBUNGAN",
    "postal_code": "61258"
  },
  {
    "village_code": "46349",
    "village": "SAMBUNGREJO",
    "postal_code": "61258"
  },
  {
    "village_code": "47098",
    "village": "SUKO",
    "postal_code": "61258"
  },
  {
    "village_code": "47119",
    "village": "SUKODONO",
    "postal_code": "61258"
  },
  {
    "village_code": "47591",
    "village": "SURUH",
    "postal_code": "61258"
  },
  {
    "village_code": "48507",
    "village": "WILAYUT",
    "postal_code": "61258"
  }
]