[
  {
    "village_code": "40571",
    "village": "BANJAR KEMUNING",
    "postal_code": "61253"
  },
  {
    "village_code": "40955",
    "village": "BETRO",
    "postal_code": "61253"
  },
  {
    "village_code": "41270",
    "village": "BUNCITAN",
    "postal_code": "61253"
  },
  {
    "village_code": "41388",
    "village": "CEMANDI",
    "postal_code": "61253"
  },
  {
    "village_code": "42035",
    "village": "GISIK CEMANDI",
    "postal_code": "61253"
  },
  {
    "village_code": "42666",
    "village": "KALANGANYAR",
    "postal_code": "61253"
  },
  {
    "village_code": "44017",
    "village": "KWANGSAN",
    "postal_code": "61253"
  },
  {
    "village_code": "45083",
    "village": "PABEAN",
    "postal_code": "61253"
  },
  {
    "village_code": "45618",
    "village": "PEPE",
    "postal_code": "61253"
  },
  {
    "village_code": "45891",
    "village": "PRANTI",
    "postal_code": "61253"
  },
  {
    "village_code": "45993",
    "village": "PULUNGAN",
    "postal_code": "61253"
  },
  {
    "village_code": "46451",
    "village": "SEDATI AGUNG",
    "postal_code": "61253"
  },
  {
    "village_code": "46452",
    "village": "SEDATI GEDE",
    "postal_code": "61253"
  },
  {
    "village_code": "46472",
    "village": "SEGORO TAMBAK",
    "postal_code": "61253"
  },
  {
    "village_code": "46554",
    "village": "SEMAMPIR",
    "postal_code": "61253"
  },
  {
    "village_code": "47699",
    "village": "TAMBAK CEMANDI",
    "postal_code": "61253"
  }
]