[
  {
    "village_code": "40726",
    "village": "BARENGKRAJAN",
    "postal_code": "61262"
  },
  {
    "village_code": "41812",
    "village": "GAMPING",
    "postal_code": "61262"
  },
  {
    "village_code": "42381",
    "village": "JATIKALANG",
    "postal_code": "61262"
  },
  {
    "village_code": "42487",
    "village": "JERUK GAMPING",
    "postal_code": "61262"
  },
  {
    "village_code": "42612",
    "village": "JUNWANGI",
    "postal_code": "61262"
  },
  {
    "village_code": "43114",
    "village": "KATRUNGAN (KATERUNGAN)",
    "postal_code": "61262"
  },
  {
    "village_code": "43178",
    "village": "KEBOHARAN",
    "postal_code": "61262"
  },
  {
    "village_code": "43449",
    "village": "KEMASAN",
    "postal_code": "61262"
  },
  {
    "village_code": "43910",
    "village": "KRATON",
    "postal_code": "61262"
  },
  {
    "village_code": "43933",
    "village": "KRIAN",
    "postal_code": "61262"
  },
  {
    "village_code": "45852",
    "village": "PONOKAWAN",
    "postal_code": "61262"
  },
  {
    "village_code": "46461",
    "village": "SEDENGAN MIJEN",
    "postal_code": "61262"
  },
  {
    "village_code": "46761",
    "village": "SIDOMOJO",
    "postal_code": "61262"
  },
  {
    "village_code": "46786",
    "village": "SIDOMULYO",
    "postal_code": "61262"
  },
  {
    "village_code": "46824",
    "village": "SIDOREJO",
    "postal_code": "61262"
  },
  {
    "village_code": "47702",
    "village": "TAMBAK KEMERAKAN",
    "postal_code": "61262"
  },
  {
    "village_code": "48039",
    "village": "TEMPEL",
    "postal_code": "61262"
  },
  {
    "village_code": "48093",
    "village": "TERIK",
    "postal_code": "61262"
  },
  {
    "village_code": "48099",
    "village": "TERUNG KULON",
    "postal_code": "61262"
  },
  {
    "village_code": "48100",
    "village": "TERUNG WETAN",
    "postal_code": "61262"
  },
  {
    "village_code": "48251",
    "village": "TROPODO",
    "postal_code": "61262"
  },
  {
    "village_code": "48462",
    "village": "WATUGOLONG",
    "postal_code": "61262"
  }
]