[
  {
    "village_code": "40805",
    "village": "BECIRONGENGOR",
    "postal_code": "61261"
  },
  {
    "village_code": "41342",
    "village": "CANDINEGORO",
    "postal_code": "61261"
  },
  {
    "village_code": "42515",
    "village": "JIMBARAN KULON",
    "postal_code": "61261"
  },
  {
    "village_code": "42516",
    "village": "JIMBARAN WETAN",
    "postal_code": "61261"
  },
  {
    "village_code": "43016",
    "village": "KARANGPURI",
    "postal_code": "61261"
  },
  {
    "village_code": "43713",
    "village": "KETIMANG",
    "postal_code": "61261"
  },
  {
    "village_code": "44045",
    "village": "LAMBANGAN",
    "postal_code": "61261"
  },
  {
    "village_code": "44589",
    "village": "MOJORANGAGUNG",
    "postal_code": "61261"
  },
  {
    "village_code": "44689",
    "village": "MULYODADI",
    "postal_code": "61261"
  },
  {
    "village_code": "45154",
    "village": "PAGERNGUMBUK",
    "postal_code": "61261"
  },
  {
    "village_code": "45688",
    "village": "PILANG",
    "postal_code": "61261"
  },
  {
    "village_code": "45732",
    "village": "PLAOSAN",
    "postal_code": "61261"
  },
  {
    "village_code": "45755",
    "village": "PLOSO",
    "postal_code": "61261"
  },
  {
    "village_code": "45856",
    "village": "POPOH",
    "postal_code": "61261"
  },
  {
    "village_code": "46423",
    "village": "SAWOCANGKRING",
    "postal_code": "61261"
  },
  {
    "village_code": "46550",
    "village": "SEMAMBUNG",
    "postal_code": "61261"
  },
  {
    "village_code": "46864",
    "village": "SIMO ANGIN ANGIN",
    "postal_code": "61261"
  },
  {
    "village_code": "46874",
    "village": "SIMOKETAWANG",
    "postal_code": "61261"
  },
  {
    "village_code": "47417",
    "village": "SUMBEREJO",
    "postal_code": "61261"
  },
  {
    "village_code": "47799",
    "village": "TANGGUL",
    "postal_code": "61261"
  },
  {
    "village_code": "48546",
    "village": "WONOAYU",
    "postal_code": "61261"
  },
  {
    "village_code": "48565",
    "village": "WONOKALANG",
    "postal_code": "61261"
  },
  {
    "village_code": "48568",
    "village": "WONOKASIAN",
    "postal_code": "61261"
  }
]