[
  {
    "village_code": "40209",
    "village": "ALAS MALANG",
    "postal_code": "68464"
  },
  {
    "village_code": "40901",
    "village": "BENELAN KIDUL",
    "postal_code": "68464"
  },
  {
    "village_code": "41374",
    "village": "CANTUK",
    "postal_code": "68464"
  },
  {
    "village_code": "41803",
    "village": "GAMBOR",
    "postal_code": "68464"
  },
  {
    "village_code": "42161",
    "village": "GUMIRIH",
    "postal_code": "68464"
  },
  {
    "village_code": "43481",
    "village": "KEMIRI",
    "postal_code": "68464"
  },
  {
    "village_code": "44131",
    "village": "LEMAHBANG KULON",
    "postal_code": "68464"
  },
  {
    "village_code": "45112",
    "village": "PADANG",
    "postal_code": "68464"
  },
  {
    "village_code": "46894",
    "village": "SINGOJURUH",
    "postal_code": "68464"
  },
  {
    "village_code": "46895",
    "village": "SINGOLATREN",
    "postal_code": "68464"
  },
  {
    "village_code": "47271",
    "village": "SUMBER BARU",
    "postal_code": "68464"
  }
]