[
  {
    "village_code": "6760",
    "village": "BAKAL GAJAH",
    "postal_code": "22262"
  },
  {
    "village_code": "7204",
    "village": "BONGKARAS",
    "postal_code": "22262"
  },
  {
    "village_code": "7206",
    "village": "BONIAN",
    "postal_code": "22262"
  },
  {
    "village_code": "8571",
    "village": "LAE AMBAT",
    "postal_code": "22262"
  },
  {
    "village_code": "8580",
    "village": "LAE PANGINUMAN",
    "postal_code": "22262"
  },
  {
    "village_code": "8582",
    "village": "LAE RAMBONG",
    "postal_code": "22262"
  },
  {
    "village_code": "8805",
    "village": "LONGKOTAN",
    "postal_code": "22262"
  },
  {
    "village_code": "9561",
    "village": "PALIPI",
    "postal_code": "22262"
  },
  {
    "village_code": "9813",
    "village": "PARONGIL",
    "postal_code": "22262"
  },
  {
    "village_code": "10268",
    "village": "POLLING ANAK-ANAK",
    "postal_code": "22262"
  },
  {
    "village_code": "10911",
    "village": "SIBORAS",
    "postal_code": "22262"
  },
  {
    "village_code": "11500",
    "village": "SIRATAH",
    "postal_code": "22262"
  },
  {
    "village_code": "11790",
    "village": "SUMBARI",
    "postal_code": "22262"
  },
  {
    "village_code": "12288",
    "village": "TUNGTUNG BATU",
    "postal_code": "22262"
  },
  {
    "village_code": "12372",
    "village": "URIK BELIN",
    "postal_code": "22262"
  }
]