[
  {
    "village_code": "75493",
    "village": "BUMI WONOREJO",
    "postal_code": "98813"
  },
  {
    "village_code": "75974",
    "village": "GIRIMULYO",
    "postal_code": "98814"
  },
  {
    "village_code": "76435",
    "village": "KALI HARAPAN",
    "postal_code": "98811"
  },
  {
    "village_code": "76436",
    "village": "KALI SUSU",
    "postal_code": "98811"
  },
  {
    "village_code": "76437",
    "village": "KALIBOBO",
    "postal_code": "98818"
  },
  {
    "village_code": "76512",
    "village": "KARANG MULIA",
    "postal_code": "98815"
  },
  {
    "village_code": "76515",
    "village": "KARANG TUMARITIS",
    "postal_code": "98812"
  },
  {
    "village_code": "77393",
    "village": "MORGO",
    "postal_code": "98811"
  },
  {
    "village_code": "77468",
    "village": "NABARUA",
    "postal_code": "98817"
  },
  {
    "village_code": "77782",
    "village": "OYEHE",
    "postal_code": "98816"
  },
  {
    "village_code": "78172",
    "village": "SANOBA (SANOBA PANTAI)",
    "postal_code": "98818"
  },
  {
    "village_code": "78365",
    "village": "SIRIWINI",
    "postal_code": "98818"
  }
]