[
  {
    "village_code": "48710",
    "village": "BABAKAN",
    "postal_code": "15820"
  },
  {
    "village_code": "48715",
    "village": "BABAT",
    "postal_code": "15820"
  },
  {
    "village_code": "48802",
    "village": "BOJONG KAMAL",
    "postal_code": "15820"
  },
  {
    "village_code": "48854",
    "village": "CARINGIN",
    "postal_code": "15820"
  },
  {
    "village_code": "48869",
    "village": "CIANGIR",
    "postal_code": "15820"
  },
  {
    "village_code": "49043",
    "village": "CIRARAB",
    "postal_code": "15820"
  },
  {
    "village_code": "49290",
    "village": "KAMUNING (KEMUNING)",
    "postal_code": "15820"
  },
  {
    "village_code": "49481",
    "village": "LEGOK",
    "postal_code": "15820"
  },
  {
    "village_code": "49668",
    "village": "PALA SARI",
    "postal_code": "15820"
  },
  {
    "village_code": "49867",
    "village": "RANCAGONG",
    "postal_code": "15820"
  },
  {
    "village_code": "49944",
    "village": "SERDANG WETAN",
    "postal_code": "15820"
  }
]