[
  {
    "village_code": "49030",
    "village": "CIPETE",
    "postal_code": "15142"
  },
  {
    "village_code": "49441",
    "village": "KUNCIRAN",
    "postal_code": "15144"
  },
  {
    "village_code": "49439",
    "village": "KUNCIRAN INDAH",
    "postal_code": "15144"
  },
  {
    "village_code": "49440",
    "village": "KUNCIRAN JAYA",
    "postal_code": "15144"
  },
  {
    "village_code": "49624",
    "village": "NEROGTOG",
    "postal_code": "15145"
  },
  {
    "village_code": "49659",
    "village": "PAKOJAN",
    "postal_code": "15142"
  },
  {
    "village_code": "49710",
    "village": "PANUNGGANGAN",
    "postal_code": "15143"
  },
  {
    "village_code": "49708",
    "village": "PANUNGGANGAN TIMUR",
    "postal_code": "15143"
  },
  {
    "village_code": "49709",
    "village": "PANUNGGANGAN UTARA",
    "postal_code": "15143"
  },
  {
    "village_code": "49809",
    "village": "PINANG",
    "postal_code": "15145"
  },
  {
    "village_code": "50009",
    "village": "SUDIMARA PINANG",
    "postal_code": "15145"
  }
]