[
  {
    "village_code": "52317",
    "village": "BITING",
    "postal_code": "86581"
  },
  {
    "village_code": "52636",
    "village": "GISING",
    "postal_code": "86581"
  },
  {
    "village_code": "52650",
    "village": "GOLO LEBO",
    "postal_code": "86581"
  },
  {
    "village_code": "52655",
    "village": "GOLO LIJUN",
    "postal_code": "86581"
  },
  {
    "village_code": "52657",
    "village": "GOLO LINUS",
    "postal_code": "86581"
  },
  {
    "village_code": "52669",
    "village": "GOLO MUNDE",
    "postal_code": "86581"
  },
  {
    "village_code": "52712",
    "village": "GOLO WUAS",
    "postal_code": "86581"
  },
  {
    "village_code": "52734",
    "village": "HAJU NGENDONG",
    "postal_code": "86581"
  },
  {
    "village_code": "53214",
    "village": "LANGGASAI",
    "postal_code": "86581"
  },
  {
    "village_code": "53260",
    "village": "LEGUR LAI",
    "postal_code": "86581"
  },
  {
    "village_code": "53286",
    "village": "LENGKO NAMUT",
    "postal_code": "86581"
  },
  {
    "village_code": "54360",
    "village": "RANA GAPANG",
    "postal_code": "86581"
  },
  {
    "village_code": "54362",
    "village": "RANA KULAN",
    "postal_code": "86581"
  },
  {
    "village_code": "54562",
    "village": "SISIR",
    "postal_code": "86581"
  },
  {
    "village_code": "54766",
    "village": "TIWU KONDO",
    "postal_code": "86581"
  }
]