[
  {
    "village_code": "25714",
    "village": "BUNGURJAYA",
    "postal_code": "41115"
  },
  {
    "village_code": "27034",
    "village": "GALUDRA",
    "postal_code": "41115"
  },
  {
    "village_code": "27244",
    "village": "GURUDUG",
    "postal_code": "41115"
  },
  {
    "village_code": "29235",
    "village": "PARAKANSALAM",
    "postal_code": "41115"
  },
  {
    "village_code": "29454",
    "village": "PONDOKBUNGUR",
    "postal_code": "41115"
  },
  {
    "village_code": "29695",
    "village": "SALAMJAYA",
    "postal_code": "41115"
  },
  {
    "village_code": "29696",
    "village": "SALAMMULYA",
    "postal_code": "41115"
  },
  {
    "village_code": "29704",
    "village": "SALEM",
    "postal_code": "41115"
  },
  {
    "village_code": "30079",
    "village": "SITU",
    "postal_code": "41115"
  },
  {
    "village_code": "30223",
    "village": "SUKAJADI",
    "postal_code": "41115"
  },
  {
    "village_code": "30771",
    "village": "TANJUNG SARI",
    "postal_code": "41115"
  }
]