[
  {
    "village_code": "21885",
    "village": "BUKO POSO",
    "postal_code": "34684"
  },
  {
    "village_code": "21914",
    "village": "BUMI HARAPAN",
    "postal_code": "34684"
  },
  {
    "village_code": "22104",
    "village": "GEDUNG BOGA / RAJA",
    "postal_code": "34684"
  },
  {
    "village_code": "22237",
    "village": "HADI MULYO",
    "postal_code": "34684"
  },
  {
    "village_code": "22413",
    "village": "KEBUN DALAM",
    "postal_code": "34684"
  },
  {
    "village_code": "22439",
    "village": "KEJADIAN",
    "postal_code": "34684"
  },
  {
    "village_code": "22568",
    "village": "LABUHAN BARU",
    "postal_code": "34684"
  },
  {
    "village_code": "22569",
    "village": "LABUHAN BATIN",
    "postal_code": "34684"
  },
  {
    "village_code": "22572",
    "village": "LABUHAN MAKMUR",
    "postal_code": "34684"
  },
  {
    "village_code": "22955",
    "village": "PANCA WARNA",
    "postal_code": "34684"
  },
  {
    "village_code": "23218",
    "village": "REJO MULYO",
    "postal_code": "34684"
  },
  {
    "village_code": "23473",
    "village": "SRI GEDUNG MULYA",
    "postal_code": "34684"
  },
  {
    "village_code": "23524",
    "village": "SUKA AGUNG",
    "postal_code": "34684"
  }
]