[
  {
    "village_code": "79979",
    "village": "GISIM DARAT",
    "postal_code": "98456"
  },
  {
    "village_code": "80189",
    "village": "KELADUM",
    "postal_code": "98456"
  },
  {
    "village_code": "80213",
    "village": "KLAGULU",
    "postal_code": "98456"
  },
  {
    "village_code": "80219",
    "village": "KLALOMON",
    "postal_code": "98456"
  },
  {
    "village_code": "80222",
    "village": "KLAMANO",
    "postal_code": "98456"
  },
  {
    "village_code": "80226",
    "village": "KLAMUGUN",
    "postal_code": "98456"
  },
  {
    "village_code": "80235",
    "village": "KLASMAN",
    "postal_code": "98456"
  },
  {
    "village_code": "80245",
    "village": "KLAWANA",
    "postal_code": "98456"
  },
  {
    "village_code": "80348",
    "village": "MALAJAPA",
    "postal_code": "98456"
  },
  {
    "village_code": "80353",
    "village": "MALASIGIT",
    "postal_code": "98456"
  },
  {
    "village_code": "80503",
    "village": "MLAIS",
    "postal_code": "98456"
  },
  {
    "village_code": "81073",
    "village": "WARIAYAU",
    "postal_code": "98456"
  },
  {
    "village_code": "81174",
    "village": "WONOSARI",
    "postal_code": "98456"
  }
]