[
  {
    "village_code": "20160",
    "village": "ARAH TIGA",
    "postal_code": "38767"
  },
  {
    "village_code": "20596",
    "village": "KOTA PRAJA",
    "postal_code": "38767"
  },
  {
    "village_code": "20647",
    "village": "LUBUK GEDANG",
    "postal_code": "38767"
  },
  {
    "village_code": "20668",
    "village": "LUBUK PINANG",
    "postal_code": "38767"
  },
  {
    "village_code": "21027",
    "village": "RANAH KARYA",
    "postal_code": "38767"
  },
  {
    "village_code": "21118",
    "village": "SIDO MAKMUR",
    "postal_code": "38767"
  },
  {
    "village_code": "21146",
    "village": "SINAR JAYA",
    "postal_code": "38767"
  },
  {
    "village_code": "21195",
    "village": "SUKA PINDAH",
    "postal_code": "38767"
  },
  {
    "village_code": "21230",
    "village": "SUMBER MAKMUR",
    "postal_code": "38767"
  },
  {
    "village_code": "21417",
    "village": "TANJUNG ALAI",
    "postal_code": "38767"
  },
  {
    "village_code": "21547",
    "village": "TIRTA MULYA",
    "postal_code": "38767"
  }
]