[
  {
    "village_code": "21605",
    "village": "ADILUHUR",
    "postal_code": "34384"
  },
  {
    "village_code": "21607",
    "village": "ADIREJO",
    "postal_code": "34384"
  },
  {
    "village_code": "21636",
    "village": "ASAHAN",
    "postal_code": "34384"
  },
  {
    "village_code": "21808",
    "village": "BELIMBING SARI",
    "postal_code": "34384"
  },
  {
    "village_code": "21816",
    "village": "BENTENG SARI",
    "postal_code": "34384"
  },
  {
    "village_code": "22190",
    "village": "GUNUNG MEKAR",
    "postal_code": "34384"
  },
  {
    "village_code": "22213",
    "village": "GUNUNG SUGIH KECIL",
    "postal_code": "34384"
  },
  {
    "village_code": "22273",
    "village": "JABUNG",
    "postal_code": "34384"
  },
  {
    "village_code": "22703",
    "village": "MEKAR JAYA",
    "postal_code": "34384"
  },
  {
    "village_code": "22781",
    "village": "MUMBANG JAYA",
    "postal_code": "34384"
  },
  {
    "village_code": "22797",
    "village": "NEGARA BATIN",
    "postal_code": "34384"
  },
  {
    "village_code": "22814",
    "village": "NEGARA SAKA",
    "postal_code": "34384"
  },
  {
    "village_code": "23039",
    "village": "PEMATANG TAHALO",
    "postal_code": "34384"
  },
  {
    "village_code": "23261",
    "village": "SAMBI REJO",
    "postal_code": "34384"
  },
  {
    "village_code": "23879",
    "village": "TANJUNG SARI",
    "postal_code": "34384"
  }
]