[
  {
    "village_code": "21695",
    "village": "BANDAR NEGERI",
    "postal_code": "34198"
  },
  {
    "village_code": "22350",
    "village": "KARANG ANYAR",
    "postal_code": "34198"
  },
  {
    "village_code": "22393",
    "village": "KARYA MAKMUR",
    "postal_code": "34198"
  },
  {
    "village_code": "22400",
    "village": "KARYATANI",
    "postal_code": "34198"
  },
  {
    "village_code": "22573",
    "village": "LABUHAN MARINGAI",
    "postal_code": "34198"
  },
  {
    "village_code": "22661",
    "village": "MARGASARI",
    "postal_code": "34198"
  },
  {
    "village_code": "22684",
    "village": "MARINGGAI",
    "postal_code": "34198"
  },
  {
    "village_code": "22748",
    "village": "MUARA GADING MAS",
    "postal_code": "34198"
  },
  {
    "village_code": "23472",
    "village": "SRI GADING",
    "postal_code": "34198"
  },
  {
    "village_code": "23486",
    "village": "SRI MINOSARI",
    "postal_code": "34198"
  },
  {
    "village_code": "23665",
    "village": "SUKORAHAYU",
    "postal_code": "34198"
  }
]