[
  {
    "village_code": "21852",
    "village": "BRAJA ASRI",
    "postal_code": "34396"
  },
  {
    "village_code": "21853",
    "village": "BRAJA CAKA",
    "postal_code": "34396"
  },
  {
    "village_code": "21854",
    "village": "BRAJA DEWA",
    "postal_code": "34396"
  },
  {
    "village_code": "21855",
    "village": "BRAJA EMAS",
    "postal_code": "34396"
  },
  {
    "village_code": "21856",
    "village": "BRAJA FAJAR",
    "postal_code": "34396"
  },
  {
    "village_code": "21863",
    "village": "BRAJA SAKTI",
    "postal_code": "34396"
  },
  {
    "village_code": "22293",
    "village": "JEPARA",
    "postal_code": "34396"
  },
  {
    "village_code": "22574",
    "village": "LABUHAN RATU BARU",
    "postal_code": "34396"
  },
  {
    "village_code": "22575",
    "village": "LABUHAN RATU DANAU",
    "postal_code": "34396"
  },
  {
    "village_code": "22577",
    "village": "LABUHAN RATU DUA (II)",
    "postal_code": "34396"
  },
  {
    "village_code": "22584",
    "village": "LABUHAN RATU SATU (I)",
    "postal_code": "34396"
  },
  {
    "village_code": "23498",
    "village": "SRI REJOSARI",
    "postal_code": "34396"
  },
  {
    "village_code": "23502",
    "village": "SRI WANGI",
    "postal_code": "34396"
  },
  {
    "village_code": "23700",
    "village": "SUMBER MARGA",
    "postal_code": "34396"
  },
  {
    "village_code": "23723",
    "village": "SUMBERJO",
    "postal_code": "34396"
  },
  {
    "village_code": "23727",
    "village": "SUMUR BANDUNG",
    "postal_code": "34396"
  }
]