[
  {
    "village_code": "22145",
    "village": "GIRI KLOPO / KELOPO MULYO",
    "postal_code": "34382"
  },
  {
    "village_code": "22148",
    "village": "GIRIKARTO",
    "postal_code": "34382"
  },
  {
    "village_code": "22259",
    "village": "HARGOMULYO",
    "postal_code": "34382"
  },
  {
    "village_code": "22274",
    "village": "JADIMULYO",
    "postal_code": "34382"
  },
  {
    "village_code": "22395",
    "village": "KARYA MUKTI",
    "postal_code": "34382"
  },
  {
    "village_code": "22708",
    "village": "MEKAR MUKTI",
    "postal_code": "34382"
  },
  {
    "village_code": "22710",
    "village": "MEKAR MULYA / MULYO",
    "postal_code": "34382"
  },
  {
    "village_code": "22714",
    "village": "MEKAR SARI",
    "postal_code": "34382"
  },
  {
    "village_code": "23262",
    "village": "SAMBIKARTO",
    "postal_code": "34382"
  },
  {
    "village_code": "23354",
    "village": "SIDODADI",
    "postal_code": "34382"
  },
  {
    "village_code": "23371",
    "village": "SIDOMUKTI",
    "postal_code": "34382"
  },
  {
    "village_code": "23380",
    "village": "SIDOMULYO",
    "postal_code": "34382"
  },
  {
    "village_code": "23657",
    "village": "SUKO HARJO",
    "postal_code": "34382"
  },
  {
    "village_code": "23691",
    "village": "SUMBER GEDE",
    "postal_code": "34382"
  },
  {
    "village_code": "23726",
    "village": "SUMBERSARI",
    "postal_code": "34382"
  },
  {
    "village_code": "24001",
    "village": "TRIMULYO",
    "postal_code": "34382"
  },
  {
    "village_code": "24159",
    "village": "WONOKARTO",
    "postal_code": "34382"
  }
]