[
  {
    "village_code": "22527",
    "village": "KOTA RAMAN",
    "postal_code": "34371"
  },
  {
    "village_code": "23178",
    "village": "RAMA PUJA",
    "postal_code": "34371"
  },
  {
    "village_code": "23179",
    "village": "RAMAN AJI",
    "postal_code": "34371"
  },
  {
    "village_code": "23180",
    "village": "RAMAN ENDRA",
    "postal_code": "34371"
  },
  {
    "village_code": "23181",
    "village": "RAMAN FAJAR",
    "postal_code": "34371"
  },
  {
    "village_code": "23186",
    "village": "RANTAU FAJAR",
    "postal_code": "34371"
  },
  {
    "village_code": "23198",
    "village": "RATNA DAYA",
    "postal_code": "34371"
  },
  {
    "village_code": "23212",
    "village": "REJO BINANGUN",
    "postal_code": "34371"
  },
  {
    "village_code": "23214",
    "village": "REJO KATON",
    "postal_code": "34371"
  },
  {
    "village_code": "23235",
    "village": "RESTU RAHAYU",
    "postal_code": "34371"
  },
  {
    "village_code": "23248",
    "village": "RUKTI SUDIYO",
    "postal_code": "34371"
  }
]