[
  {
    "village_code": "22588",
    "village": "LABUHAN RATU",
    "postal_code": "34375"
  },
  {
    "village_code": "22576",
    "village": "LABUHAN RATU DELAPAN (VIII)",
    "postal_code": "34375"
  },
  {
    "village_code": "22578",
    "village": "LABUHAN RATU EMPAT (IV)",
    "postal_code": "34375"
  },
  {
    "village_code": "22579",
    "village": "LABUHAN RATU ENAM (VI)",
    "postal_code": "34375"
  },
  {
    "village_code": "22581",
    "village": "LABUHAN RATU LIMA (V)",
    "postal_code": "34375"
  },
  {
    "village_code": "22585",
    "village": "LABUHAN RATU SEMBILAN (IX)",
    "postal_code": "34375"
  },
  {
    "village_code": "22586",
    "village": "LABUHAN RATU TIGA (III)",
    "postal_code": "34375"
  },
  {
    "village_code": "22587",
    "village": "LABUHAN RATU TUJUH (VII)",
    "postal_code": "34375"
  },
  {
    "village_code": "23160",
    "village": "RAJA BASA LAMA",
    "postal_code": "34375"
  },
  {
    "village_code": "23158",
    "village": "RAJA BASA LAMA DUA (II)",
    "postal_code": "34375"
  },
  {
    "village_code": "23159",
    "village": "RAJA BASA LAMA SATU (I)",
    "postal_code": "34375"
  }
]