[
  {
    "village_code": "23775",
    "village": "TAMAN ASRI",
    "postal_code": "34192"
  },
  {
    "village_code": "23777",
    "village": "TAMAN BOGO",
    "postal_code": "34192"
  },
  {
    "village_code": "23778",
    "village": "TAMAN CARI",
    "postal_code": "34192"
  },
  {
    "village_code": "23779",
    "village": "TAMAN ENDAH",
    "postal_code": "34192"
  },
  {
    "village_code": "23782",
    "village": "TAMAN PAJAR",
    "postal_code": "34192"
  },
  {
    "village_code": "23787",
    "village": "TAMBAH DADI",
    "postal_code": "34192"
  },
  {
    "village_code": "23788",
    "village": "TAMBAH LUHUR",
    "postal_code": "34192"
  },
  {
    "village_code": "23835",
    "village": "TANJUNG INTEN",
    "postal_code": "34192"
  },
  {
    "village_code": "23848",
    "village": "TANJUNG KESUMA",
    "postal_code": "34192"
  },
  {
    "village_code": "23918",
    "village": "TEGAL GONDO",
    "postal_code": "34192"
  },
  {
    "village_code": "23921",
    "village": "TEGAL YOSO",
    "postal_code": "34192"
  },
  {
    "village_code": "23967",
    "village": "TOTO HARJO",
    "postal_code": "34192"
  }
]