[
  {
    "village_code": "55349",
    "village": "BATU PAHAT",
    "postal_code": "79585"
  },
  {
    "village_code": "55480",
    "village": "CENAYAN",
    "postal_code": "79585"
  },
  {
    "village_code": "55678",
    "village": "KARANG BETUNG",
    "postal_code": "79585"
  },
  {
    "village_code": "55824",
    "village": "LANDAU APIN",
    "postal_code": "79585"
  },
  {
    "village_code": "55833",
    "village": "LANDAU KUMPAI",
    "postal_code": "79585"
  },
  {
    "village_code": "55856",
    "village": "LEMBAH BERINGIN",
    "postal_code": "79585"
  },
  {
    "village_code": "56116",
    "village": "NANGA MAHAP",
    "postal_code": "79585"
  },
  {
    "village_code": "56170",
    "village": "NANGA SURI",
    "postal_code": "79585"
  },
  {
    "village_code": "56528",
    "village": "SEBABAS (SE BABAS)",
    "postal_code": "79585"
  },
  {
    "village_code": "56973",
    "village": "TAMANG",
    "postal_code": "79585"
  },
  {
    "village_code": "57095",
    "village": "TELUK KEBAU",
    "postal_code": "79585"
  },
  {
    "village_code": "57114",
    "village": "TEMBAGA",
    "postal_code": "79585"
  },
  {
    "village_code": "57118",
    "village": "TEMBESUK",
    "postal_code": "79585"
  }
]