[
  {
    "village_code": "243",
    "village": "ALUE SIWAH",
    "postal_code": "24454"
  },
  {
    "village_code": "1095",
    "village": "BUKET TEUMPEUN",
    "postal_code": "24454"
  },
  {
    "village_code": "1099",
    "village": "BUKET TUFAH",
    "postal_code": "24454"
  },
  {
    "village_code": "1212",
    "village": "CEMPEUDAK",
    "postal_code": "24454"
  },
  {
    "village_code": "2420",
    "village": "KEUDE BLANG",
    "postal_code": "24454"
  },
  {
    "village_code": "2477",
    "village": "KEUDONDONG",
    "postal_code": "24454"
  },
  {
    "village_code": "4621",
    "village": "PAYA KRUEP",
    "postal_code": "24454"
  },
  {
    "village_code": "5481",
    "village": "SEUNEUBOK PANTON",
    "postal_code": "24454"
  },
  {
    "village_code": "6187",
    "village": "TUNONG BUGENG",
    "postal_code": "24454"
  },
  {
    "village_code": "6191",
    "village": "TUNONG PAYA KRUEP",
    "postal_code": "24454"
  },
  {
    "village_code": "6192",
    "village": "TUNONG ULEE GAJAH",
    "postal_code": "24454"
  }
]