[
  {
    "village_code": "14",
    "village": "AFDELING II BUKIT / BUKET",
    "postal_code": "24452"
  },
  {
    "village_code": "81",
    "village": "ALUE BULOH / BALOH",
    "postal_code": "24452"
  },
  {
    "village_code": "89",
    "village": "ALUE CANANG",
    "postal_code": "24452"
  },
  {
    "village_code": "98",
    "village": "ALUE DRIEN",
    "postal_code": "24452"
  },
  {
    "village_code": "112",
    "village": "ALUE GADENG",
    "postal_code": "24452"
  },
  {
    "village_code": "110",
    "village": "ALUE GADENG DUA",
    "postal_code": "24452"
  },
  {
    "village_code": "111",
    "village": "ALUE GADENG SATU",
    "postal_code": "24452"
  },
  {
    "village_code": "194",
    "village": "ALUE NYAMUK",
    "postal_code": "24452"
  },
  {
    "village_code": "230",
    "village": "ALUE SENTANG",
    "postal_code": "24452"
  },
  {
    "village_code": "248",
    "village": "ALUE TEH",
    "postal_code": "24452"
  },
  {
    "village_code": "326",
    "village": "ARAMIYAH",
    "postal_code": "24452"
  },
  {
    "village_code": "613",
    "village": "BAYEUN",
    "postal_code": "24452"
  },
  {
    "village_code": "633",
    "village": "BENTENG",
    "postal_code": "24452"
  },
  {
    "village_code": "729",
    "village": "BIREM RAYEUK",
    "postal_code": "24452"
  },
  {
    "village_code": "1002",
    "village": "BLANG TUALANG",
    "postal_code": "24452"
  },
  {
    "village_code": "1090",
    "village": "BUKET SEULEUMAK",
    "postal_code": "24452"
  },
  {
    "village_code": "1097",
    "village": "BUKET TIGA",
    "postal_code": "24452"
  },
  {
    "village_code": "2105",
    "village": "JAMBO LABU",
    "postal_code": "24452"
  },
  {
    "village_code": "2376",
    "village": "KEMUNING / KEUMUNENG HULU",
    "postal_code": "24452"
  },
  {
    "village_code": "2417",
    "village": "KEUDE BIREM",
    "postal_code": "24452"
  },
  {
    "village_code": "3747",
    "village": "MERBAU II (MERBOU DUA)",
    "postal_code": "24452"
  },
  {
    "village_code": "4577",
    "village": "PAYA BILI I (SATU)",
    "postal_code": "24452"
  },
  {
    "village_code": "4579",
    "village": "PAYA BILI II (DUA)",
    "postal_code": "24452"
  },
  {
    "village_code": "4642",
    "village": "PAYA PEULAWI",
    "postal_code": "24452"
  },
  {
    "village_code": "4650",
    "village": "PAYA RAMBONG",
    "postal_code": "24452"
  },
  {
    "village_code": "4660",
    "village": "PAYA TAMPAH",
    "postal_code": "24452"
  },
  {
    "village_code": "4805",
    "village": "PEUTOW",
    "postal_code": "24452"
  }
]