[
  {
    "village_code": "2511",
    "village": "KEUTAPANG DUA",
    "postal_code": "24456"
  },
  {
    "village_code": "3313",
    "village": "LHOK ASAHAN",
    "postal_code": "24456"
  },
  {
    "village_code": "3593",
    "village": "MATANG BUNGONG",
    "postal_code": "24456"
  },
  {
    "village_code": "3660",
    "village": "MATANG RAYEUK (SMK)",
    "postal_code": "24456"
  },
  {
    "village_code": "3665",
    "village": "MATANG REYEUK PP",
    "postal_code": "24456"
  },
  {
    "village_code": "3923",
    "village": "MEUNASAH JEUMPA",
    "postal_code": "24456"
  },
  {
    "village_code": "5434",
    "village": "SEUNEUBOK BARAT",
    "postal_code": "24456"
  },
  {
    "village_code": "5453",
    "village": "SEUNEUBOK DALAM",
    "postal_code": "24456"
  },
  {
    "village_code": "5472",
    "village": "SEUNEUBOK KUYUN",
    "postal_code": "24456"
  },
  {
    "village_code": "5512",
    "village": "SEUNEUBOK TEUNGOH",
    "postal_code": "24456"
  },
  {
    "village_code": "5518",
    "village": "SEUNEUBOK TIMUR",
    "postal_code": "24456"
  },
  {
    "village_code": "6139",
    "village": "TUALANG DALAM",
    "postal_code": "24456"
  },
  {
    "village_code": "6338",
    "village": "ULEE GLEE",
    "postal_code": "24456"
  }
]