[
  {
    "village_code": "58",
    "village": "ALUE BATEE",
    "postal_code": "24453"
  },
  {
    "village_code": "106",
    "village": "ALUE DUA",
    "postal_code": "24453"
  },
  {
    "village_code": "120",
    "village": "ALUE GEUNTENG",
    "postal_code": "24453"
  },
  {
    "village_code": "255",
    "village": "ALUE UDEP",
    "postal_code": "24453"
  },
  {
    "village_code": "659",
    "village": "BEURANDANG",
    "postal_code": "24453"
  },
  {
    "village_code": "690",
    "village": "BHOM LAMA",
    "postal_code": "24453"
  },
  {
    "village_code": "761",
    "village": "BLANG BAROM",
    "postal_code": "24453"
  },
  {
    "village_code": "1070",
    "village": "BUKET PALA BSP",
    "postal_code": "24453"
  },
  {
    "village_code": "2544",
    "village": "KLIET",
    "postal_code": "24453"
  },
  {
    "village_code": "3576",
    "village": "MATA IE",
    "postal_code": "24453"
  },
  {
    "village_code": "4547",
    "village": "PASIR PUTIH",
    "postal_code": "24453"
  },
  {
    "village_code": "4639",
    "village": "PAYA PALAS",
    "postal_code": "24453"
  },
  {
    "village_code": "4680",
    "village": "PAYA UNOU",
    "postal_code": "24453"
  },
  {
    "village_code": "4753",
    "village": "PERTAMINA",
    "postal_code": "24453"
  },
  {
    "village_code": "4891",
    "village": "PULO BLANG",
    "postal_code": "24453"
  },
  {
    "village_code": "5020",
    "village": "PUNTI PAYONG",
    "postal_code": "24453"
  },
  {
    "village_code": "5395",
    "village": "SEULEMAK MUDA",
    "postal_code": "24453"
  },
  {
    "village_code": "5404",
    "village": "SEUMALI (SEUMALY)",
    "postal_code": "24453"
  },
  {
    "village_code": "5440",
    "village": "SEUNEUBOK BARO",
    "postal_code": "24453"
  },
  {
    "village_code": "5460",
    "village": "SEUNEUBOK DALAM",
    "postal_code": "24453"
  },
  {
    "village_code": "5468",
    "village": "SEUNEUBOK JAYA",
    "postal_code": "24453"
  },
  {
    "village_code": "5469",
    "village": "SEUNEUBOK JOHAN",
    "postal_code": "24453"
  },
  {
    "village_code": "5813",
    "village": "TAMPAK",
    "postal_code": "24453"
  }
]