[
  {
    "village_code": "70",
    "village": "ALUE BU ALUE LHOK",
    "postal_code": "24453"
  },
  {
    "village_code": "71",
    "village": "ALUE BU ALUE NIREH",
    "postal_code": "24453"
  },
  {
    "village_code": "76",
    "village": "ALUE BUGENG",
    "postal_code": "24453"
  },
  {
    "village_code": "127",
    "village": "ALUE GUREP",
    "postal_code": "24453"
  },
  {
    "village_code": "252",
    "village": "ALUE THO",
    "postal_code": "24453"
  },
  {
    "village_code": "427",
    "village": "BABAH KRUENG",
    "postal_code": "24453"
  },
  {
    "village_code": "1115",
    "village": "BUKIT MEURIAM",
    "postal_code": "24453"
  },
  {
    "village_code": "1876",
    "village": "GEULANGGANG MERAK",
    "postal_code": "24453"
  },
  {
    "village_code": "2167",
    "village": "JEUNGKI",
    "postal_code": "24453"
  },
  {
    "village_code": "2639",
    "village": "KRUT LINTANG",
    "postal_code": "24453"
  },
  {
    "village_code": "5411",
    "village": "SEUMATANG KEUDE",
    "postal_code": "24453"
  },
  {
    "village_code": "5458",
    "village": "SEUNEUBOK DALAM",
    "postal_code": "24453"
  },
  {
    "village_code": "5467",
    "village": "SEUNEUBOK JALAN",
    "postal_code": "24453"
  },
  {
    "village_code": "5474",
    "village": "SEUNEUBOK LAPANG",
    "postal_code": "24453"
  },
  {
    "village_code": "5484",
    "village": "SEUNEUBOK PAYA",
    "postal_code": "24453"
  },
  {
    "village_code": "5497",
    "village": "SEUNEUBOK PUNTI",
    "postal_code": "24453"
  },
  {
    "village_code": "5503",
    "village": "SEUNEUBOK RAWANG",
    "postal_code": "24453"
  },
  {
    "village_code": "5515",
    "village": "SEUNEUBOK TEUNGOH",
    "postal_code": "24453"
  },
  {
    "village_code": "5517",
    "village": "SEUNEUBOK TEUPIN",
    "postal_code": "24453"
  },
  {
    "village_code": "6141",
    "village": "TUALANG PATENG",
    "postal_code": "24453"
  }
]