[
  {
    "village_code": "92",
    "village": "ALUE DALAM",
    "postal_code": "24455"
  },
  {
    "village_code": "113",
    "village": "ALUE GADENG",
    "postal_code": "24455"
  },
  {
    "village_code": "276",
    "village": "ALUR LHOK",
    "postal_code": "24455"
  },
  {
    "village_code": "279",
    "village": "ALUR LUDIN I (SATU",
    "postal_code": "24455"
  },
  {
    "village_code": "280",
    "village": "ALUR LUDIN II (DUA)",
    "postal_code": "24455"
  },
  {
    "village_code": "283",
    "village": "ALUR MERBO",
    "postal_code": "24455"
  },
  {
    "village_code": "454",
    "village": "BAGOK PANAH I",
    "postal_code": "24455"
  },
  {
    "village_code": "455",
    "village": "BAGOK PANAH II",
    "postal_code": "24455"
  },
  {
    "village_code": "456",
    "village": "BAGOK PANAH III",
    "postal_code": "24455"
  },
  {
    "village_code": "457",
    "village": "BAGOK PANAH IV",
    "postal_code": "24455"
  },
  {
    "village_code": "776",
    "village": "BLANG BUKET",
    "postal_code": "24455"
  },
  {
    "village_code": "1058",
    "village": "BUKET KULAM",
    "postal_code": "24455"
  },
  {
    "village_code": "1085",
    "village": "BUKET RAYA",
    "postal_code": "24455"
  },
  {
    "village_code": "1086",
    "village": "BUKET RUMIA / RUMIYA",
    "postal_code": "24455"
  },
  {
    "village_code": "1098",
    "village": "BUKET TUALANG",
    "postal_code": "24455"
  },
  {
    "village_code": "1489",
    "village": "DAMA POLO II",
    "postal_code": "24455"
  },
  {
    "village_code": "1490",
    "village": "DAMA PULO I",
    "postal_code": "24455"
  },
  {
    "village_code": "1683",
    "village": "GAMPONG BARO )KAMPUNG BARO)",
    "postal_code": "24455"
  },
  {
    "village_code": "1705",
    "village": "GAMPONG BEUNOT (KAMPUNG BEUNOT)",
    "postal_code": "24455"
  },
  {
    "village_code": "1744",
    "village": "GAMPONG KEUDE (KAMPUNG KEUDE)",
    "postal_code": "24455"
  },
  {
    "village_code": "1820",
    "village": "GASEH SAYANG",
    "postal_code": "24455"
  },
  {
    "village_code": "1948",
    "village": "GRONG-GRONG",
    "postal_code": "24455"
  },
  {
    "village_code": "2202",
    "village": "JUNGKA GAJAH",
    "postal_code": "24455"
  },
  {
    "village_code": "2300",
    "village": "KAPAI BARO",
    "postal_code": "24455"
  },
  {
    "village_code": "2371",
    "village": "KEMUNING I",
    "postal_code": "24455"
  },
  {
    "village_code": "2372",
    "village": "KEMUNING II",
    "postal_code": "24455"
  },
  {
    "village_code": "2373",
    "village": "KEMUNING III",
    "postal_code": "24455"
  },
  {
    "village_code": "2374",
    "village": "KEMUNING IV",
    "postal_code": "24455"
  },
  {
    "village_code": "2375",
    "village": "KEMUNING V",
    "postal_code": "24455"
  },
  {
    "village_code": "2656",
    "village": "KUALA IDI CUT",
    "postal_code": "24455"
  },
  {
    "village_code": "3340",
    "village": "LHOK GEULUMPANG",
    "postal_code": "24455"
  },
  {
    "village_code": "3601",
    "village": "MATANG GEUTOU",
    "postal_code": "24455"
  },
  {
    "village_code": "3651",
    "village": "MATANG PINEUNG",
    "postal_code": "24455"
  },
  {
    "village_code": "3881",
    "village": "MEUNASAH BLANG",
    "postal_code": "24455"
  },
  {
    "village_code": "3932",
    "village": "MEUNASAH KEUTAPANG",
    "postal_code": "24455"
  },
  {
    "village_code": "4763",
    "village": "PEUKAN IDI CUT (KEUDE IDI CUT)",
    "postal_code": "24455"
  },
  {
    "village_code": "5427",
    "village": "SEUNEUBOK ACEH",
    "postal_code": "24455"
  },
  {
    "village_code": "5441",
    "village": "SEUNEUBOK BAROH",
    "postal_code": "24455"
  },
  {
    "village_code": "5446",
    "village": "SEUNEUBOK BULOH",
    "postal_code": "24455"
  },
  {
    "village_code": "5507",
    "village": "SEUNEUBOK SIMPANG",
    "postal_code": "24455"
  },
  {
    "village_code": "5510",
    "village": "SEUNEUBOK TEUNGOH",
    "postal_code": "24455"
  },
  {
    "village_code": "5520",
    "village": "SEUNEUBOK TUHA I",
    "postal_code": "24455"
  },
  {
    "village_code": "5521",
    "village": "SEUNEUBOK TUHA II",
    "postal_code": "24455"
  },
  {
    "village_code": "6052",
    "village": "TEUPIN DRUM",
    "postal_code": "24455"
  },
  {
    "village_code": "6122",
    "village": "TRIENG GADENG",
    "postal_code": "24455"
  }
]