[
  {
    "village_code": "100",
    "village": "ALUE DUA MUKA O",
    "postal_code": "24454"
  },
  {
    "village_code": "101",
    "village": "ALUE DUA MUKA S",
    "postal_code": "24454"
  },
  {
    "village_code": "533",
    "village": "BANTAYAN TIMU",
    "postal_code": "24454"
  },
  {
    "village_code": "824",
    "village": "BLANG GEULUMPANG",
    "postal_code": "24454"
  },
  {
    "village_code": "1052",
    "village": "BUKET JOK",
    "postal_code": "24454"
  },
  {
    "village_code": "1053",
    "village": "BUKET JUARA",
    "postal_code": "24454"
  },
  {
    "village_code": "1060",
    "village": "BUKET LANGA",
    "postal_code": "24454"
  },
  {
    "village_code": "1066",
    "village": "BUKET MEULINTEUNG",
    "postal_code": "24454"
  },
  {
    "village_code": "1071",
    "village": "BUKET PALA",
    "postal_code": "24454"
  },
  {
    "village_code": "1491",
    "village": "DAMA PULO",
    "postal_code": "24454"
  },
  {
    "village_code": "1670",
    "village": "GAMPONG ACEH",
    "postal_code": "24454"
  },
  {
    "village_code": "1688",
    "village": "GAMPONG BARO",
    "postal_code": "24454"
  },
  {
    "village_code": "1736",
    "village": "GAMPONG JALAN",
    "postal_code": "24454"
  },
  {
    "village_code": "1738",
    "village": "GAMPONG JAWA",
    "postal_code": "24454"
  },
  {
    "village_code": "1787",
    "village": "GAMPONG TANJONG",
    "postal_code": "24454"
  },
  {
    "village_code": "2012",
    "village": "GUREB BLANG GAMPONG JAWA",
    "postal_code": "24454"
  },
  {
    "village_code": "2407",
    "village": "KEUDE ACEH",
    "postal_code": "24454"
  },
  {
    "village_code": "2421",
    "village": "KEUDE BLANG",
    "postal_code": "24454"
  },
  {
    "village_code": "2512",
    "village": "KEUTAPANG MAMEH",
    "postal_code": "24454"
  },
  {
    "village_code": "2657",
    "village": "KUALA IDI",
    "postal_code": "24454"
  },
  {
    "village_code": "2671",
    "village": "KUALA PEUDAWA PUNTONG",
    "postal_code": "24454"
  },
  {
    "village_code": "2750",
    "village": "KUTA BLANG",
    "postal_code": "24454"
  },
  {
    "village_code": "2769",
    "village": "KUTA LAWAH",
    "postal_code": "24454"
  },
  {
    "village_code": "4005",
    "village": "MEUNASAH PU\\UK",
    "postal_code": "24454"
  },
  {
    "village_code": "5270",
    "village": "SAMPOIMAH",
    "postal_code": "24454"
  },
  {
    "village_code": "5433",
    "village": "SEUNEUBOK BACEE",
    "postal_code": "24454"
  },
  {
    "village_code": "5499",
    "village": "SEUNEUBOK RAMBONG",
    "postal_code": "24454"
  },
  {
    "village_code": "5508",
    "village": "SEUNEUBOK TEUNGOH PEUDAWA PUNTONG",
    "postal_code": "24454"
  },
  {
    "village_code": "5522",
    "village": "SEUNEUBOK TUHA",
    "postal_code": "24454"
  },
  {
    "village_code": "5524",
    "village": "SEUNEUBOK TUTONG",
    "postal_code": "24454"
  },
  {
    "village_code": "5856",
    "village": "TANJONG KAPAI",
    "postal_code": "24454"
  },
  {
    "village_code": "5925",
    "village": "TANOH ANOE",
    "postal_code": "24454"
  },
  {
    "village_code": "6048",
    "village": "TEUPIN BATEE",
    "postal_code": "24454"
  },
  {
    "village_code": "6105",
    "village": "TITI BARO",
    "postal_code": "24454"
  },
  {
    "village_code": "6320",
    "village": "ULEE BLANG",
    "postal_code": "24454"
  }
]