[
  {
    "village_code": "102",
    "village": "ALUE DUA PAYA GAJAH",
    "postal_code": "24453"
  },
  {
    "village_code": "193",
    "village": "ALUE NIBONG",
    "postal_code": "24453"
  },
  {
    "village_code": "215",
    "village": "ALUE RAMBONG",
    "postal_code": "24453"
  },
  {
    "village_code": "490",
    "village": "BALEE BUYA",
    "postal_code": "24453"
  },
  {
    "village_code": "525",
    "village": "BANDRONG",
    "postal_code": "24453"
  },
  {
    "village_code": "528",
    "village": "BANGKA RIMUNG",
    "postal_code": "24453"
  },
  {
    "village_code": "682",
    "village": "BEUSA MEURANOE",
    "postal_code": "24453"
  },
  {
    "village_code": "752",
    "village": "BLANG BALOK",
    "postal_code": "24453"
  },
  {
    "village_code": "763",
    "village": "BLANG BATEE",
    "postal_code": "24453"
  },
  {
    "village_code": "773",
    "village": "BLANG BITRA",
    "postal_code": "24453"
  },
  {
    "village_code": "983",
    "village": "BLANG SIMPO",
    "postal_code": "24453"
  },
  {
    "village_code": "1072",
    "village": "BUKET PALA",
    "postal_code": "24453"
  },
  {
    "village_code": "1202",
    "village": "CEK MBON",
    "postal_code": "24453"
  },
  {
    "village_code": "1290",
    "village": "COT GEULUMPANG",
    "postal_code": "24453"
  },
  {
    "village_code": "1316",
    "village": "COT KEH",
    "postal_code": "24453"
  },
  {
    "village_code": "1385",
    "village": "COT MUDA ITAM",
    "postal_code": "24453"
  },
  {
    "village_code": "1492",
    "village": "DAMA TUTONG",
    "postal_code": "24453"
  },
  {
    "village_code": "2453",
    "village": "KEUDE PEUREULAK",
    "postal_code": "24453"
  },
  {
    "village_code": "2487",
    "village": "KEUMUNENG",
    "postal_code": "24453"
  },
  {
    "village_code": "2649",
    "village": "KUALA BUGAK",
    "postal_code": "24453"
  },
  {
    "village_code": "2665",
    "village": "KUALA LEUGE",
    "postal_code": "24453"
  },
  {
    "village_code": "3278",
    "village": "LEUGE",
    "postal_code": "24453"
  },
  {
    "village_code": "3333",
    "village": "LHOK DALAM",
    "postal_code": "24453"
  },
  {
    "village_code": "3457",
    "village": "LUBOK PEMPENG",
    "postal_code": "24453"
  },
  {
    "village_code": "3602",
    "village": "MATANG GLEUM",
    "postal_code": "24453"
  },
  {
    "village_code": "3647",
    "village": "MATANG PELAWI",
    "postal_code": "24453"
  },
  {
    "village_code": "4545",
    "village": "PASIR PUTIH",
    "postal_code": "24453"
  },
  {
    "village_code": "4612",
    "village": "PAYA KALUI",
    "postal_code": "24453"
  },
  {
    "village_code": "4629",
    "village": "PAYA LIPAH",
    "postal_code": "24453"
  },
  {
    "village_code": "4636",
    "village": "PAYA MEULIGOU",
    "postal_code": "24453"
  },
  {
    "village_code": "5022",
    "village": "PUNTI",
    "postal_code": "24453"
  },
  {
    "village_code": "5412",
    "village": "SEUMATANG MUDA ITAM",
    "postal_code": "24453"
  },
  {
    "village_code": "5429",
    "village": "SEUNEUBOK ACEH",
    "postal_code": "24453"
  },
  {
    "village_code": "5487",
    "village": "SEUNEUBOK PEUSANGAN",
    "postal_code": "24453"
  },
  {
    "village_code": "5490",
    "village": "SEUNEUBOK PIDIE",
    "postal_code": "24453"
  },
  {
    "village_code": "5936",
    "village": "TANOH RATA",
    "postal_code": "24453"
  },
  {
    "village_code": "6146",
    "village": "TUALANG",
    "postal_code": "24453"
  },
  {
    "village_code": "6407",
    "village": "UTEUN DAMA",
    "postal_code": "24453"
  }
]