[
  {
    "village_code": "148",
    "village": "ALUE KAUL / KAOL",
    "postal_code": "24452"
  },
  {
    "village_code": "162",
    "village": "ALUE KUMBA",
    "postal_code": "24452"
  },
  {
    "village_code": "212",
    "village": "ALUE PUNTI",
    "postal_code": "24452"
  },
  {
    "village_code": "223",
    "village": "ALUE RAYA",
    "postal_code": "24452"
  },
  {
    "village_code": "234",
    "village": "ALUE SEULEUMAK",
    "postal_code": "24452"
  },
  {
    "village_code": "254",
    "village": "ALUE TUWI",
    "postal_code": "24452"
  },
  {
    "village_code": "612",
    "village": "BAYEUN (GAMPONG BAYEUN)",
    "postal_code": "24452"
  },
  {
    "village_code": "1494",
    "village": "DAMAR SIPUT",
    "postal_code": "24452"
  },
  {
    "village_code": "5095",
    "village": "RANTAU PANJANG",
    "postal_code": "24452"
  },
  {
    "village_code": "5291",
    "village": "SARAH KAYEE",
    "postal_code": "24452"
  },
  {
    "village_code": "5296",
    "village": "SARAH TEUBEE",
    "postal_code": "24452"
  },
  {
    "village_code": "5459",
    "village": "SEUNEUBOK DALAM",
    "postal_code": "24452"
  },
  {
    "village_code": "5583",
    "village": "SIMPANG ANEUH",
    "postal_code": "24452"
  },
  {
    "village_code": "5613",
    "village": "SIMPANG PEUT",
    "postal_code": "24452"
  }
]