[
  {
    "village_code": "31196",
    "village": "AJIBARANG KULON",
    "postal_code": "53163"
  },
  {
    "village_code": "31197",
    "village": "AJIBARANG WETAN",
    "postal_code": "53163"
  },
  {
    "village_code": "31476",
    "village": "BANJARSARI (BANJARSARI KIDUL)",
    "postal_code": "53163"
  },
  {
    "village_code": "32280",
    "village": "CIBERUNG",
    "postal_code": "53163"
  },
  {
    "village_code": "32439",
    "village": "DARMAKRADENAN",
    "postal_code": "53163"
  },
  {
    "village_code": "33557",
    "village": "JINGKANG",
    "postal_code": "53163"
  },
  {
    "village_code": "33783",
    "village": "KALIBENDA",
    "postal_code": "53163"
  },
  {
    "village_code": "34158",
    "village": "KARANGBAWANG",
    "postal_code": "53163"
  },
  {
    "village_code": "35156",
    "village": "KRACAK",
    "postal_code": "53163"
  },
  {
    "village_code": "35547",
    "village": "LESMANA",
    "postal_code": "53163"
  },
  {
    "village_code": "36546",
    "village": "PANCASAN",
    "postal_code": "53163"
  },
  {
    "village_code": "36550",
    "village": "PANCURENDANG",
    "postal_code": "53163"
  },
  {
    "village_code": "36567",
    "village": "PANDANSARI",
    "postal_code": "53163"
  },
  {
    "village_code": "37744",
    "village": "SAWANGAN",
    "postal_code": "53163"
  },
  {
    "village_code": "39111",
    "village": "TIPAR (TIPAR KIDUL)",
    "postal_code": "53163"
  }
]