[
  {
    "village_code": "31474",
    "village": "BANJARPANEPEN",
    "postal_code": "53195"
  },
  {
    "village_code": "31842",
    "village": "BOGANGIN",
    "postal_code": "53195"
  },
  {
    "village_code": "34196",
    "village": "KARANGGEDANG",
    "postal_code": "53195"
  },
  {
    "village_code": "34527",
    "village": "KEBOKURA",
    "postal_code": "53195"
  },
  {
    "village_code": "34845",
    "village": "KEMIRI",
    "postal_code": "53195"
  },
  {
    "village_code": "35003",
    "village": "KETANDA",
    "postal_code": "53195"
  },
  {
    "village_code": "35164",
    "village": "KRADENAN",
    "postal_code": "53195"
  },
  {
    "village_code": "35329",
    "village": "KUNTILI",
    "postal_code": "53195"
  },
  {
    "village_code": "35492",
    "village": "LEBENG",
    "postal_code": "53195"
  },
  {
    "village_code": "36371",
    "village": "NUSADADI",
    "postal_code": "53195"
  },
  {
    "village_code": "36554",
    "village": "PANDAK",
    "postal_code": "53195"
  },
  {
    "village_code": "37799",
    "village": "SELANDAKA",
    "postal_code": "53195"
  },
  {
    "village_code": "37801",
    "village": "SELANEGARA",
    "postal_code": "53195"
  },
  {
    "village_code": "38576",
    "village": "SUMPIUH",
    "postal_code": "53195"
  }
]