[
  {
    "village_code": "34281",
    "village": "KARANGMANGU",
    "postal_code": "53151"
  },
  {
    "village_code": "34351",
    "village": "KARANGSALAM LOR",
    "postal_code": "53151"
  },
  {
    "village_code": "34408",
    "village": "KARANGTENGAH",
    "postal_code": "53151"
  },
  {
    "village_code": "34589",
    "village": "KEBUMEN",
    "postal_code": "53151"
  },
  {
    "village_code": "34873",
    "village": "KEMUTUG KIDUL",
    "postal_code": "53151"
  },
  {
    "village_code": "34874",
    "village": "KEMUTUG LOR",
    "postal_code": "53151"
  },
  {
    "village_code": "35028",
    "village": "KETENGER",
    "postal_code": "53151"
  },
  {
    "village_code": "35354",
    "village": "KUTASARI",
    "postal_code": "53151"
  },
  {
    "village_code": "36533",
    "village": "PAMIJEN",
    "postal_code": "53151"
  },
  {
    "village_code": "36552",
    "village": "PANDAK",
    "postal_code": "53151"
  },
  {
    "village_code": "37381",
    "village": "PURWOSARI",
    "postal_code": "53126"
  },
  {
    "village_code": "37521",
    "village": "REMPOAH",
    "postal_code": "53151"
  }
]