[
  {
    "village_code": "52096",
    "village": "ANIN",
    "postal_code": "85573"
  },
  {
    "village_code": "52556",
    "village": "FAE",
    "postal_code": "85573"
  },
  {
    "village_code": "52593",
    "village": "FATULUNU",
    "postal_code": "85573"
  },
  {
    "village_code": "52614",
    "village": "FENUN",
    "postal_code": "85573"
  },
  {
    "village_code": "53032",
    "village": "KOKOI",
    "postal_code": "85573"
  },
  {
    "village_code": "53097",
    "village": "KUALEU",
    "postal_code": "85573"
  },
  {
    "village_code": "53221",
    "village": "LANU",
    "postal_code": "85573"
  },
  {
    "village_code": "53827",
    "village": "NETUTNANA",
    "postal_code": "85573"
  },
  {
    "village_code": "53870",
    "village": "NIFULEO",
    "postal_code": "85573"
  },
  {
    "village_code": "53959",
    "village": "NUNLEU",
    "postal_code": "85573"
  },
  {
    "village_code": "54097",
    "village": "OINLASI",
    "postal_code": "85573"
  },
  {
    "village_code": "54598",
    "village": "SUNU",
    "postal_code": "85573"
  },
  {
    "village_code": "54785",
    "village": "TOI",
    "postal_code": "85573"
  }
]