[
  {
    "village_code": "52125",
    "village": "BABUIN",
    "postal_code": "85563"
  },
  {
    "village_code": "52762",
    "village": "HAUNOBENAK",
    "postal_code": "85563"
  },
  {
    "village_code": "53040",
    "village": "KOLBANO",
    "postal_code": "85563"
  },
  {
    "village_code": "53918",
    "village": "NOESIU",
    "postal_code": "85563"
  },
  {
    "village_code": "53967",
    "village": "NUNUNAMAT",
    "postal_code": "85563"
  },
  {
    "village_code": "54026",
    "village": "OELEU",
    "postal_code": "85563"
  },
  {
    "village_code": "54090",
    "village": "OETUKE",
    "postal_code": "85563"
  },
  {
    "village_code": "54093",
    "village": "OFU",
    "postal_code": "85563"
  },
  {
    "village_code": "54155",
    "village": "PANA",
    "postal_code": "85563"
  },
  {
    "village_code": "54202",
    "village": "PENE SELATAN",
    "postal_code": "85563"
  },
  {
    "village_code": "54528",
    "village": "SEI",
    "postal_code": "85563"
  },
  {
    "village_code": "54584",
    "village": "SPAHA",
    "postal_code": "85563"
  }
]