[
  {
    "village_code": "52150",
    "village": "BALU",
    "postal_code": "85561"
  },
  {
    "village_code": "52294",
    "village": "BIJELI",
    "postal_code": "85561"
  },
  {
    "village_code": "52597",
    "village": "FATUMNUTU",
    "postal_code": "85561"
  },
  {
    "village_code": "53060",
    "village": "KONBAKI",
    "postal_code": "85561"
  },
  {
    "village_code": "53222",
    "village": "LAOB",
    "postal_code": "85561"
  },
  {
    "village_code": "53416",
    "village": "LOLI",
    "postal_code": "85561"
  },
  {
    "village_code": "53644",
    "village": "MNESATBUBAK",
    "postal_code": "85561"
  },
  {
    "village_code": "54032",
    "village": "OELNUNUH",
    "postal_code": "85561"
  },
  {
    "village_code": "54300",
    "village": "PUNA",
    "postal_code": "85561"
  },
  {
    "village_code": "54479",
    "village": "SAINONI",
    "postal_code": "85561"
  },
  {
    "village_code": "54920",
    "village": "USAPIMNASI",
    "postal_code": "85561"
  }
]