[
  {
    "village_code": "52245",
    "village": "BELLE",
    "postal_code": "85575"
  },
  {
    "village_code": "52371",
    "village": "BOTI",
    "postal_code": "85575"
  },
  {
    "village_code": "52549",
    "village": "ENONAPI",
    "postal_code": "85575"
  },
  {
    "village_code": "52565",
    "village": "FALLAS",
    "postal_code": "85575"
  },
  {
    "village_code": "52590",
    "village": "FATUKUSI",
    "postal_code": "85575"
  },
  {
    "village_code": "52611",
    "village": "FATUULAN",
    "postal_code": "85575"
  },
  {
    "village_code": "53707",
    "village": "NAILE\\U",
    "postal_code": "85575"
  },
  {
    "village_code": "53757",
    "village": "NAPI",
    "postal_code": "85575"
  },
  {
    "village_code": "53805",
    "village": "NEKMESE",
    "postal_code": "85575"
  },
  {
    "village_code": "54050",
    "village": "OENAI",
    "postal_code": "85575"
  },
  {
    "village_code": "54098",
    "village": "OINLASI",
    "postal_code": "85575"
  },
  {
    "village_code": "54222",
    "village": "PILI",
    "postal_code": "85575"
  },
  {
    "village_code": "54743",
    "village": "TESI AYOFANU",
    "postal_code": "85575"
  }
]