[
  {
    "village_code": "31255",
    "village": "BABADSARI",
    "postal_code": "54393"
  },
  {
    "village_code": "33574",
    "village": "JLEGIWINANGUN",
    "postal_code": "54393"
  },
  {
    "village_code": "33926",
    "village": "KALIPUTIH",
    "postal_code": "54393"
  },
  {
    "village_code": "34372",
    "village": "KARANGSARI",
    "postal_code": "54393"
  },
  {
    "village_code": "35148",
    "village": "KOROWELANG",
    "postal_code": "54393"
  },
  {
    "village_code": "35376",
    "village": "KUTOWINANGUN",
    "postal_code": "54393"
  },
  {
    "village_code": "35383",
    "village": "KUWARISAN",
    "postal_code": "54393"
  },
  {
    "village_code": "35616",
    "village": "LUMBU",
    "postal_code": "54393"
  },
  {
    "village_code": "35622",
    "village": "LUNDONG",
    "postal_code": "54393"
  },
  {
    "village_code": "35842",
    "village": "MEKARSARI",
    "postal_code": "54393"
  },
  {
    "village_code": "36019",
    "village": "MRINEN",
    "postal_code": "54393"
  },
  {
    "village_code": "36790",
    "village": "PEJAGATAN",
    "postal_code": "54393"
  },
  {
    "village_code": "36821",
    "village": "PEKUNDEN",
    "postal_code": "54393"
  },
  {
    "village_code": "36940",
    "village": "PESALAKAN",
    "postal_code": "54393"
  },
  {
    "village_code": "38813",
    "village": "TANJUNGMERU",
    "postal_code": "54393"
  },
  {
    "village_code": "38830",
    "village": "TANJUNGSARI",
    "postal_code": "54393"
  },
  {
    "village_code": "38841",
    "village": "TANJUNGSETO",
    "postal_code": "54393"
  },
  {
    "village_code": "39285",
    "village": "TRIWARNO",
    "postal_code": "54393"
  },
  {
    "village_code": "39397",
    "village": "UNGARAN",
    "postal_code": "54393"
  }
]