[
  {
    "village_code": "31347",
    "village": "BALOREJO",
    "postal_code": "54395"
  },
  {
    "village_code": "31912",
    "village": "BONJOKKIDUL",
    "postal_code": "54395"
  },
  {
    "village_code": "31913",
    "village": "BONJOKLOR",
    "postal_code": "54395"
  },
  {
    "village_code": "31918",
    "village": "BONOROWO",
    "postal_code": "54395"
  },
  {
    "village_code": "36017",
    "village": "MRENTUL",
    "postal_code": "54395"
  },
  {
    "village_code": "36223",
    "village": "NGASINAN",
    "postal_code": "54395"
  },
  {
    "village_code": "36738",
    "village": "PATUKREJO",
    "postal_code": "54395"
  },
  {
    "village_code": "37252",
    "village": "PUJODADI",
    "postal_code": "54395"
  },
  {
    "village_code": "37569",
    "village": "ROWOSARI",
    "postal_code": "54395"
  },
  {
    "village_code": "38224",
    "village": "SIRNOBOYO",
    "postal_code": "54395"
  },
  {
    "village_code": "39180",
    "village": "TLOGOREJO",
    "postal_code": "54395"
  }
]