[
  {
    "village_code": "31455",
    "village": "BANJAREJA",
    "postal_code": "54366"
  },
  {
    "village_code": "31708",
    "village": "BENDUNGAN",
    "postal_code": "54366"
  },
  {
    "village_code": "32726",
    "village": "GANDUSARI",
    "postal_code": "54366"
  },
  {
    "village_code": "33124",
    "village": "GUMAWANG",
    "postal_code": "54366"
  },
  {
    "village_code": "33183",
    "village": "GUNUNGMUJIL",
    "postal_code": "54366"
  },
  {
    "village_code": "33233",
    "village": "HARJODOWO",
    "postal_code": "54366"
  },
  {
    "village_code": "33365",
    "village": "JATIMULYA",
    "postal_code": "54366"
  },
  {
    "village_code": "33924",
    "village": "KALIPURWO",
    "postal_code": "54366"
  },
  {
    "village_code": "34034",
    "village": "KAMULYAN",
    "postal_code": "54366"
  },
  {
    "village_code": "35382",
    "village": "KUWARASAN",
    "postal_code": "54366"
  },
  {
    "village_code": "35385",
    "village": "KUWARU",
    "postal_code": "54366"
  },
  {
    "village_code": "35518",
    "village": "LEMAHDUWUR",
    "postal_code": "54366"
  },
  {
    "village_code": "35647",
    "village": "MADURESO",
    "postal_code": "54366"
  },
  {
    "village_code": "35725",
    "village": "MANGLI",
    "postal_code": "54366"
  },
  {
    "village_code": "36385",
    "village": "ORI",
    "postal_code": "54366"
  },
  {
    "village_code": "37143",
    "village": "PONDOKGEBANGSARI",
    "postal_code": "54366"
  },
  {
    "village_code": "37336",
    "village": "PURWODADI",
    "postal_code": "54366"
  },
  {
    "village_code": "37750",
    "village": "SAWANGAN",
    "postal_code": "54366"
  },
  {
    "village_code": "37972",
    "village": "SERUT",
    "postal_code": "54366"
  },
  {
    "village_code": "38077",
    "village": "SIDOMUKTI",
    "postal_code": "54366"
  },
  {
    "village_code": "38734",
    "village": "TAMBAKSARI",
    "postal_code": "54366"
  },
  {
    "village_code": "39712",
    "village": "WONOYOSO",
    "postal_code": "54366"
  }
]