[
  {
    "village_code": "31768",
    "village": "BINANGUN",
    "postal_code": "54365"
  },
  {
    "village_code": "32355",
    "village": "CLAPAR",
    "postal_code": "54365"
  },
  {
    "village_code": "32935",
    "village": "GINANDONG",
    "postal_code": "54365"
  },
  {
    "village_code": "32965",
    "village": "GIRITIRTO",
    "postal_code": "54365"
  },
  {
    "village_code": "33008",
    "village": "GLONTOR",
    "postal_code": "54365"
  },
  {
    "village_code": "33194",
    "village": "GUNUNGSARI",
    "postal_code": "54365"
  },
  {
    "village_code": "33739",
    "village": "KAJORAN",
    "postal_code": "54365"
  },
  {
    "village_code": "33787",
    "village": "KALIBENING",
    "postal_code": "54365"
  },
  {
    "village_code": "33938",
    "village": "KALIREJO",
    "postal_code": "54365"
  },
  {
    "village_code": "34189",
    "village": "KARANGGAYAM",
    "postal_code": "54365"
  },
  {
    "village_code": "34289",
    "village": "KARANGMOJO",
    "postal_code": "54365"
  },
  {
    "village_code": "34336",
    "village": "KARANGREJO",
    "postal_code": "54365"
  },
  {
    "village_code": "34411",
    "village": "KARANGTENGAH",
    "postal_code": "54365"
  },
  {
    "village_code": "34507",
    "village": "KEBAKALAN",
    "postal_code": "54365"
  },
  {
    "village_code": "35578",
    "village": "LOGANDU",
    "postal_code": "54365"
  },
  {
    "village_code": "36431",
    "village": "PAGEBANGAN",
    "postal_code": "54365"
  },
  {
    "village_code": "36905",
    "village": "PENIMBUN",
    "postal_code": "54365"
  },
  {
    "village_code": "37811",
    "village": "SELOGIRI",
    "postal_code": "54365"
  },
  {
    "village_code": "39705",
    "village": "WONOTIRTO",
    "postal_code": "54365"
  }
]