[
  {
    "village_code": "34197",
    "village": "KARANGGEDE",
    "postal_code": "54395"
  },
  {
    "village_code": "34972",
    "village": "KERTODESO",
    "postal_code": "54395"
  },
  {
    "village_code": "35277",
    "village": "KRUBUNGAN",
    "postal_code": "54395"
  },
  {
    "village_code": "35529",
    "village": "LEMBUPURWO",
    "postal_code": "54395"
  },
  {
    "village_code": "35738",
    "village": "MANGUNRANAN",
    "postal_code": "54395"
  },
  {
    "village_code": "35924",
    "village": "MIRIT",
    "postal_code": "54395"
  },
  {
    "village_code": "35925",
    "village": "MIRITPETIKUSAN",
    "postal_code": "54395"
  },
  {
    "village_code": "36120",
    "village": "NGABEYAN",
    "postal_code": "54395"
  },
  {
    "village_code": "36737",
    "village": "PATUKGAWEMULYO",
    "postal_code": "54395"
  },
  {
    "village_code": "36739",
    "village": "PATUKREJOMULYO",
    "postal_code": "54395"
  },
  {
    "village_code": "36824",
    "village": "PEKUTAN",
    "postal_code": "54395"
  },
  {
    "village_code": "37555",
    "village": "ROWO",
    "postal_code": "54395"
  },
  {
    "village_code": "37734",
    "village": "SARWOGADUNG",
    "postal_code": "54395"
  },
  {
    "village_code": "37832",
    "village": "SELOTUMPENG",
    "postal_code": "54395"
  },
  {
    "village_code": "38211",
    "village": "SINGOYUDAN",
    "postal_code": "54395"
  },
  {
    "village_code": "38234",
    "village": "SITIBENTAR",
    "postal_code": "54395"
  },
  {
    "village_code": "39159",
    "village": "TLOGODEPOK",
    "postal_code": "54395"
  },
  {
    "village_code": "39177",
    "village": "TLOGOPRAGOTO",
    "postal_code": "54395"
  },
  {
    "village_code": "39526",
    "village": "WERGONAYAN",
    "postal_code": "54395"
  },
  {
    "village_code": "39562",
    "village": "WINONG",
    "postal_code": "54395"
  },
  {
    "village_code": "39575",
    "village": "WIROGATEN",
    "postal_code": "54395"
  },
  {
    "village_code": "39579",
    "village": "WIROMARTAN",
    "postal_code": "54395"
  }
]