[
  {
    "village_code": "74884",
    "village": "AITIRI",
    "postal_code": "98255"
  },
  {
    "village_code": "75445",
    "village": "BORAI",
    "postal_code": "98255"
  },
  {
    "village_code": "76389",
    "village": "KABUAENA",
    "postal_code": "98255"
  },
  {
    "village_code": "76415",
    "village": "KAINUI I",
    "postal_code": "98255"
  },
  {
    "village_code": "76416",
    "village": "KAINUI II",
    "postal_code": "98255"
  },
  {
    "village_code": "76765",
    "village": "KONTIUNAI (KONTINUAI)",
    "postal_code": "98255"
  },
  {
    "village_code": "77137",
    "village": "MANANAYAM",
    "postal_code": "98255"
  },
  {
    "village_code": "77281",
    "village": "MENAWI",
    "postal_code": "98255"
  },
  {
    "village_code": "78052",
    "village": "RAMBAI",
    "postal_code": "98255"
  },
  {
    "village_code": "78055",
    "village": "RANSARNONI (RAMSAMONI)",
    "postal_code": "98255"
  },
  {
    "village_code": "78084",
    "village": "ROIPI",
    "postal_code": "98255"
  },
  {
    "village_code": "78083",
    "village": "ROIPI DUA",
    "postal_code": "98255"
  },
  {
    "village_code": "78163",
    "village": "SANAYOKA",
    "postal_code": "98255"
  },
  {
    "village_code": "78917",
    "village": "WADAPI",
    "postal_code": "98255"
  },
  {
    "village_code": "79018",
    "village": "WANAMPOMPI",
    "postal_code": "98255"
  },
  {
    "village_code": "79060",
    "village": "WANIWON",
    "postal_code": "98255"
  },
  {
    "village_code": "79129",
    "village": "WAWUTI",
    "postal_code": "98255"
  },
  {
    "village_code": "79476",
    "village": "YAPANANI",
    "postal_code": "98255"
  }
]