[
  {
    "village_code": "73707",
    "village": "ARU BURUNG",
    "postal_code": "97771"
  },
  {
    "village_code": "73708",
    "village": "ARU IRIAN",
    "postal_code": "97771"
  },
  {
    "village_code": "73792",
    "village": "BOBULA",
    "postal_code": "97771"
  },
  {
    "village_code": "73830",
    "village": "CIO DALAM",
    "postal_code": "97771"
  },
  {
    "village_code": "73831",
    "village": "CIO GERONG",
    "postal_code": "97771"
  },
  {
    "village_code": "73832",
    "village": "CIO MALOLEO",
    "postal_code": "97771"
  },
  {
    "village_code": "73833",
    "village": "CUCUMARE",
    "postal_code": "97771"
  },
  {
    "village_code": "74164",
    "village": "LEO LEO",
    "postal_code": "97771"
  },
  {
    "village_code": "74194",
    "village": "LOU MADORO",
    "postal_code": "97771"
  },
  {
    "village_code": "74297",
    "village": "NGELE NGELE BESAR",
    "postal_code": "97771"
  },
  {
    "village_code": "74298",
    "village": "NGELE NGELE KECIL",
    "postal_code": "97771"
  },
  {
    "village_code": "74388",
    "village": "POSI POSI RAO",
    "postal_code": "97771"
  },
  {
    "village_code": "74400",
    "village": "RAJA",
    "postal_code": "97771"
  },
  {
    "village_code": "74439",
    "village": "SAMINYAMAU",
    "postal_code": "97771"
  },
  {
    "village_code": "74620",
    "village": "TILEY KUSU",
    "postal_code": "97771"
  },
  {
    "village_code": "74621",
    "village": "TILEY PANTAI",
    "postal_code": "97771"
  },
  {
    "village_code": "74712",
    "village": "TUTUHU (TUTHU)",
    "postal_code": "97771"
  },
  {
    "village_code": "74725",
    "village": "USBAR PANTAI",
    "postal_code": "97771"
  },
  {
    "village_code": "74771",
    "village": "WARINGIN",
    "postal_code": "97771"
  },
  {
    "village_code": "74778",
    "village": "WAYABULA",
    "postal_code": "97771"
  }
]