[
  {
    "village_code": "15422",
    "village": "BAHAR MULYA",
    "postal_code": "36365"
  },
  {
    "village_code": "15531",
    "village": "BUKIT MULYA",
    "postal_code": "36365"
  },
  {
    "village_code": "15960",
    "village": "MARKANDING",
    "postal_code": "36365"
  },
  {
    "village_code": "15966",
    "village": "MATRA MANUNGGAL",
    "postal_code": "36365"
  },
  {
    "village_code": "16066",
    "village": "MULYA JAYA",
    "postal_code": "36365"
  },
  {
    "village_code": "16255",
    "village": "PINANG TINGGI",
    "postal_code": "36365"
  },
  {
    "village_code": "16553",
    "village": "SUMBER JAYA",
    "postal_code": "36373"
  },
  {
    "village_code": "16554",
    "village": "SUMBER MULYA",
    "postal_code": "36365"
  },
  {
    "village_code": "16592",
    "village": "SUNGAI DAYO",
    "postal_code": "36365"
  },
  {
    "village_code": "16701",
    "village": "TALANG BUKIT",
    "postal_code": "36365"
  },
  {
    "village_code": "16702",
    "village": "TALANG DATAR",
    "postal_code": "36365"
  }
]