[
  {
    "village_code": "57244",
    "village": "BABAI",
    "postal_code": "73761"
  },
  {
    "village_code": "57283",
    "village": "BANGKUANG",
    "postal_code": "73761"
  },
  {
    "village_code": "57403",
    "village": "BINTANG KURUNG",
    "postal_code": "73761"
  },
  {
    "village_code": "57582",
    "village": "JANGGI",
    "postal_code": "73761"
  },
  {
    "village_code": "57806",
    "village": "MALITIN",
    "postal_code": "73761"
  },
  {
    "village_code": "57883",
    "village": "MUARA ARAI",
    "postal_code": "73761"
  },
  {
    "village_code": "58306",
    "village": "SELAT BARU",
    "postal_code": "73761"
  },
  {
    "village_code": "58411",
    "village": "TALIO",
    "postal_code": "73761"
  },
  {
    "village_code": "58434",
    "village": "TAMPIJAK",
    "postal_code": "73761"
  },
  {
    "village_code": "58500",
    "village": "TELUK BETUNG",
    "postal_code": "73761"
  },
  {
    "village_code": "58510",
    "village": "TELUK SAMPUDAU",
    "postal_code": "73761"
  }
]