[
  {
    "village_code": "57309",
    "village": "BARU",
    "postal_code": "73713"
  },
  {
    "village_code": "57444",
    "village": "BUNTOK KOTA",
    "postal_code": "73711"
  },
  {
    "village_code": "57471",
    "village": "DANAU GANTING",
    "postal_code": "73713"
  },
  {
    "village_code": "57472",
    "village": "DANAU MASURA",
    "postal_code": "73713"
  },
  {
    "village_code": "57474",
    "village": "DANAU SADAR",
    "postal_code": "73713"
  },
  {
    "village_code": "57482",
    "village": "DANGKA",
    "postal_code": "73713"
  },
  {
    "village_code": "57552",
    "village": "HILIR SPER",
    "postal_code": "73712"
  },
  {
    "village_code": "57595",
    "village": "JELAPAT",
    "postal_code": "73713"
  },
  {
    "village_code": "57610",
    "village": "KALAHIEN",
    "postal_code": "73751"
  },
  {
    "village_code": "57753",
    "village": "LEMBENG",
    "postal_code": "73713"
  },
  {
    "village_code": "57786",
    "village": "MABUAN",
    "postal_code": "73751"
  },
  {
    "village_code": "57787",
    "village": "MADARA",
    "postal_code": "73713"
  },
  {
    "village_code": "57821",
    "village": "MANGARIS",
    "postal_code": "73713"
  },
  {
    "village_code": "57902",
    "village": "MUARA RIPUNG",
    "postal_code": "73751"
  },
  {
    "village_code": "57905",
    "village": "MUARA TALANG",
    "postal_code": "73713"
  },
  {
    "village_code": "57921",
    "village": "MURUNG PAKEN",
    "postal_code": "73713"
  },
  {
    "village_code": "57986",
    "village": "PAMAIT",
    "postal_code": "73751"
  },
  {
    "village_code": "57988",
    "village": "PAMANGKA",
    "postal_code": "73713"
  },
  {
    "village_code": "58029",
    "village": "PARARAPAK",
    "postal_code": "73751"
  },
  {
    "village_code": "58062",
    "village": "PENDA ASAM",
    "postal_code": "73751"
  },
  {
    "village_code": "58180",
    "village": "SABABILAH",
    "postal_code": "73751"
  },
  {
    "village_code": "58209",
    "village": "SANGGU",
    "postal_code": "73751"
  },
  {
    "village_code": "58460",
    "village": "TANJUNG JAWA",
    "postal_code": "73751"
  },
  {
    "village_code": "58493",
    "village": "TELANG ANDRAU",
    "postal_code": "73713"
  },
  {
    "village_code": "58506",
    "village": "TELUK MAMPUN",
    "postal_code": "73713"
  },
  {
    "village_code": "58512",
    "village": "TELUK TELAGA",
    "postal_code": "73713"
  },
  {
    "village_code": "58527",
    "village": "TETEI LANAN",
    "postal_code": "73713"
  }
]