[
  {
    "village_code": "24577",
    "village": "BARAN",
    "postal_code": "29873"
  },
  {
    "village_code": "24581",
    "village": "BATU BELUBANG",
    "postal_code": "29873"
  },
  {
    "village_code": "24600",
    "village": "BENAN",
    "postal_code": "29873"
  },
  {
    "village_code": "24625",
    "village": "CEMPA",
    "postal_code": "29873"
  },
  {
    "village_code": "24691",
    "village": "LABO",
    "postal_code": "29873"
  },
  {
    "village_code": "24712",
    "village": "MAMUT",
    "postal_code": "29873"
  },
  {
    "village_code": "24726",
    "village": "MENSANAK",
    "postal_code": "29873"
  },
  {
    "village_code": "24757",
    "village": "PASIR PANJANG",
    "postal_code": "29873"
  },
  {
    "village_code": "24768",
    "village": "PENAAH",
    "postal_code": "29873"
  },
  {
    "village_code": "24787",
    "village": "PULAU BATANG",
    "postal_code": "29873"
  },
  {
    "village_code": "24788",
    "village": "PULAU BUKIT",
    "postal_code": "29873"
  },
  {
    "village_code": "24790",
    "village": "PULAU DUYUNG",
    "postal_code": "29873"
  },
  {
    "village_code": "24792",
    "village": "PULAU MEDANG",
    "postal_code": "29873"
  },
  {
    "village_code": "24806",
    "village": "REJAI",
    "postal_code": "29873"
  },
  {
    "village_code": "24849",
    "village": "SENAYANG",
    "postal_code": "29873"
  },
  {
    "village_code": "24887",
    "village": "TAJUR BIRU",
    "postal_code": "29873"
  },
  {
    "village_code": "24903",
    "village": "TANJUNG KELIT",
    "postal_code": "29873"
  },
  {
    "village_code": "24906",
    "village": "TANJUNG LIPAT",
    "postal_code": "29873"
  },
  {
    "village_code": "24955",
    "village": "TEMIANG",
    "postal_code": "29873"
  }
]