[
  {
    "village_code": "40203",
    "village": "ALANG ALANG CARUBAN",
    "postal_code": "61485"
  },
  {
    "village_code": "42324",
    "village": "JANTI",
    "postal_code": "61485"
  },
  {
    "village_code": "42339",
    "village": "JARAK KULON",
    "postal_code": "61485"
  },
  {
    "village_code": "42540",
    "village": "JOGOROTO",
    "postal_code": "61485"
  },
  {
    "village_code": "44404",
    "village": "MAYANGAN",
    "postal_code": "61485"
  },
  {
    "village_code": "45026",
    "village": "NGUMPUL",
    "postal_code": "61485"
  },
  {
    "village_code": "46317",
    "village": "SAMBIREJO",
    "postal_code": "61485"
  },
  {
    "village_code": "46416",
    "village": "SAWIJI",
    "postal_code": "61485"
  },
  {
    "village_code": "47217",
    "village": "SUKOSARI",
    "postal_code": "61485"
  },
  {
    "village_code": "47296",
    "village": "SUMBER MULYO",
    "postal_code": "61485"
  },
  {
    "village_code": "47754",
    "village": "TAMBAR",
    "postal_code": "61485"
  }
]