[
  {
    "village_code": "40384",
    "village": "BAKALANRAYUNG",
    "postal_code": "61454"
  },
  {
    "village_code": "40898",
    "village": "BENDUNGAN",
    "postal_code": "61454"
  },
  {
    "village_code": "43105",
    "village": "KATEMAS",
    "postal_code": "61454"
  },
  {
    "village_code": "43597",
    "village": "KEPUHREJO",
    "postal_code": "61454"
  },
  {
    "village_code": "43953",
    "village": "KUDUBANJAR",
    "postal_code": "61454"
  },
  {
    "village_code": "44230",
    "village": "MADE",
    "postal_code": "61454"
  },
  {
    "village_code": "44469",
    "village": "MENTURUS",
    "postal_code": "61454"
  },
  {
    "village_code": "46139",
    "village": "RANDUWATANG",
    "postal_code": "61454"
  },
  {
    "village_code": "46741",
    "village": "SIDOKATON",
    "postal_code": "61454"
  },
  {
    "village_code": "47315",
    "village": "SUMBER TEGUH",
    "postal_code": "61454"
  },
  {
    "village_code": "47889",
    "village": "TAPEN",
    "postal_code": "61454"
  }
]