[
  {
    "village_code": "40416",
    "village": "BALONG BESUK",
    "postal_code": "61471"
  },
  {
    "village_code": "40500",
    "village": "BANDUNG",
    "postal_code": "61471"
  },
  {
    "village_code": "40864",
    "village": "BENDET",
    "postal_code": "61471"
  },
  {
    "village_code": "41109",
    "village": "BRAMBANG",
    "postal_code": "61471"
  },
  {
    "village_code": "41246",
    "village": "BULUREJO",
    "postal_code": "61471"
  },
  {
    "village_code": "41426",
    "village": "CEWENG",
    "postal_code": "61471"
  },
  {
    "village_code": "41454",
    "village": "CUKIR",
    "postal_code": "61471"
  },
  {
    "village_code": "41621",
    "village": "DIWEK",
    "postal_code": "61471"
  },
  {
    "village_code": "42126",
    "village": "GROGOL",
    "postal_code": "61471"
  },
  {
    "village_code": "42401",
    "village": "JATIPELEM",
    "postal_code": "61471"
  },
  {
    "village_code": "42405",
    "village": "JATIREJO",
    "postal_code": "61471"
  },
  {
    "village_code": "43149",
    "village": "KAYANGAN",
    "postal_code": "61471"
  },
  {
    "village_code": "43251",
    "village": "KEDAWONG",
    "postal_code": "61471"
  },
  {
    "village_code": "43611",
    "village": "KERAS",
    "postal_code": "61471"
  },
  {
    "village_code": "44020",
    "village": "KWARON",
    "postal_code": "61471"
  },
  {
    "village_code": "45003",
    "village": "NGUDIREJO",
    "postal_code": "61471"
  },
  {
    "village_code": "45320",
    "village": "PANDANWANGI",
    "postal_code": "61471"
  },
  {
    "village_code": "45996",
    "village": "PUNDONG",
    "postal_code": "61471"
  },
  {
    "village_code": "46086",
    "village": "PUTON",
    "postal_code": "61471"
  },
  {
    "village_code": "48459",
    "village": "WATUGALUH",
    "postal_code": "61471"
  }
]