[
  {
    "village_code": "40282",
    "village": "ARJOSARI",
    "postal_code": "67181"
  },
  {
    "village_code": "42344",
    "village": "JARANGAN",
    "postal_code": "67181"
  },
  {
    "village_code": "42909",
    "village": "KARANG PANDAN",
    "postal_code": "67181"
  },
  {
    "village_code": "43144",
    "village": "KAWIS REJO",
    "postal_code": "67181"
  },
  {
    "village_code": "43273",
    "village": "KEDUNG BAKO",
    "postal_code": "67181"
  },
  {
    "village_code": "43443",
    "village": "KEMANTREN REJO",
    "postal_code": "67181"
  },
  {
    "village_code": "43705",
    "village": "KETEGAN",
    "postal_code": "67181"
  },
  {
    "village_code": "44327",
    "village": "MANIK REJO",
    "postal_code": "67181"
  },
  {
    "village_code": "45289",
    "village": "PANDAN REJO",
    "postal_code": "67181"
  },
  {
    "village_code": "45501",
    "village": "PATUGURAN",
    "postal_code": "67181"
  },
  {
    "village_code": "46192",
    "village": "REJOSO KIDUL",
    "postal_code": "67181"
  },
  {
    "village_code": "46196",
    "village": "REJOSOLOR",
    "postal_code": "67181"
  },
  {
    "village_code": "46278",
    "village": "SADENG REJO",
    "postal_code": "67181"
  },
  {
    "village_code": "46321",
    "village": "SAMBIREJO",
    "postal_code": "67181"
  },
  {
    "village_code": "46471",
    "village": "SEGORO PURO",
    "postal_code": "67181"
  },
  {
    "village_code": "48214",
    "village": "TOYANING",
    "postal_code": "67181"
  }
]