[
  {
    "village_code": "40570",
    "village": "BANJAR KEJEN",
    "postal_code": "67156"
  },
  {
    "village_code": "40640",
    "village": "BANJARSARI",
    "postal_code": "67156"
  },
  {
    "village_code": "41718",
    "village": "DURENSEWU",
    "postal_code": "67156"
  },
  {
    "village_code": "42541",
    "village": "JOGOSARI",
    "postal_code": "67156"
  },
  {
    "village_code": "42896",
    "village": "KARANG JATI",
    "postal_code": "67156"
  },
  {
    "village_code": "43188",
    "village": "KEBON WARIS",
    "postal_code": "67156"
  },
  {
    "village_code": "43471",
    "village": "KEMIRI SEWU",
    "postal_code": "67156"
  },
  {
    "village_code": "44000",
    "village": "KUTOREJO",
    "postal_code": "67156"
  },
  {
    "village_code": "45045",
    "village": "NOGOSARI",
    "postal_code": "67156"
  },
  {
    "village_code": "45283",
    "village": "PANDAAN",
    "postal_code": "67156"
  },
  {
    "village_code": "45676",
    "village": "PETUNGASRI",
    "postal_code": "67156"
  },
  {
    "village_code": "45742",
    "village": "PLINTAHAN",
    "postal_code": "67156"
  },
  {
    "village_code": "46437",
    "village": "SEBANI",
    "postal_code": "67156"
  },
  {
    "village_code": "47281",
    "village": "SUMBER GEDANG",
    "postal_code": "67156"
  },
  {
    "village_code": "47304",
    "village": "SUMBER REJO",
    "postal_code": "67156"
  },
  {
    "village_code": "47907",
    "village": "TAWANG REJO",
    "postal_code": "67156"
  },
  {
    "village_code": "48327",
    "village": "TUNGGUL WULUNG",
    "postal_code": "67156"
  },
  {
    "village_code": "48485",
    "village": "WEDORO",
    "postal_code": "67156"
  }
]