[
  {
    "village_code": "40616",
    "village": "BANJARIMBO",
    "postal_code": "67183"
  },
  {
    "village_code": "41231",
    "village": "BULUKANDANG",
    "postal_code": "67183"
  },
  {
    "village_code": "41456",
    "village": "CUKURGULING",
    "postal_code": "67183"
  },
  {
    "village_code": "42879",
    "village": "KARANG ASEM",
    "postal_code": "67183"
  },
  {
    "village_code": "42895",
    "village": "KARANG JATI",
    "postal_code": "67183"
  },
  {
    "village_code": "43945",
    "village": "KRONTO",
    "postal_code": "67183"
  },
  {
    "village_code": "44214",
    "village": "LUMBANG",
    "postal_code": "67183"
  },
  {
    "village_code": "45281",
    "village": "PANCUR",
    "postal_code": "67183"
  },
  {
    "village_code": "45336",
    "village": "PANDITAN",
    "postal_code": "67183"
  },
  {
    "village_code": "48467",
    "village": "WATULUMBUNG",
    "postal_code": "67183"
  },
  {
    "village_code": "48492",
    "village": "WELULANG",
    "postal_code": "67183"
  },
  {
    "village_code": "48609",
    "village": "WONOREJO",
    "postal_code": "67183"
  }
]