[
  {
    "village_code": "40789",
    "village": "BAUJENG",
    "postal_code": "67154"
  },
  {
    "village_code": "25524",
    "village": "BEJI",
    "postal_code": "67154"
  },
  {
    "village_code": "41362",
    "village": "CANGKRING MALANG",
    "postal_code": "67154"
  },
  {
    "village_code": "41785",
    "village": "GAJAHBENDO",
    "postal_code": "67154"
  },
  {
    "village_code": "42052",
    "village": "GLANGGANG",
    "postal_code": "67154"
  },
  {
    "village_code": "42179",
    "village": "GUNUNG GANGSIR",
    "postal_code": "67154"
  },
  {
    "village_code": "42192",
    "village": "GUNUNG SARI",
    "postal_code": "67154"
  },
  {
    "village_code": "43282",
    "village": "KEDUNG BOTO",
    "postal_code": "67154"
  },
  {
    "village_code": "43302",
    "village": "KEDUNG RINGIN",
    "postal_code": "67154"
  },
  {
    "village_code": "43533",
    "village": "KENEP",
    "postal_code": "67154"
  },
  {
    "village_code": "44860",
    "village": "NGEMBE",
    "postal_code": "67154"
  },
  {
    "village_code": "45138",
    "village": "PAGAK",
    "postal_code": "67154"
  },
  {
    "village_code": "46849",
    "village": "SIDOWAYAH",
    "postal_code": "67154"
  },
  {
    "village_code": "48584",
    "village": "WONOKOYO",
    "postal_code": "67154"
  }
]