[
  {
    "village_code": "41375",
    "village": "CAPANG",
    "postal_code": "67163"
  },
  {
    "village_code": "41451",
    "village": "COWEK",
    "postal_code": "67163"
  },
  {
    "village_code": "41552",
    "village": "DAWUHAN SENGON",
    "postal_code": "67163"
  },
  {
    "village_code": "41781",
    "village": "GAJAH REJO",
    "postal_code": "67163"
  },
  {
    "village_code": "41997",
    "village": "GERBO",
    "postal_code": "67163"
  },
  {
    "village_code": "42429",
    "village": "JATISARI",
    "postal_code": "67163"
  },
  {
    "village_code": "44099",
    "village": "LEBAK REJO",
    "postal_code": "67163"
  },
  {
    "village_code": "45427",
    "village": "PAREREJO",
    "postal_code": "67163"
  },
  {
    "village_code": "45921",
    "village": "PUCANG SARI",
    "postal_code": "67163"
  },
  {
    "village_code": "18786",
    "village": "PURWODADI",
    "postal_code": "67163"
  },
  {
    "village_code": "46609",
    "village": "SEMUT",
    "postal_code": "67163"
  },
  {
    "village_code": "46662",
    "village": "SENTUL",
    "postal_code": "67163"
  },
  {
    "village_code": "47710",
    "village": "TAMBAK SARI",
    "postal_code": "67163"
  }
]