[
  {
    "village_code": "41440",
    "village": "COBAN BLIMBING",
    "postal_code": "67173"
  },
  {
    "village_code": "42356",
    "village": "JATI GUNTING",
    "postal_code": "67173"
  },
  {
    "village_code": "42880",
    "village": "KARANG ASEM",
    "postal_code": "67173"
  },
  {
    "village_code": "42901",
    "village": "KARANG MENGGAH",
    "postal_code": "67173"
  },
  {
    "village_code": "42981",
    "village": "KARANGJATI ANYAR",
    "postal_code": "67173"
  },
  {
    "village_code": "43056",
    "village": "KARANGSONO",
    "postal_code": "67173"
  },
  {
    "village_code": "43524",
    "village": "KENDANG DUKUH",
    "postal_code": "67173"
  },
  {
    "village_code": "43829",
    "village": "KLUWUT",
    "postal_code": "67173"
  },
  {
    "village_code": "44107",
    "village": "LEBAKSARI",
    "postal_code": "67173"
  },
  {
    "village_code": "45208",
    "village": "PAKIJANGAN",
    "postal_code": "67173"
  },
  {
    "village_code": "46165",
    "village": "REBONO",
    "postal_code": "67173"
  },
  {
    "village_code": "46335",
    "village": "SAMBISIRAH",
    "postal_code": "67173"
  },
  {
    "village_code": "47684",
    "village": "TAMANSARI",
    "postal_code": "67173"
  },
  {
    "village_code": "48626",
    "village": "WONOREJO",
    "postal_code": "67173"
  },
  {
    "village_code": "48638",
    "village": "WONOSARI",
    "postal_code": "67173"
  }
]