[
  {
    "village_code": "62307",
    "village": "APELA DUA (II)",
    "postal_code": "95537"
  },
  {
    "village_code": "62308",
    "village": "APELA SATU (I)",
    "postal_code": "95537"
  },
  {
    "village_code": "62361",
    "village": "BATU PUTIH ATAS",
    "postal_code": "95535"
  },
  {
    "village_code": "62362",
    "village": "BATU PUTIH BAWAH",
    "postal_code": "95535"
  },
  {
    "village_code": "62562",
    "village": "DANOWUDU",
    "postal_code": "95533"
  },
  {
    "village_code": "62589",
    "village": "DUA SUDARA (DUASADARA)",
    "postal_code": "95531"
  },
  {
    "village_code": "62753",
    "village": "KARONDORAN",
    "postal_code": "95536"
  },
  {
    "village_code": "62899",
    "village": "KUMERSOT (KUMERESOT)",
    "postal_code": "95538"
  },
  {
    "village_code": "63414",
    "village": "PINASUNGKULAN",
    "postal_code": "95535"
  },
  {
    "village_code": "63427",
    "village": "PINOKALAN",
    "postal_code": "95531"
  },
  {
    "village_code": "63805",
    "village": "TEWAAN",
    "postal_code": "95532"
  }
]