[
  {
    "village_code": "40561",
    "village": "BANGUNSARI",
    "postal_code": "63419"
  },
  {
    "village_code": "40687",
    "village": "BANYUDONO",
    "postal_code": "63411"
  },
  {
    "village_code": "40825",
    "village": "BEDURI",
    "postal_code": "63412"
  },
  {
    "village_code": "41148",
    "village": "BROTONEGARAN",
    "postal_code": "63419"
  },
  {
    "village_code": "41444",
    "village": "COKROMENGGALAN",
    "postal_code": "63411"
  },
  {
    "village_code": "42520",
    "village": "JINGGLONG",
    "postal_code": "63411"
  },
  {
    "village_code": "43130",
    "village": "KAUMAN",
    "postal_code": "63414"
  },
  {
    "village_code": "43537",
    "village": "KENITEN",
    "postal_code": "63412"
  },
  {
    "village_code": "43562",
    "village": "KEPATIHAN",
    "postal_code": "63416"
  },
  {
    "village_code": "44309",
    "village": "MANGKUJAYAN",
    "postal_code": "63413"
  },
  {
    "village_code": "45049",
    "village": "NOLOGATEN",
    "postal_code": "63411"
  },
  {
    "village_code": "45185",
    "village": "PAJU",
    "postal_code": "63415"
  },
  {
    "village_code": "45234",
    "village": "PAKUNDEN",
    "postal_code": "63416"
  },
  {
    "village_code": "45693",
    "village": "PINGGIR SARI",
    "postal_code": "63419"
  },
  {
    "village_code": "46014",
    "village": "PURBOSUMAN",
    "postal_code": "63417"
  },
  {
    "village_code": "47583",
    "village": "SURODIKRAMAN",
    "postal_code": "63419"
  },
  {
    "village_code": "47650",
    "village": "TAMAN ARUM",
    "postal_code": "63419"
  },
  {
    "village_code": "47697",
    "village": "TAMBAK BAYAN",
    "postal_code": "63419"
  },
  {
    "village_code": "48197",
    "village": "TONATAN",
    "postal_code": "63418"
  }
]