[
  {
    "village_code": "13905",
    "village": "GUNUNG",
    "postal_code": "29565"
  },
  {
    "village_code": "13966",
    "village": "KAMPUNG BARU",
    "postal_code": "29565"
  },
  {
    "village_code": "14093",
    "village": "KOTO GUNUNG",
    "postal_code": "29565"
  },
  {
    "village_code": "14241",
    "village": "LUBUK TERANTANG",
    "postal_code": "29565"
  },
  {
    "village_code": "14548",
    "village": "PETAPAHAN",
    "postal_code": "29565"
  },
  {
    "village_code": "14559",
    "village": "PISANG BEREBUS",
    "postal_code": "29565"
  },
  {
    "village_code": "14594",
    "village": "PULAU MUNGKUR",
    "postal_code": "29565"
  },
  {
    "village_code": "14605",
    "village": "PULAU RUMPUT",
    "postal_code": "29565"
  },
  {
    "village_code": "14754",
    "village": "SEBERANG GUNUNG",
    "postal_code": "29565"
  },
  {
    "village_code": "14760",
    "village": "SEBERANG SUNGAI",
    "postal_code": "29565"
  },
  {
    "village_code": "14879",
    "village": "SIBEROBAH",
    "postal_code": "29565"
  },
  {
    "village_code": "15246",
    "village": "TEBERAU PANJANG",
    "postal_code": "29565"
  },
  {
    "village_code": "15265",
    "village": "TELUK BERINGIN",
    "postal_code": "29565"
  },
  {
    "village_code": "15351",
    "village": "TOAR",
    "postal_code": "29565"
  }
]