[
  {
    "village_code": "13964",
    "village": "KAMPUNG BARU",
    "postal_code": "29555"
  },
  {
    "village_code": "13962",
    "village": "KAMPUNG BARU TIMUR",
    "postal_code": "29555"
  },
  {
    "village_code": "14067",
    "village": "KOMPE BERANGIN",
    "postal_code": "29555"
  },
  {
    "village_code": "14091",
    "village": "KOTO CERENTI",
    "postal_code": "29555"
  },
  {
    "village_code": "14101",
    "village": "KOTO PERAKU",
    "postal_code": "29555"
  },
  {
    "village_code": "14426",
    "village": "PASAR CERENTI",
    "postal_code": "29555"
  },
  {
    "village_code": "14538",
    "village": "PESIKAIAN / PASIKAIAN",
    "postal_code": "29555"
  },
  {
    "village_code": "14571",
    "village": "PULAU BAYUR",
    "postal_code": "29555"
  },
  {
    "village_code": "14584",
    "village": "PULAU JAMBU",
    "postal_code": "29555"
  },
  {
    "village_code": "14597",
    "village": "PULAU PANJANG CERENTI",
    "postal_code": "29555"
  },
  {
    "village_code": "14888",
    "village": "SIKAKAK",
    "postal_code": "29555"
  },
  {
    "village_code": "15195",
    "village": "TANJUNG MEDAN",
    "postal_code": "29555"
  },
  {
    "village_code": "15297",
    "village": "TELUK PAUH",
    "postal_code": "29555"
  }
]