[
  {
    "village_code": "13551",
    "village": "AIR MAS / EMAS",
    "postal_code": "29563"
  },
  {
    "village_code": "14006",
    "village": "KEBUN LADO",
    "postal_code": "29563"
  },
  {
    "village_code": "14206",
    "village": "LOGAS",
    "postal_code": "29563"
  },
  {
    "village_code": "14204",
    "village": "LOGAS HILIR",
    "postal_code": "29563"
  },
  {
    "village_code": "14322",
    "village": "MUARA LEMBU",
    "postal_code": "29563"
  },
  {
    "village_code": "14388",
    "village": "PANGKALAN INDARUNG",
    "postal_code": "29563"
  },
  {
    "village_code": "14439",
    "village": "PASIR EMAS",
    "postal_code": "29563"
  },
  {
    "village_code": "14540",
    "village": "PETAI BARU",
    "postal_code": "29563"
  },
  {
    "village_code": "14595",
    "village": "PULAU PADANG",
    "postal_code": "29563"
  },
  {
    "village_code": "14982",
    "village": "SUMBER DATAR",
    "postal_code": "29563"
  },
  {
    "village_code": "15004",
    "village": "SUNGAI BAWANG",
    "postal_code": "29563"
  },
  {
    "village_code": "15032",
    "village": "SUNGAI KERANJI",
    "postal_code": "29563"
  },
  {
    "village_code": "15036",
    "village": "SUNGAI KUNING",
    "postal_code": "29563"
  },
  {
    "village_code": "15083",
    "village": "SUNGAI SIRIH",
    "postal_code": "29563"
  }
]