[
  {
    "village_code": "16977",
    "village": "AGUNG JAYA",
    "postal_code": "30758"
  },
  {
    "village_code": "17075",
    "village": "BANDAR AGUNG",
    "postal_code": "30758"
  },
  {
    "village_code": "17276",
    "village": "BUMI AGUNG",
    "postal_code": "30758"
  },
  {
    "village_code": "17430",
    "village": "GALI SARI",
    "postal_code": "30758"
  },
  {
    "village_code": "17576",
    "village": "JAYA AGUNG",
    "postal_code": "30758"
  },
  {
    "village_code": "17629",
    "village": "KARANG AGUNG",
    "postal_code": "30758"
  },
  {
    "village_code": "17679",
    "village": "KARANG MAKMUR",
    "postal_code": "30758"
  },
  {
    "village_code": "17685",
    "village": "KARANG MUKTI",
    "postal_code": "30758"
  },
  {
    "village_code": "17694",
    "village": "KARANG REJO",
    "postal_code": "30758"
  },
  {
    "village_code": "17700",
    "village": "KARANG SARI",
    "postal_code": "30758"
  },
  {
    "village_code": "17706",
    "village": "KARANG TIRTA",
    "postal_code": "30758"
  },
  {
    "village_code": "17726",
    "village": "KARYA MUKTI",
    "postal_code": "30758"
  },
  {
    "village_code": "18077",
    "village": "MADYA MULYA",
    "postal_code": "30758"
  },
  {
    "village_code": "18092",
    "village": "MANDALA SARI",
    "postal_code": "30758"
  },
  {
    "village_code": "18178",
    "village": "MEKAR SARI",
    "postal_code": "30758"
  },
  {
    "village_code": "18340",
    "village": "MULYA AGUNG",
    "postal_code": "30758"
  },
  {
    "village_code": "18342",
    "village": "MULYA JAYA",
    "postal_code": "30758"
  },
  {
    "village_code": "18694",
    "village": "PERUMPUNG RAYA",
    "postal_code": "30758"
  },
  {
    "village_code": "18779",
    "village": "PURWO AGUNG (PURWA AGUNG)",
    "postal_code": "30758"
  },
  {
    "village_code": "18879",
    "village": "RINGIN AGUNG",
    "postal_code": "30758"
  },
  {
    "village_code": "18911",
    "village": "SARI AGUNG",
    "postal_code": "30758"
  },
  {
    "village_code": "19135",
    "village": "SRI GADING",
    "postal_code": "30758"
  },
  {
    "village_code": "19137",
    "village": "SRI KARANG REJO",
    "postal_code": "30758"
  },
  {
    "village_code": "19210",
    "village": "SUKA MAKMUR",
    "postal_code": "30758"
  },
  {
    "village_code": "19252",
    "village": "SUKAJADI",
    "postal_code": "30758"
  },
  {
    "village_code": "19946",
    "village": "TRI MULYA AGUNG",
    "postal_code": "30758"
  }
]