[
  {
    "village_code": "17055",
    "village": "BABAT",
    "postal_code": "30752"
  },
  {
    "village_code": "17112",
    "village": "BANGUN SARI",
    "postal_code": "30752"
  },
  {
    "village_code": "17227",
    "village": "BERUGA  /  BERUGE",
    "postal_code": "30752"
  },
  {
    "village_code": "17742",
    "village": "KASMARAN",
    "postal_code": "30752"
  },
  {
    "village_code": "18106",
    "village": "MANGUN JAYA",
    "postal_code": "30752"
  },
  {
    "village_code": "18299",
    "village": "MUARA PUNJUNG",
    "postal_code": "30752"
  },
  {
    "village_code": "18986",
    "village": "SEREKA",
    "postal_code": "30752"
  },
  {
    "village_code": "19144",
    "village": "SRI MULYO",
    "postal_code": "30752"
  },
  {
    "village_code": "19168",
    "village": "SUGI RAYA",
    "postal_code": "30752"
  },
  {
    "village_code": "19181",
    "village": "SUGIWARAS",
    "postal_code": "30752"
  },
  {
    "village_code": "19404",
    "village": "SUNGAI ANGIT",
    "postal_code": "30752"
  },
  {
    "village_code": "19939",
    "village": "TOMAN",
    "postal_code": "30752"
  }
]