[
  {
    "village_code": "17117",
    "village": "BANJAR JAYA",
    "postal_code": "30756"
  },
  {
    "village_code": "17189",
    "village": "BEJI MULYO",
    "postal_code": "30756"
  },
  {
    "village_code": "17224",
    "village": "BERLIAN JAYA",
    "postal_code": "30756"
  },
  {
    "village_code": "17226",
    "village": "BEROJAYA TIMUR",
    "postal_code": "30756"
  },
  {
    "village_code": "18137",
    "village": "MARGO MULYO",
    "postal_code": "30756"
  },
  {
    "village_code": "18529",
    "village": "PANDAN SARI",
    "postal_code": "30756"
  },
  {
    "village_code": "18544",
    "village": "PANGKALAN TUNGKAL",
    "postal_code": "30756"
  },
  {
    "village_code": "18662",
    "village": "PENINGGALAN",
    "postal_code": "30756"
  },
  {
    "village_code": "19021",
    "village": "SIDO MULYO",
    "postal_code": "30756"
  },
  {
    "village_code": "19079",
    "village": "SIMPANG TUNGKAL",
    "postal_code": "30756"
  },
  {
    "village_code": "19087",
    "village": "SINAR HARAPAN",
    "postal_code": "30756"
  },
  {
    "village_code": "19094",
    "village": "SINAR TUNGKAL",
    "postal_code": "30756"
  },
  {
    "village_code": "19159",
    "village": "SRIMULYO",
    "postal_code": "30756"
  },
  {
    "village_code": "19193",
    "village": "SUKA DAMAI",
    "postal_code": "30756"
  },
  {
    "village_code": "19360",
    "village": "SUMBER HARUM",
    "postal_code": "30756"
  },
  {
    "village_code": "19397",
    "village": "SUMBER SARI",
    "postal_code": "30756"
  }
]