[
  {
    "village_code": "17362",
    "village": "DANAU CALA",
    "postal_code": "30757"
  },
  {
    "village_code": "17416",
    "village": "EPIL",
    "postal_code": "30757"
  },
  {
    "village_code": "17922",
    "village": "LAIS",
    "postal_code": "30757"
  },
  {
    "village_code": "18697",
    "village": "PETALING",
    "postal_code": "30757"
  },
  {
    "village_code": "18790",
    "village": "PURWOSARI",
    "postal_code": "30757"
  },
  {
    "village_code": "18823",
    "village": "RANTAU KEROYA",
    "postal_code": "30757"
  },
  {
    "village_code": "19610",
    "village": "TANJUNG AGUNG BARAT",
    "postal_code": "30757"
  },
  {
    "village_code": "19611",
    "village": "TANJUNG AGUNG SELATAN",
    "postal_code": "30757"
  },
  {
    "village_code": "19612",
    "village": "TANJUNG AGUNG TIMUR",
    "postal_code": "30757"
  },
  {
    "village_code": "19613",
    "village": "TANJUNG AGUNG UTARA",
    "postal_code": "30757"
  },
  {
    "village_code": "19896",
    "village": "TELUK",
    "postal_code": "30757"
  },
  {
    "village_code": "19888",
    "village": "TELUK KIJING I",
    "postal_code": "30757"
  },
  {
    "village_code": "19889",
    "village": "TELUK KIJING II",
    "postal_code": "30757"
  },
  {
    "village_code": "19890",
    "village": "TELUK KIJING III",
    "postal_code": "30757"
  }
]