[
  {
    "village_code": "1699",
    "village": "GAMPONG BARO",
    "postal_code": "23655"
  },
  {
    "village_code": "1704",
    "village": "GAMPONG BAROH",
    "postal_code": "23655"
  },
  {
    "village_code": "1916",
    "village": "GLE SUBAK",
    "postal_code": "23655"
  },
  {
    "village_code": "1976",
    "village": "GUNONG MEUNASAH",
    "postal_code": "23655"
  },
  {
    "village_code": "3325",
    "village": "LHOK BOT",
    "postal_code": "23655"
  },
  {
    "village_code": "3328",
    "village": "LHOK BUYA",
    "postal_code": "23655"
  },
  {
    "village_code": "3341",
    "village": "LHOK GEULUMPANG",
    "postal_code": "23655"
  },
  {
    "village_code": "3401",
    "village": "LHOK TIMON",
    "postal_code": "23655"
  },
  {
    "village_code": "4258",
    "village": "PADANG",
    "postal_code": "23655"
  },
  {
    "village_code": "4398",
    "village": "PANTE KUYUN",
    "postal_code": "23655"
  },
  {
    "village_code": "4626",
    "village": "PAYA LAUT",
    "postal_code": "23655"
  },
  {
    "village_code": "5286",
    "village": "SAPEK",
    "postal_code": "23655"
  },
  {
    "village_code": "5311",
    "village": "SAWANG",
    "postal_code": "23655"
  }
]