[
  {
    "village_code": "72528",
    "village": "ALUSI BATJAS",
    "postal_code": "97463"
  },
  {
    "village_code": "72529",
    "village": "ALUSI BUKYALIN (BUKYALIM)",
    "postal_code": "97463"
  },
  {
    "village_code": "72530",
    "village": "ALUSI KELAAN",
    "postal_code": "97463"
  },
  {
    "village_code": "72531",
    "village": "ALUSI KRAWAIN",
    "postal_code": "97463"
  },
  {
    "village_code": "72532",
    "village": "ALUSI TAMRIAN",
    "postal_code": "97463"
  },
  {
    "village_code": "72880",
    "village": "KILMASA",
    "postal_code": "97463"
  },
  {
    "village_code": "73011",
    "village": "LORWEMBUN",
    "postal_code": "97463"
  },
  {
    "village_code": "73019",
    "village": "LUMASEBU",
    "postal_code": "97463"
  },
  {
    "village_code": "73075",
    "village": "MEYANO RAYA",
    "postal_code": "97463"
  },
  {
    "village_code": "73076",
    "village": "MEYANOBAB",
    "postal_code": "97463"
  },
  {
    "village_code": "73077",
    "village": "MEYANODAS",
    "postal_code": "97463"
  }
]