[
  {
    "village_code": "72608",
    "village": "BOMAKI",
    "postal_code": "97464"
  },
  {
    "village_code": "72776",
    "village": "ILNGEI",
    "postal_code": "97464"
  },
  {
    "village_code": "72804",
    "village": "KABIARAT RAYA",
    "postal_code": "97464"
  },
  {
    "village_code": "72949",
    "village": "LATDALAM",
    "postal_code": "97464"
  },
  {
    "village_code": "72957",
    "village": "LAURAN",
    "postal_code": "97464"
  },
  {
    "village_code": "72975",
    "village": "LERMATANG",
    "postal_code": "97464"
  },
  {
    "village_code": "73066",
    "village": "MATAKUS",
    "postal_code": "97464"
  },
  {
    "village_code": "73195",
    "village": "OLILIT",
    "postal_code": "97464"
  },
  {
    "village_code": "73299",
    "village": "SAUMLAKI",
    "postal_code": "97464"
  },
  {
    "village_code": "73331",
    "village": "SIFNANA",
    "postal_code": "97464"
  },
  {
    "village_code": "73647",
    "village": "WOWONDA",
    "postal_code": "97464"
  }
]