[
  {
    "village_code": "64110",
    "village": "BAHODOPI",
    "postal_code": "94974"
  },
  {
    "village_code": "64112",
    "village": "BAHOMAKMUR",
    "postal_code": "94974"
  },
  {
    "village_code": "64237",
    "village": "BETE BETE",
    "postal_code": "94974"
  },
  {
    "village_code": "64408",
    "village": "DAMPALA",
    "postal_code": "94974"
  },
  {
    "village_code": "64465",
    "village": "FATUFIA",
    "postal_code": "94974"
  },
  {
    "village_code": "64637",
    "village": "KEUREA",
    "postal_code": "94974"
  },
  {
    "village_code": "64710",
    "village": "LABOTA",
    "postal_code": "94974"
  },
  {
    "village_code": "64735",
    "village": "LALAMPU",
    "postal_code": "94974"
  },
  {
    "village_code": "64788",
    "village": "LE-LE",
    "postal_code": "94974"
  },
  {
    "village_code": "64920",
    "village": "MAKARTI JAYA",
    "postal_code": "94974"
  },
  {
    "village_code": "65178",
    "village": "PADABAHO",
    "postal_code": "94974"
  },
  {
    "village_code": "65573",
    "village": "SIUMBATU",
    "postal_code": "94974"
  }
]