[
  {
    "village_code": "64253",
    "village": "BINOR JAYA",
    "postal_code": "94971"
  },
  {
    "village_code": "64379",
    "village": "BUNGINTIMBE",
    "postal_code": "94971"
  },
  {
    "village_code": "64385",
    "village": "BUNTA",
    "postal_code": "94971"
  },
  {
    "village_code": "64636",
    "village": "KEUNO",
    "postal_code": "94971"
  },
  {
    "village_code": "65061",
    "village": "MOHONI",
    "postal_code": "94971"
  },
  {
    "village_code": "65067",
    "village": "MOLINO",
    "postal_code": "94971"
  },
  {
    "village_code": "65068",
    "village": "MOLORES",
    "postal_code": "94971"
  },
  {
    "village_code": "65279",
    "village": "PEBOA",
    "postal_code": "94971"
  },
  {
    "village_code": "65836",
    "village": "TOMPIRA",
    "postal_code": "94971"
  },
  {
    "village_code": "65877",
    "village": "TOWARA",
    "postal_code": "94971"
  },
  {
    "village_code": "65876",
    "village": "TOWARA PANTAI",
    "postal_code": "94971"
  },
  {
    "village_code": "65935",
    "village": "UNGKEA",
    "postal_code": "94971"
  }
]