[
  {
    "village_code": "64484",
    "village": "GIRIMULYA",
    "postal_code": "94972"
  },
  {
    "village_code": "64658",
    "village": "KOLO ATAS",
    "postal_code": "94972"
  },
  {
    "village_code": "64659",
    "village": "KOLO BAWAH",
    "postal_code": "94972"
  },
  {
    "village_code": "64841",
    "village": "LIJO",
    "postal_code": "94972"
  },
  {
    "village_code": "65040",
    "village": "MENYOE",
    "postal_code": "94972"
  },
  {
    "village_code": "65053",
    "village": "MINANGOBINO",
    "postal_code": "94972"
  },
  {
    "village_code": "65071",
    "village": "MOMO",
    "postal_code": "94972"
  },
  {
    "village_code": "65237",
    "village": "PANDAUKE",
    "postal_code": "94972"
  },
  {
    "village_code": "65259",
    "village": "PARANGISI",
    "postal_code": "94972"
  },
  {
    "village_code": "65479",
    "village": "SEA",
    "postal_code": "94972"
  },
  {
    "village_code": "65649",
    "village": "TAMBALE",
    "postal_code": "94972"
  },
  {
    "village_code": "65664",
    "village": "TANA SUMPU",
    "postal_code": "94972"
  },
  {
    "village_code": "65672",
    "village": "TANANAGAYA",
    "postal_code": "94972"
  },
  {
    "village_code": "65914",
    "village": "UEPAKATU",
    "postal_code": "94972"
  }
]