[
  {
    "village_code": "31311",
    "village": "BAKUNG",
    "postal_code": "57452"
  },
  {
    "village_code": "32549",
    "village": "DOMPYONGAN",
    "postal_code": "57452"
  },
  {
    "village_code": "33040",
    "village": "GONDANGAN",
    "postal_code": "57452"
  },
  {
    "village_code": "33078",
    "village": "GRANTING",
    "postal_code": "57452"
  },
  {
    "village_code": "33635",
    "village": "JOTON",
    "postal_code": "57452"
  },
  {
    "village_code": "34176",
    "village": "KARANGDUKUH",
    "postal_code": "57452"
  },
  {
    "village_code": "35174",
    "village": "KRAGUMAN",
    "postal_code": "57452"
  },
  {
    "village_code": "36280",
    "village": "NGERING",
    "postal_code": "57452"
  },
  {
    "village_code": "36487",
    "village": "PAKAHAN",
    "postal_code": "57452"
  },
  {
    "village_code": "37037",
    "village": "PLAWIKAN",
    "postal_code": "57452"
  },
  {
    "village_code": "37179",
    "village": "PRAWATAN",
    "postal_code": "57452"
  },
  {
    "village_code": "37511",
    "village": "REJOSO",
    "postal_code": "57452"
  },
  {
    "village_code": "38333",
    "village": "SOMOPURO",
    "postal_code": "57452"
  },
  {
    "village_code": "38593",
    "village": "SUMYANG",
    "postal_code": "57452"
  },
  {
    "village_code": "38709",
    "village": "TAMBAKAN",
    "postal_code": "57452"
  },
  {
    "village_code": "38778",
    "village": "TANGKISAN POS",
    "postal_code": "57452"
  },
  {
    "village_code": "39126",
    "village": "TITANG",
    "postal_code": "57452"
  },
  {
    "village_code": "39601",
    "village": "WONOBOYO",
    "postal_code": "57452"
  }
]