[
  {
    "village_code": "31315",
    "village": "BALAK",
    "postal_code": "57463"
  },
  {
    "village_code": "31580",
    "village": "BARAN",
    "postal_code": "57463"
  },
  {
    "village_code": "31585",
    "village": "BAREPAN",
    "postal_code": "57463"
  },
  {
    "village_code": "31624",
    "village": "BAWAK",
    "postal_code": "57463"
  },
  {
    "village_code": "31703",
    "village": "BENDUNGAN",
    "postal_code": "57463"
  },
  {
    "village_code": "31848",
    "village": "BOGOR",
    "postal_code": "57463"
  },
  {
    "village_code": "32128",
    "village": "BURIKAN",
    "postal_code": "57463"
  },
  {
    "village_code": "32234",
    "village": "CAWAS",
    "postal_code": "57463"
  },
  {
    "village_code": "33019",
    "village": "GOMBANG",
    "postal_code": "57463"
  },
  {
    "village_code": "33316",
    "village": "JAPANAN",
    "postal_code": "57463"
  },
  {
    "village_code": "34139",
    "village": "KARANGASEM",
    "postal_code": "57463"
  },
  {
    "village_code": "34660",
    "village": "KEDUNGAMPEL",
    "postal_code": "57463"
  },
  {
    "village_code": "35945",
    "village": "MLESE",
    "postal_code": "57463"
  },
  {
    "village_code": "36100",
    "village": "NANGGULAN",
    "postal_code": "57463"
  },
  {
    "village_code": "36508",
    "village": "PAKISAN",
    "postal_code": "57463"
  },
  {
    "village_code": "37071",
    "village": "PLOSOWANGI",
    "postal_code": "57463"
  },
  {
    "village_code": "37103",
    "village": "POGUNG",
    "postal_code": "57463"
  },
  {
    "village_code": "39120",
    "village": "TIRTOMARTO",
    "postal_code": "57463"
  },
  {
    "village_code": "39145",
    "village": "TLINGSING",
    "postal_code": "57463"
  },
  {
    "village_code": "39307",
    "village": "TUGU",
    "postal_code": "57463"
  }
]