[
  {
    "village_code": "31664",
    "village": "BEJI",
    "postal_code": "57468"
  },
  {
    "village_code": "31693",
    "village": "BENDO",
    "postal_code": "57468"
  },
  {
    "village_code": "33371",
    "village": "JATIMULYO",
    "postal_code": "57468"
  },
  {
    "village_code": "33529",
    "village": "JETIS WETAN",
    "postal_code": "57468"
  },
  {
    "village_code": "33745",
    "village": "KALANGAN",
    "postal_code": "57468"
  },
  {
    "village_code": "33816",
    "village": "KALIGAWE",
    "postal_code": "57468"
  },
  {
    "village_code": "34629",
    "village": "KEDEN",
    "postal_code": "57468"
  },
  {
    "village_code": "34661",
    "village": "KEDUNGAN",
    "postal_code": "57468"
  },
  {
    "village_code": "35521",
    "village": "LEMAHIRENG",
    "postal_code": "57468"
  },
  {
    "village_code": "36197",
    "village": "NGAREN",
    "postal_code": "57468"
  },
  {
    "village_code": "38268",
    "village": "SOBAYAN",
    "postal_code": "57468"
  },
  {
    "village_code": "38711",
    "village": "TAMBAKBOYO",
    "postal_code": "57468"
  },
  {
    "village_code": "39043",
    "village": "TEMUWANGI",
    "postal_code": "57468"
  },
  {
    "village_code": "39288",
    "village": "TROKETON",
    "postal_code": "57468"
  }
]