[
  {
    "village_code": "31668",
    "village": "BEJI",
    "postal_code": "57482"
  },
  {
    "village_code": "31916",
    "village": "BONO",
    "postal_code": "57482"
  },
  {
    "village_code": "32365",
    "village": "COKRO",
    "postal_code": "57482"
  },
  {
    "village_code": "32403",
    "village": "DALANGAN",
    "postal_code": "57482"
  },
  {
    "village_code": "32406",
    "village": "DALEMAN",
    "postal_code": "57482"
  },
  {
    "village_code": "32798",
    "village": "GEDONGJETIS",
    "postal_code": "57482"
  },
  {
    "village_code": "34846",
    "village": "KEMIRI",
    "postal_code": "57482"
  },
  {
    "village_code": "35059",
    "village": "KIRINGAN",
    "postal_code": "57482"
  },
  {
    "village_code": "35675",
    "village": "MAJEGAN",
    "postal_code": "57482"
  },
  {
    "village_code": "35685",
    "village": "MALANGAN",
    "postal_code": "57482"
  },
  {
    "village_code": "36060",
    "village": "MUNDU",
    "postal_code": "57482"
  },
  {
    "village_code": "37132",
    "village": "POMAH",
    "postal_code": "57482"
  },
  {
    "village_code": "37220",
    "village": "PUCANG MILIRAN",
    "postal_code": "57482"
  },
  {
    "village_code": "37778",
    "village": "SEDAYU",
    "postal_code": "57482"
  },
  {
    "village_code": "38351",
    "village": "SOROGATEN",
    "postal_code": "57482"
  },
  {
    "village_code": "38413",
    "village": "SUDIMORO",
    "postal_code": "57482"
  },
  {
    "village_code": "39322",
    "village": "TULUNG",
    "postal_code": "57482"
  },
  {
    "village_code": "39738",
    "village": "WUNUT",
    "postal_code": "57482"
  }
]