[
  {
    "village_code": "31718",
    "village": "BENER",
    "postal_code": "57473"
  },
  {
    "village_code": "31729",
    "village": "BENTANGAN",
    "postal_code": "57473"
  },
  {
    "village_code": "31889",
    "village": "BOLALI",
    "postal_code": "57473"
  },
  {
    "village_code": "31932",
    "village": "BOTO",
    "postal_code": "57473"
  },
  {
    "village_code": "32039",
    "village": "BULAN",
    "postal_code": "57473"
  },
  {
    "village_code": "32655",
    "village": "DUWET",
    "postal_code": "57473"
  },
  {
    "village_code": "33154",
    "village": "GUNTING",
    "postal_code": "57473"
  },
  {
    "village_code": "33454",
    "village": "JELOBO",
    "postal_code": "57473"
  },
  {
    "village_code": "35056",
    "village": "KINGKANG",
    "postal_code": "57473"
  },
  {
    "village_code": "35617",
    "village": "LUMBUNG KEREP",
    "postal_code": "57473"
  },
  {
    "village_code": "36337",
    "village": "NGREDEN",
    "postal_code": "57473"
  },
  {
    "village_code": "36558",
    "village": "PANDANAN",
    "postal_code": "57473"
  },
  {
    "village_code": "37788",
    "village": "SEKARAN",
    "postal_code": "57473"
  },
  {
    "village_code": "38130",
    "village": "SIDOWARNO",
    "postal_code": "57473"
  },
  {
    "village_code": "38481",
    "village": "SUKOREJO",
    "postal_code": "57473"
  },
  {
    "village_code": "38907",
    "village": "TEGALGONDO",
    "postal_code": "57473"
  },
  {
    "village_code": "38982",
    "village": "TELOYO",
    "postal_code": "57473"
  },
  {
    "village_code": "39407",
    "village": "WADUNG GETAS",
    "postal_code": "57473"
  }
]