[
  {
    "village_code": "32428",
    "village": "DANGURAN",
    "postal_code": "57425"
  },
  {
    "village_code": "32750",
    "village": "GAYAMPRIT",
    "postal_code": "57423"
  },
  {
    "village_code": "33003",
    "village": "GLODOGAN",
    "postal_code": "57426"
  },
  {
    "village_code": "33541",
    "village": "JETIS",
    "postal_code": "57421"
  },
  {
    "village_code": "33740",
    "village": "KAJORAN",
    "postal_code": "57426"
  },
  {
    "village_code": "34266",
    "village": "KARANGLO",
    "postal_code": "57423"
  },
  {
    "village_code": "35882",
    "village": "MERBUNG",
    "postal_code": "57424"
  },
  {
    "village_code": "36164",
    "village": "NGALAS",
    "postal_code": "57425"
  },
  {
    "village_code": "36309",
    "village": "NGLINGGI",
    "postal_code": "57422"
  },
  {
    "village_code": "38534",
    "village": "SUMBEREJO",
    "postal_code": "57426"
  },
  {
    "village_code": "38966",
    "village": "TEGALYOSO",
    "postal_code": "57424"
  },
  {
    "village_code": "39300",
    "village": "TRUNUH",
    "postal_code": "57421"
  }
]