[
  {
    "village_code": "52083",
    "village": "AMAKAKA",
    "postal_code": "86683"
  },
  {
    "village_code": "52283",
    "village": "BEUTARAN",
    "postal_code": "86683"
  },
  {
    "village_code": "52393",
    "village": "BUNGAMUDA",
    "postal_code": "86683"
  },
  {
    "village_code": "52516",
    "village": "DULITUKAN",
    "postal_code": "86683"
  },
  {
    "village_code": "53046",
    "village": "KOLIPADAN",
    "postal_code": "86683"
  },
  {
    "village_code": "53052",
    "village": "KOLONTOBO",
    "postal_code": "86683"
  },
  {
    "village_code": "53196",
    "village": "LAMAWARA",
    "postal_code": "86683"
  },
  {
    "village_code": "53227",
    "village": "LARANWUNTUN",
    "postal_code": "86683"
  },
  {
    "village_code": "53681",
    "village": "MURUONA",
    "postal_code": "86683"
  },
  {
    "village_code": "53756",
    "village": "NAPASABOK",
    "postal_code": "86683"
  },
  {
    "village_code": "54216",
    "village": "PETUNTAWA",
    "postal_code": "86683"
  },
  {
    "village_code": "54231",
    "village": "PLILOLON",
    "postal_code": "86683"
  },
  {
    "village_code": "54618",
    "village": "TAGAWITI",
    "postal_code": "86683"
  },
  {
    "village_code": "54671",
    "village": "TANJUNG BATU",
    "postal_code": "86683"
  },
  {
    "village_code": "55029",
    "village": "WAOWALA",
    "postal_code": "86683"
  },
  {
    "village_code": "55039",
    "village": "WATODIRI",
    "postal_code": "86683"
  }
]