[
  {
    "village_code": "52133",
    "village": "BAKALEREK",
    "postal_code": "86682"
  },
  {
    "village_code": "52188",
    "village": "BAOLANGU",
    "postal_code": "86682"
  },
  {
    "village_code": "52248",
    "village": "BELOBATANG",
    "postal_code": "86682"
  },
  {
    "village_code": "53342",
    "village": "LEWOLEBA",
    "postal_code": "86611"
  },
  {
    "village_code": "53337",
    "village": "LEWOLEBA BARAT",
    "postal_code": "86613"
  },
  {
    "village_code": "53338",
    "village": "LEWOLEBA SELATAN",
    "postal_code": "86682"
  },
  {
    "village_code": "53339",
    "village": "LEWOLEBA TENGAH",
    "postal_code": "86615"
  },
  {
    "village_code": "53340",
    "village": "LEWOLEBA TIMUR",
    "postal_code": "86616"
  },
  {
    "village_code": "53341",
    "village": "LEWOLEBA UTARA",
    "postal_code": "86612"
  },
  {
    "village_code": "53388",
    "village": "LITE ULUMADO",
    "postal_code": "86616"
  },
  {
    "village_code": "53941",
    "village": "NUBA MADO",
    "postal_code": "86682"
  },
  {
    "village_code": "54135",
    "village": "PADA",
    "postal_code": "86682"
  },
  {
    "village_code": "54192",
    "village": "PAUBOKOL (PAOBOKOL)",
    "postal_code": "86682"
  },
  {
    "village_code": "54533",
    "village": "SELANDORO",
    "postal_code": "86682"
  },
  {
    "village_code": "54875",
    "village": "UDAK MELOMATA",
    "postal_code": "86682"
  },
  {
    "village_code": "54969",
    "village": "WAIJARANG",
    "postal_code": "86682"
  },
  {
    "village_code": "55041",
    "village": "WATOKOBU",
    "postal_code": "86682"
  }
]