[
  {
    "village_code": "55243",
    "village": "AMBARAWA",
    "postal_code": "78385"
  },
  {
    "village_code": "55334",
    "village": "BATU AMPAR",
    "postal_code": "78385"
  },
  {
    "village_code": "56045",
    "village": "MUARA TIGA",
    "postal_code": "78385"
  },
  {
    "village_code": "56204",
    "village": "NIPAH PANJANG",
    "postal_code": "78385"
  },
  {
    "village_code": "56224",
    "village": "PADANG TIKAR I",
    "postal_code": "78385"
  },
  {
    "village_code": "56225",
    "village": "PADANG TIKAR II",
    "postal_code": "78385"
  },
  {
    "village_code": "56590",
    "village": "SEI / SUNGAI BESAR",
    "postal_code": "78385"
  },
  {
    "village_code": "56616",
    "village": "SEI / SUNGAI JAWI",
    "postal_code": "78385"
  },
  {
    "village_code": "56624",
    "village": "SEI / SUNGAI KERAWANG",
    "postal_code": "78385"
  },
  {
    "village_code": "56928",
    "village": "SUMBER AGUNG",
    "postal_code": "78385"
  },
  {
    "village_code": "56995",
    "village": "TANJUNG BERINGIN",
    "postal_code": "78385"
  },
  {
    "village_code": "57006",
    "village": "TANJUNG HARAPAN",
    "postal_code": "78385"
  },
  {
    "village_code": "57058",
    "village": "TASIK MALAYA",
    "postal_code": "78385"
  },
  {
    "village_code": "57101",
    "village": "TELUK NIBUNG",
    "postal_code": "78385"
  },
  {
    "village_code": "57102",
    "village": "TELUK PAKEDAI DUA",
    "postal_code": "78385"
  }
]