[
  {
    "village_code": "17060",
    "village": "BABATAN",
    "postal_code": "31593"
  },
  {
    "village_code": "17142",
    "village": "BATU AMPAR",
    "postal_code": "31593"
  },
  {
    "village_code": "17413",
    "village": "ENDALO",
    "postal_code": "31593"
  },
  {
    "village_code": "17703",
    "village": "KARANG TANDING",
    "postal_code": "31593"
  },
  {
    "village_code": "17958",
    "village": "LESUNG BATU",
    "postal_code": "31593"
  },
  {
    "village_code": "17997",
    "village": "LUBUK CIK",
    "postal_code": "31593"
  },
  {
    "village_code": "18062",
    "village": "LUBUK TAPANG",
    "postal_code": "31593"
  },
  {
    "village_code": "18247",
    "village": "MUARA DANAU",
    "postal_code": "31593"
  },
  {
    "village_code": "18398",
    "village": "NIBONG (NIBUNG)",
    "postal_code": "31593"
  },
  {
    "village_code": "18473",
    "village": "PAGAR JATI",
    "postal_code": "31593"
  },
  {
    "village_code": "18809",
    "village": "RANTAU ALEH (RANTAUALIH)",
    "postal_code": "31593"
  },
  {
    "village_code": "18821",
    "village": "RANTAU KASAI",
    "postal_code": "31593"
  },
  {
    "village_code": "19319",
    "village": "SUKARAMI",
    "postal_code": "31593"
  },
  {
    "village_code": "19630",
    "village": "TANJUNG ALAM",
    "postal_code": "31593"
  },
  {
    "village_code": "19700",
    "village": "TANJUNG JATI",
    "postal_code": "31593"
  },
  {
    "village_code": "20035",
    "village": "UMOJATI",
    "postal_code": "31593"
  }
]