[
  {
    "village_code": "17079",
    "village": "BANDAR AJI",
    "postal_code": "31594"
  },
  {
    "village_code": "17640",
    "village": "KARANG ANYAR",
    "postal_code": "31594"
  },
  {
    "village_code": "17654",
    "village": "KARANG DAPO BARU",
    "postal_code": "31594"
  },
  {
    "village_code": "17657",
    "village": "KARANG DAPO LAMA",
    "postal_code": "31594"
  },
  {
    "village_code": "17668",
    "village": "KARANG GEDE",
    "postal_code": "31594"
  },
  {
    "village_code": "18149",
    "village": "MARTA PURA",
    "postal_code": "31594"
  },
  {
    "village_code": "18445",
    "village": "PADURAKSA",
    "postal_code": "31594"
  },
  {
    "village_code": "18772",
    "village": "PUNTANG",
    "postal_code": "31594"
  },
  {
    "village_code": "19604",
    "village": "TANGGA RASA",
    "postal_code": "31594"
  },
  {
    "village_code": "19837",
    "village": "TAPA BARU",
    "postal_code": "31594"
  },
  {
    "village_code": "19838",
    "village": "TAPA LAMA",
    "postal_code": "31594"
  }
]