[
  {
    "village_code": "17327",
    "village": "CANGGU",
    "postal_code": "31596"
  },
  {
    "village_code": "17643",
    "village": "KARANG ARE",
    "postal_code": "31596"
  },
  {
    "village_code": "17799",
    "village": "KEMBAHANG BARU",
    "postal_code": "31596"
  },
  {
    "village_code": "17800",
    "village": "KEMBAHANG LAMA",
    "postal_code": "31596"
  },
  {
    "village_code": "17925",
    "village": "LAMPAR BARU TALANG PADANG",
    "postal_code": "31596"
  },
  {
    "village_code": "17996",
    "village": "LUBUK BUNTAK",
    "postal_code": "31596"
  },
  {
    "village_code": "18072",
    "village": "MACANG MANIS",
    "postal_code": "31596"
  },
  {
    "village_code": "18442",
    "village": "PADANG TITIRAN",
    "postal_code": "31596"
  },
  {
    "village_code": "18570",
    "village": "PASAR TANJUNG PADANG",
    "postal_code": "31596"
  },
  {
    "village_code": "18859",
    "village": "REMANTAI",
    "postal_code": "31596"
  },
  {
    "village_code": "19526",
    "village": "TALANG DURIAN",
    "postal_code": "31596"
  },
  {
    "village_code": "19550",
    "village": "TALANG PADANG",
    "postal_code": "31596"
  },
  {
    "village_code": "19993",
    "village": "ULAK BABUK",
    "postal_code": "31596"
  }
]