[
  {
    "village_code": "440",
    "village": "BABUSSALAM",
    "postal_code": "24581"
  },
  {
    "village_code": "477",
    "village": "BALE ATU",
    "postal_code": "24581"
  },
  {
    "village_code": "483",
    "village": "BALE REDELONG",
    "postal_code": "24581"
  },
  {
    "village_code": "591",
    "village": "BATIN WIH PONGAS",
    "postal_code": "24581"
  },
  {
    "village_code": "743",
    "village": "BLANG ARA",
    "postal_code": "24581"
  },
  {
    "village_code": "919",
    "village": "BLANG PANAS",
    "postal_code": "24581"
  },
  {
    "village_code": "973",
    "village": "BLANG SENTANG",
    "postal_code": "24581"
  },
  {
    "village_code": "990",
    "village": "BLANG TAMPU",
    "postal_code": "24581"
  },
  {
    "village_code": "1041",
    "village": "BUJANG",
    "postal_code": "24581"
  },
  {
    "village_code": "1101",
    "village": "BUKIT BERSATU",
    "postal_code": "24581"
  },
  {
    "village_code": "1176",
    "village": "BURNI TELONG",
    "postal_code": "24581"
  },
  {
    "village_code": "1607",
    "village": "DELUNG ASLI",
    "postal_code": "24581"
  },
  {
    "village_code": "1609",
    "village": "DELUNG TUE",
    "postal_code": "24581"
  },
  {
    "village_code": "1936",
    "village": "GODANG",
    "postal_code": "24581"
  },
  {
    "village_code": "2027",
    "village": "HAKIM TUNGGUL NARU",
    "postal_code": "24581"
  },
  {
    "village_code": "2079",
    "village": "ISAQ BUSUR",
    "postal_code": "24581"
  },
  {
    "village_code": "2378",
    "village": "KENAWAT REDLONG",
    "postal_code": "24581"
  },
  {
    "village_code": "2813",
    "village": "KUTE KERING",
    "postal_code": "24581"
  },
  {
    "village_code": "2817",
    "village": "KUTE LINTANG",
    "postal_code": "24581"
  },
  {
    "village_code": "2833",
    "village": "KUTE TANJUNG",
    "postal_code": "24581"
  },
  {
    "village_code": "3731",
    "village": "MELUEM",
    "postal_code": "24581"
  },
  {
    "village_code": "4151",
    "village": "MUPAKAT JADI",
    "postal_code": "24581"
  },
  {
    "village_code": "4161",
    "village": "MUTIARA BARU",
    "postal_code": "24581"
  },
  {
    "village_code": "4338",
    "village": "PANJI MULIA I",
    "postal_code": "24581"
  },
  {
    "village_code": "4339",
    "village": "PANJI MULIA II",
    "postal_code": "24581"
  },
  {
    "village_code": "4490",
    "village": "PASAR SIMPANG TIGA",
    "postal_code": "24581"
  },
  {
    "village_code": "4608",
    "village": "PAYA GAJAH",
    "postal_code": "24581"
  },
  {
    "village_code": "4808",
    "village": "PILAR JAYA",
    "postal_code": "24581"
  },
  {
    "village_code": "5140",
    "village": "REJE GURU",
    "postal_code": "24581"
  },
  {
    "village_code": "5148",
    "village": "REMBELE",
    "postal_code": "24581"
  },
  {
    "village_code": "5374",
    "village": "SERULE KAYU",
    "postal_code": "24581"
  },
  {
    "village_code": "5556",
    "village": "SIDIE JADI",
    "postal_code": "24581"
  },
  {
    "village_code": "6094",
    "village": "TINGKEM ASLI",
    "postal_code": "24581"
  },
  {
    "village_code": "6095",
    "village": "TINGKEM BENYER",
    "postal_code": "24581"
  },
  {
    "village_code": "6096",
    "village": "TINGKEM BERSATU",
    "postal_code": "24581"
  },
  {
    "village_code": "6275",
    "village": "UJUNG GELE",
    "postal_code": "24581"
  },
  {
    "village_code": "6386",
    "village": "UNING BERSAH",
    "postal_code": "24581"
  },
  {
    "village_code": "6394",
    "village": "UNING TERITIT",
    "postal_code": "24581"
  },
  {
    "village_code": "6400",
    "village": "URING",
    "postal_code": "24581"
  },
  {
    "village_code": "6422",
    "village": "WAQ PONDOK SAYUR",
    "postal_code": "24581"
  }
]