[
  {
    "village_code": "518",
    "village": "BANDAR BARU",
    "postal_code": "24581"
  },
  {
    "village_code": "627",
    "village": "BENER MULIE",
    "postal_code": "24581"
  },
  {
    "village_code": "855",
    "village": "BLANG KUCAK",
    "postal_code": "24581"
  },
  {
    "village_code": "895",
    "village": "BLANG MENARA",
    "postal_code": "24581"
  },
  {
    "village_code": "916",
    "village": "BLANG PAKU",
    "postal_code": "24581"
  },
  {
    "village_code": "1120",
    "village": "BUKIT PEPANYI",
    "postal_code": "24581"
  },
  {
    "village_code": "1241",
    "village": "CINTA DAMAI",
    "postal_code": "24581"
  },
  {
    "village_code": "1832",
    "village": "GEGERUNG",
    "postal_code": "24581"
  },
  {
    "village_code": "2123",
    "village": "JAMUR UJUNG",
    "postal_code": "24581"
  },
  {
    "village_code": "2124",
    "village": "JAMUR ULUH",
    "postal_code": "24581"
  },
  {
    "village_code": "2310",
    "village": "KARANG REJO",
    "postal_code": "24581"
  },
  {
    "village_code": "2345",
    "village": "KEBUN BARU",
    "postal_code": "24581"
  },
  {
    "village_code": "3505",
    "village": "LUT KUCAK",
    "postal_code": "24581"
  },
  {
    "village_code": "3724",
    "village": "MEKAR JADI AYU",
    "postal_code": "24581"
  },
  {
    "village_code": "3752",
    "village": "MERIE SATU",
    "postal_code": "24581"
  },
  {
    "village_code": "4415",
    "village": "PANTE RAYA",
    "postal_code": "24581"
  },
  {
    "village_code": "5584",
    "village": "SIMPANG ANTARA",
    "postal_code": "24581"
  },
  {
    "village_code": "5585",
    "village": "SIMPANG BOLEK",
    "postal_code": "24581"
  },
  {
    "village_code": "5618",
    "village": "SIMPANG TERIRIT",
    "postal_code": "24581"
  },
  {
    "village_code": "5716",
    "village": "SUKA JADI",
    "postal_code": "24581"
  },
  {
    "village_code": "5735",
    "village": "SUKA MAKMUR",
    "postal_code": "24581"
  },
  {
    "village_code": "5726",
    "village": "SUKA MAKMUR TIMUR",
    "postal_code": "24581"
  },
  {
    "village_code": "5745",
    "village": "SUKA RAMI ATAS",
    "postal_code": "24581"
  },
  {
    "village_code": "5746",
    "village": "SUKA RAMI BAWAH",
    "postal_code": "24581"
  },
  {
    "village_code": "5800",
    "village": "SYURA JADI",
    "postal_code": "24581"
  },
  {
    "village_code": "6442",
    "village": "WIH PESAM",
    "postal_code": "24581"
  },
  {
    "village_code": "6456",
    "village": "WONOSOBO",
    "postal_code": "24581"
  }
]