[
  {
    "village_code": "924",
    "village": "BLANG PANU",
    "postal_code": "24582"
  },
  {
    "village_code": "1855",
    "village": "GERPA",
    "postal_code": "24582"
  },
  {
    "village_code": "1857",
    "village": "GERUTI JAYA",
    "postal_code": "24582"
  },
  {
    "village_code": "1937",
    "village": "GONENG",
    "postal_code": "24582"
  },
  {
    "village_code": "2392",
    "village": "KERLAH",
    "postal_code": "24582"
  },
  {
    "village_code": "2837",
    "village": "KUTELAH LANE",
    "postal_code": "24582"
  },
  {
    "village_code": "4548",
    "village": "PASIR PUTIH",
    "postal_code": "24582"
  },
  {
    "village_code": "4692",
    "village": "PAYUNG",
    "postal_code": "24582"
  },
  {
    "village_code": "5113",
    "village": "RATA MULIE",
    "postal_code": "24582"
  },
  {
    "village_code": "5236",
    "village": "RUSIP",
    "postal_code": "24582"
  },
  {
    "village_code": "5969",
    "village": "TEMBOLON",
    "postal_code": "24582"
  },
  {
    "village_code": "5970",
    "village": "TEMPEN BARU",
    "postal_code": "24582"
  },
  {
    "village_code": "6396",
    "village": "UNING",
    "postal_code": "24582"
  },
  {
    "village_code": "6453",
    "village": "WIHNI DURIN",
    "postal_code": "24582"
  }
]