[
  {
    "village_code": "60811",
    "village": "BANGUN SARI",
    "postal_code": "75576"
  },
  {
    "village_code": "60864",
    "village": "BIGUNG BARU",
    "postal_code": "75576"
  },
  {
    "village_code": "61132",
    "village": "LINGGANG AMER",
    "postal_code": "75576"
  },
  {
    "village_code": "61133",
    "village": "LINGGANG BIGUNG",
    "postal_code": "75576"
  },
  {
    "village_code": "61134",
    "village": "LINGGANG KEBUT",
    "postal_code": "75576"
  },
  {
    "village_code": "61135",
    "village": "LINGGANG MAPAN",
    "postal_code": "75576"
  },
  {
    "village_code": "61137",
    "village": "LINGGANG MELAPEH",
    "postal_code": "75576"
  },
  {
    "village_code": "61138",
    "village": "LINGGANG MENCELEW",
    "postal_code": "75576"
  },
  {
    "village_code": "61268",
    "village": "MELAPEH BARU",
    "postal_code": "75576"
  },
  {
    "village_code": "61467",
    "village": "PURWADADI",
    "postal_code": "75576"
  },
  {
    "village_code": "61783",
    "village": "TUTUH (TUTUNG)",
    "postal_code": "75576"
  }
]