[
  {
    "village_code": "60879",
    "village": "BUKIT HARAPAN",
    "postal_code": "75772"
  },
  {
    "village_code": "60930",
    "village": "DERAYA",
    "postal_code": "75772"
  },
  {
    "village_code": "60952",
    "village": "GERUNGGUNG",
    "postal_code": "75772"
  },
  {
    "village_code": "60993",
    "village": "JAMBUK",
    "postal_code": "75772"
  },
  {
    "village_code": "60992",
    "village": "JAMBUK MAKMUR",
    "postal_code": "75772"
  },
  {
    "village_code": "61124",
    "village": "LEMPER",
    "postal_code": "75772"
  },
  {
    "village_code": "61315",
    "village": "MUARA GUSIK",
    "postal_code": "75772"
  },
  {
    "village_code": "61325",
    "village": "MUARA KEDANG",
    "postal_code": "75772"
  },
  {
    "village_code": "61355",
    "village": "MUARA SIRAM",
    "postal_code": "75772"
  },
  {
    "village_code": "61366",
    "village": "MUARAM SIRAM I (SIRAM MAKMUR)",
    "postal_code": "75772"
  },
  {
    "village_code": "61367",
    "village": "MUARAM SIRAM II (SIRAM JAYA)",
    "postal_code": "75772"
  },
  {
    "village_code": "61421",
    "village": "PENAWAI",
    "postal_code": "75772"
  },
  {
    "village_code": "61436",
    "village": "PERENG TALIK",
    "postal_code": "75772"
  },
  {
    "village_code": "61492",
    "village": "RESAK",
    "postal_code": "75772"
  },
  {
    "village_code": "61718",
    "village": "TANJUNG SARI",
    "postal_code": "75772"
  },
  {
    "village_code": "61719",
    "village": "TANJUNG SOKE",
    "postal_code": "75772"
  }
]