[
  {
    "village_code": "40595",
    "village": "BANJARANYAR",
    "postal_code": "64172"
  },
  {
    "village_code": "40886",
    "village": "BENDOSARI",
    "postal_code": "64172"
  },
  {
    "village_code": "41004",
    "village": "BLEBER",
    "postal_code": "64172"
  },
  {
    "village_code": "41303",
    "village": "BUTUH",
    "postal_code": "64172"
  },
  {
    "village_code": "42239",
    "village": "JABANG",
    "postal_code": "64172"
  },
  {
    "village_code": "42285",
    "village": "JAMBEAN",
    "postal_code": "64172"
  },
  {
    "village_code": "42840",
    "village": "KANIGORO",
    "postal_code": "64172"
  },
  {
    "village_code": "43059",
    "village": "KARANGTALUN",
    "postal_code": "64172"
  },
  {
    "village_code": "43891",
    "village": "KRANDANG",
    "postal_code": "64172"
  },
  {
    "village_code": "43906",
    "village": "KRAS",
    "postal_code": "64172"
  },
  {
    "village_code": "44613",
    "village": "MOJOSARI",
    "postal_code": "64172"
  },
  {
    "village_code": "45059",
    "village": "NYAWANGAN",
    "postal_code": "64172"
  },
  {
    "village_code": "45560",
    "village": "PELAS",
    "postal_code": "64172"
  },
  {
    "village_code": "46034",
    "village": "PURWODADI",
    "postal_code": "64172"
  },
  {
    "village_code": "46177",
    "village": "REJOMULYO",
    "postal_code": "64172"
  },
  {
    "village_code": "46696",
    "village": "SETONOREJO",
    "postal_code": "64172"
  }
]