[
  {
    "village_code": "40851",
    "village": "BELOR",
    "postal_code": "64154"
  },
  {
    "village_code": "41000",
    "village": "BLAWE",
    "postal_code": "64154"
  },
  {
    "village_code": "41215",
    "village": "BULU",
    "postal_code": "64154"
  },
  {
    "village_code": "41559",
    "village": "DAWUHAN",
    "postal_code": "64154"
  },
  {
    "village_code": "41568",
    "village": "DAYU",
    "postal_code": "64154"
  },
  {
    "village_code": "42333",
    "village": "JANTOK",
    "postal_code": "64154"
  },
  {
    "village_code": "43008",
    "village": "KARANGPAKIS",
    "postal_code": "64154"
  },
  {
    "village_code": "43491",
    "village": "KEMPLENG",
    "postal_code": "64154"
  },
  {
    "village_code": "43703",
    "village": "KETAWANG",
    "postal_code": "64154"
  },
  {
    "village_code": "43761",
    "village": "KLAMPITAN",
    "postal_code": "64154"
  },
  {
    "village_code": "44431",
    "village": "MEKIKIS",
    "postal_code": "64154"
  },
  {
    "village_code": "44485",
    "village": "MERJOYO",
    "postal_code": "64154"
  },
  {
    "village_code": "44663",
    "village": "MRANGGEN",
    "postal_code": "64154"
  },
  {
    "village_code": "44705",
    "village": "MUNENG",
    "postal_code": "64154"
  },
  {
    "village_code": "45313",
    "village": "PANDANSARI",
    "postal_code": "64154"
  },
  {
    "village_code": "45645",
    "village": "PESING",
    "postal_code": "64154"
  },
  {
    "village_code": "46026",
    "village": "PURWOASRI",
    "postal_code": "64154"
  },
  {
    "village_code": "46035",
    "village": "PURWODADI",
    "postal_code": "64154"
  },
  {
    "village_code": "46796",
    "village": "SIDOMULYO",
    "postal_code": "64154"
  },
  {
    "village_code": "47445",
    "village": "SUMBERJO",
    "postal_code": "64154"
  },
  {
    "village_code": "48266",
    "village": "TUGU",
    "postal_code": "64154"
  },
  {
    "village_code": "48646",
    "village": "WONOTENGAH",
    "postal_code": "64154"
  },
  {
    "village_code": "48651",
    "village": "WOROMARTO",
    "postal_code": "64154"
  }
]