[
  {
    "village_code": "40874",
    "village": "BENDO",
    "postal_code": "64183"
  },
  {
    "village_code": "41243",
    "village": "BULUPASAR",
    "postal_code": "64183"
  },
  {
    "village_code": "42266",
    "village": "JAGUNG",
    "postal_code": "64183"
  },
  {
    "village_code": "42798",
    "village": "KAMBINGAN",
    "postal_code": "64183"
  },
  {
    "village_code": "44439",
    "village": "MENANG",
    "postal_code": "64183"
  },
  {
    "village_code": "45168",
    "village": "PAGU",
    "postal_code": "64183"
  },
  {
    "village_code": "46559",
    "village": "SEMANDING",
    "postal_code": "64183"
  },
  {
    "village_code": "46592",
    "village": "SEMEN",
    "postal_code": "64183"
  },
  {
    "village_code": "46913",
    "village": "SITIMERT0",
    "postal_code": "64183"
  },
  {
    "village_code": "47850",
    "village": "TANJUNG",
    "postal_code": "64183"
  },
  {
    "village_code": "48067",
    "village": "TENGGER KIDUL",
    "postal_code": "64183"
  },
  {
    "village_code": "48435",
    "village": "WATES",
    "postal_code": "64183"
  },
  {
    "village_code": "48632",
    "village": "WONOSARI",
    "postal_code": "64183"
  }
]