[
  {
    "village_code": "40988",
    "village": "BLABAK",
    "postal_code": "64173"
  },
  {
    "village_code": "41396",
    "village": "CENDONO",
    "postal_code": "64173"
  },
  {
    "village_code": "42832",
    "village": "KANDAT",
    "postal_code": "64173"
  },
  {
    "village_code": "43024",
    "village": "KARANGREJO",
    "postal_code": "64173"
  },
  {
    "village_code": "44929",
    "village": "NGLETIH",
    "postal_code": "64137"
  },
  {
    "village_code": "44976",
    "village": "NGRECO",
    "postal_code": "64173"
  },
  {
    "village_code": "45968",
    "village": "PULE",
    "postal_code": "64173"
  },
  {
    "village_code": "46050",
    "village": "PURWOREJO",
    "postal_code": "64173"
  },
  {
    "village_code": "46229",
    "village": "RINGINSARI",
    "postal_code": "64173"
  },
  {
    "village_code": "46537",
    "village": "SELOSARI",
    "postal_code": "64173"
  },
  {
    "village_code": "47403",
    "village": "SUMBEREJO",
    "postal_code": "64173"
  },
  {
    "village_code": "47952",
    "village": "TEGALAN",
    "postal_code": "64173"
  }
]