[
  {
    "village_code": "41549",
    "village": "DAWUHAN KIDUL",
    "postal_code": "64153"
  },
  {
    "village_code": "42280",
    "village": "JAMBANGAN",
    "postal_code": "64153"
  },
  {
    "village_code": "42326",
    "village": "JANTI",
    "postal_code": "64153"
  },
  {
    "village_code": "43353",
    "village": "KEDUNGMALANG",
    "postal_code": "64153"
  },
  {
    "village_code": "43587",
    "village": "KEPUH",
    "postal_code": "64153"
  },
  {
    "village_code": "44021",
    "village": "KWARON",
    "postal_code": "64153"
  },
  {
    "village_code": "44243",
    "village": "MADURETNO",
    "postal_code": "64153"
  },
  {
    "village_code": "44499",
    "village": "MINGGIRAN",
    "postal_code": "64153"
  },
  {
    "village_code": "44808",
    "village": "NGAMPEL",
    "postal_code": "64153"
  },
  {
    "village_code": "45410",
    "village": "PAPAR",
    "postal_code": "64153"
  },
  {
    "village_code": "45524",
    "village": "PEHKULON",
    "postal_code": "64153"
  },
  {
    "village_code": "45526",
    "village": "PEHWETAN",
    "postal_code": "64153"
  },
  {
    "village_code": "45956",
    "village": "PUHJAJAR",
    "postal_code": "64153"
  },
  {
    "village_code": "46071",
    "village": "PURWOTENGAH",
    "postal_code": "64153"
  },
  {
    "village_code": "47034",
    "village": "SRIKATON",
    "postal_code": "64153"
  },
  {
    "village_code": "47148",
    "village": "SUKOMORO",
    "postal_code": "64153"
  },
  {
    "village_code": "47879",
    "village": "TANON",
    "postal_code": "64153"
  }
]