[
  {
    "village_code": "25334",
    "village": "BABAKANJATI",
    "postal_code": "45556"
  },
  {
    "village_code": "25722",
    "village": "BUNIGEULIS",
    "postal_code": "45556"
  },
  {
    "village_code": "26021",
    "village": "CIBUNTU",
    "postal_code": "45556"
  },
  {
    "village_code": "27311",
    "village": "INDAPATRA",
    "postal_code": "45556"
  },
  {
    "village_code": "27364",
    "village": "JAMBUGEULIS",
    "postal_code": "45556"
  },
  {
    "village_code": "27753",
    "village": "KARANGMUNCANG",
    "postal_code": "45556"
  },
  {
    "village_code": "28096",
    "village": "KOREAK",
    "postal_code": "45556"
  },
  {
    "village_code": "29118",
    "village": "PANAWUAN",
    "postal_code": "45556"
  },
  {
    "village_code": "29729",
    "village": "SANGKANMULYA",
    "postal_code": "45556"
  },
  {
    "village_code": "29730",
    "village": "SANGKANURIP",
    "postal_code": "45556"
  },
  {
    "village_code": "30953",
    "village": "TIMBANG",
    "postal_code": "45556"
  }
]