[
  {
    "village_code": "25383",
    "village": "BANDORASA KULON",
    "postal_code": "45556"
  },
  {
    "village_code": "25384",
    "village": "BANDORASA WETAN",
    "postal_code": "45556"
  },
  {
    "village_code": "25599",
    "village": "BOJONG",
    "postal_code": "45556"
  },
  {
    "village_code": "25787",
    "village": "CARACAS",
    "postal_code": "45556"
  },
  {
    "village_code": "25931",
    "village": "CIBEUREUM",
    "postal_code": "45556"
  },
  {
    "village_code": "26449",
    "village": "CILIMUS",
    "postal_code": "45556"
  },
  {
    "village_code": "27586",
    "village": "KALIAREN",
    "postal_code": "45556"
  },
  {
    "village_code": "28311",
    "village": "LINGGAINDAH",
    "postal_code": "45556"
  },
  {
    "village_code": "28319",
    "village": "LINGGAMEKAR",
    "postal_code": "45556"
  },
  {
    "village_code": "28326",
    "village": "LINGGARJATI",
    "postal_code": "45556"
  },
  {
    "village_code": "28330",
    "village": "LINGGASANA",
    "postal_code": "45556"
  },
  {
    "village_code": "29716",
    "village": "SAMPORA",
    "postal_code": "45556"
  },
  {
    "village_code": "29842",
    "village": "SETIANEGARA",
    "postal_code": "45556"
  }
]