[
  {
    "village_code": "25531",
    "village": "BENDA",
    "postal_code": "45582"
  },
  {
    "village_code": "26244",
    "village": "CIKADUWETAN",
    "postal_code": "45582"
  },
  {
    "village_code": "26332",
    "village": "CIKEUSAL",
    "postal_code": "45582"
  },
  {
    "village_code": "26445",
    "village": "CILEUYA",
    "postal_code": "45582"
  },
  {
    "village_code": "26468",
    "village": "CIMAHI",
    "postal_code": "45582"
  },
  {
    "village_code": "26528",
    "village": "CIMULYA",
    "postal_code": "45582"
  },
  {
    "village_code": "27229",
    "village": "GUNUNGSARI",
    "postal_code": "45582"
  },
  {
    "village_code": "27643",
    "village": "KANANGA",
    "postal_code": "45582"
  },
  {
    "village_code": "28517",
    "village": "MARGAMUKTI",
    "postal_code": "45582"
  },
  {
    "village_code": "28610",
    "village": "MEKARJAYA",
    "postal_code": "45582"
  },
  {
    "village_code": "28769",
    "village": "MULYAJAYA",
    "postal_code": "45582"
  },
  {
    "village_code": "30235",
    "village": "SUKAJAYA",
    "postal_code": "45582"
  }
]