[
  {
    "village_code": "25536",
    "village": "BENDUNGAN",
    "postal_code": "45574"
  },
  {
    "village_code": "26535",
    "village": "CINAGARA",
    "postal_code": "45574"
  },
  {
    "village_code": "26552",
    "village": "CINEUBEUY / CINEUMBEUY",
    "postal_code": "45574"
  },
  {
    "village_code": "26693",
    "village": "CIPEUTIR / CIPETIR",
    "postal_code": "45574"
  },
  {
    "village_code": "28195",
    "village": "LANGSEB",
    "postal_code": "45574"
  },
  {
    "village_code": "28214",
    "village": "LEBAKWANGI",
    "postal_code": "45574"
  },
  {
    "village_code": "28408",
    "village": "MANCAGAR",
    "postal_code": "45574"
  },
  {
    "village_code": "28439",
    "village": "MANGGARI",
    "postal_code": "45574"
  },
  {
    "village_code": "28722",
    "village": "MEKARWANGI",
    "postal_code": "45574"
  },
  {
    "village_code": "29019",
    "village": "PAGUNDAN",
    "postal_code": "45574"
  },
  {
    "village_code": "29026",
    "village": "PAJAWANKIDUL",
    "postal_code": "45574"
  },
  {
    "village_code": "29282",
    "village": "PASAYANGAN",
    "postal_code": "45574"
  },
  {
    "village_code": "29908",
    "village": "SINDANG",
    "postal_code": "45574"
  }
]