[
  {
    "village_code": "25573",
    "village": "BOJONG GENTENG",
    "postal_code": "43178"
  },
  {
    "village_code": "25655",
    "village": "BOJONGSARI",
    "postal_code": "43178"
  },
  {
    "village_code": "26293",
    "village": "CIKARANG",
    "postal_code": "43178"
  },
  {
    "village_code": "26294",
    "village": "CIKARANGGEUSAN",
    "postal_code": "43178"
  },
  {
    "village_code": "26646",
    "village": "CIPARAY",
    "postal_code": "43178"
  },
  {
    "village_code": "27366",
    "village": "JAMPANG KULON",
    "postal_code": "43178"
  },
  {
    "village_code": "27690",
    "village": "KARANGANYAR",
    "postal_code": "43178"
  },
  {
    "village_code": "28614",
    "village": "MEKARJAYA",
    "postal_code": "43178"
  },
  {
    "village_code": "28832",
    "village": "NAGRAKSARI",
    "postal_code": "43178"
  },
  {
    "village_code": "28962",
    "village": "PADAJAYA",
    "postal_code": "43178"
  },
  {
    "village_code": "30774",
    "village": "TANJUNG",
    "postal_code": "43178"
  }
]