[
  {
    "village_code": "25740",
    "village": "BUNIWANGI",
    "postal_code": "43179"
  },
  {
    "village_code": "26690",
    "village": "CIPEUNDEUY",
    "postal_code": "43179"
  },
  {
    "village_code": "26836",
    "village": "CITANGLAR",
    "postal_code": "43179"
  },
  {
    "village_code": "27208",
    "village": "GUNUNG SUNGGING",
    "postal_code": "43179"
  },
  {
    "village_code": "27331",
    "village": "JAGAMUKTI",
    "postal_code": "43179"
  },
  {
    "village_code": "27542",
    "village": "KADALEMAN",
    "postal_code": "43179"
  },
  {
    "village_code": "27546",
    "village": "KADEMANGAN",
    "postal_code": "43179"
  },
  {
    "village_code": "29329",
    "village": "PASIRIPIS",
    "postal_code": "43179"
  },
  {
    "village_code": "30072",
    "village": "SIRNASARI",
    "postal_code": "43179"
  },
  {
    "village_code": "30597",
    "village": "SUKATANI",
    "postal_code": "43179"
  },
  {
    "village_code": "30690",
    "village": "SWAKARYA",
    "postal_code": "43179"
  },
  {
    "village_code": "31065",
    "village": "WANASARI",
    "postal_code": "43179"
  }
]