[
  {
    "village_code": "25364",
    "village": "BALEGEDE",
    "postal_code": "43274"
  },
  {
    "village_code": "26550",
    "village": "CINERANG",
    "postal_code": "43274"
  },
  {
    "village_code": "28395",
    "village": "MALATI",
    "postal_code": "43274"
  },
  {
    "village_code": "28534",
    "village": "MARGASARI",
    "postal_code": "43274"
  },
  {
    "village_code": "28692",
    "village": "MEKARSARI",
    "postal_code": "43274"
  },
  {
    "village_code": "28877",
    "village": "NARINGGUL",
    "postal_code": "43274"
  },
  {
    "village_code": "30143",
    "village": "SUKABAKTI",
    "postal_code": "43274"
  },
  {
    "village_code": "30430",
    "village": "SUKAMULYA",
    "postal_code": "43274"
  },
  {
    "village_code": "31064",
    "village": "WANASARI",
    "postal_code": "43274"
  },
  {
    "village_code": "31092",
    "village": "WANGUNJAYA",
    "postal_code": "43274"
  },
  {
    "village_code": "31098",
    "village": "WANGUNSARI",
    "postal_code": "43274"
  }
]