[
  {
    "village_code": "25626",
    "village": "BOJONGKASO",
    "postal_code": "43273"
  },
  {
    "village_code": "25731",
    "village": "BUNISARI",
    "postal_code": "43273"
  },
  {
    "village_code": "27773",
    "village": "KARANGSARI",
    "postal_code": "43273"
  },
  {
    "village_code": "28666",
    "village": "MEKARSARI",
    "postal_code": "43273"
  },
  {
    "village_code": "28775",
    "village": "MULYASARI",
    "postal_code": "43273"
  },
  {
    "village_code": "28880",
    "village": "NEGLASARI",
    "postal_code": "43273"
  },
  {
    "village_code": "29900",
    "village": "SINARLAUT",
    "postal_code": "43273"
  },
  {
    "village_code": "30342",
    "village": "SUKAMANAH",
    "postal_code": "43273"
  },
  {
    "village_code": "30814",
    "village": "TANJUNGSARI",
    "postal_code": "43273"
  },
  {
    "village_code": "31060",
    "village": "WANASARI",
    "postal_code": "43273"
  },
  {
    "village_code": "31085",
    "village": "WANGUNJAYA",
    "postal_code": "43273"
  }
]