[
  {
    "village_code": "25727",
    "village": "BUNIKASIH",
    "postal_code": "43261"
  },
  {
    "village_code": "25734",
    "village": "BUNISARI",
    "postal_code": "43261"
  },
  {
    "village_code": "26087",
    "village": "CIEUNDEUR",
    "postal_code": "43261"
  },
  {
    "village_code": "26300",
    "village": "CIKAROYA",
    "postal_code": "43261"
  },
  {
    "village_code": "26783",
    "village": "CISARANDI",
    "postal_code": "43261"
  },
  {
    "village_code": "26874",
    "village": "CIWALEN",
    "postal_code": "43261"
  },
  {
    "village_code": "27363",
    "village": "JAMBUDIPA",
    "postal_code": "43261"
  },
  {
    "village_code": "28731",
    "village": "MEKARWANGI",
    "postal_code": "43261"
  },
  {
    "village_code": "30447",
    "village": "SUKAMULYA",
    "postal_code": "43261"
  },
  {
    "village_code": "30609",
    "village": "SUKAWANGI",
    "postal_code": "43261"
  },
  {
    "village_code": "30886",
    "village": "TEGALLEGA",
    "postal_code": "43261"
  }
]