[
  {
    "village_code": "27156",
    "village": "GIRIMUKTI",
    "postal_code": "43272"
  },
  {
    "village_code": "27297",
    "village": "HEGARSARI",
    "postal_code": "43272"
  },
  {
    "village_code": "27454",
    "village": "JATISARI",
    "postal_code": "43272"
  },
  {
    "village_code": "27482",
    "village": "JAYAGIRI",
    "postal_code": "43272"
  },
  {
    "village_code": "28014",
    "village": "KERTAMUKTI",
    "postal_code": "43272"
  },
  {
    "village_code": "28040",
    "village": "KERTASARI",
    "postal_code": "43272"
  },
  {
    "village_code": "28635",
    "village": "MEKARLAKSANA",
    "postal_code": "43272"
  },
  {
    "village_code": "28753",
    "village": "MUARACIKADU",
    "postal_code": "43272"
  },
  {
    "village_code": "29673",
    "village": "SAGANTEN",
    "postal_code": "43272"
  },
  {
    "village_code": "30044",
    "village": "SIRNAGALIH",
    "postal_code": "43272"
  },
  {
    "village_code": "30713",
    "village": "TALAGASARI",
    "postal_code": "43272"
  }
]