[
  {
    "village_code": "27845",
    "village": "KARYAMUKTI",
    "postal_code": "43273"
  },
  {
    "village_code": "28429",
    "village": "MANDALAWANGI",
    "postal_code": "43273"
  },
  {
    "village_code": "28819",
    "village": "NAGASARI",
    "postal_code": "43273"
  },
  {
    "village_code": "29477",
    "village": "PUNCAKWANGI",
    "postal_code": "43273"
  },
  {
    "village_code": "29480",
    "village": "PURABAYA",
    "postal_code": "43273"
  },
  {
    "village_code": "29522",
    "village": "PUSAKASARI",
    "postal_code": "43273"
  },
  {
    "village_code": "29995",
    "village": "SINDANGSARI",
    "postal_code": "43273"
  },
  {
    "village_code": "30068",
    "village": "SIRNASARI",
    "postal_code": "43273"
  },
  {
    "village_code": "30240",
    "village": "SUKAJAYA",
    "postal_code": "43273"
  },
  {
    "village_code": "30429",
    "village": "SUKAMULYA",
    "postal_code": "43273"
  },
  {
    "village_code": "30579",
    "village": "SUKASIRNA",
    "postal_code": "43273"
  },
  {
    "village_code": "31026",
    "village": "WALAHIR",
    "postal_code": "43273"
  }
]