[
  {
    "village_code": "74994",
    "village": "ANDOPBIT",
    "postal_code": "99662"
  },
  {
    "village_code": "75009",
    "village": "ANGGUMBIT",
    "postal_code": "99662"
  },
  {
    "village_code": "75148",
    "village": "AWAYANKA",
    "postal_code": "99662"
  },
  {
    "village_code": "75806",
    "village": "EPSEMBIT",
    "postal_code": "99662"
  },
  {
    "village_code": "76252",
    "village": "IMKO",
    "postal_code": "99662"
  },
  {
    "village_code": "76427",
    "village": "KAKUNA",
    "postal_code": "99662"
  },
  {
    "village_code": "76466",
    "village": "KAMKA",
    "postal_code": "99662"
  },
  {
    "village_code": "77326",
    "village": "MINDIPTANA",
    "postal_code": "99662"
  },
  {
    "village_code": "77588",
    "village": "NIYIMBANG",
    "postal_code": "99662"
  },
  {
    "village_code": "77773",
    "village": "OSSO",
    "postal_code": "99662"
  },
  {
    "village_code": "78683",
    "village": "TINGGAM",
    "postal_code": "99662"
  },
  {
    "village_code": "78843",
    "village": "UMAP",
    "postal_code": "99662"
  },
  {
    "village_code": "79038",
    "village": "WANGGAT KIBI",
    "postal_code": "99662"
  }
]