[
  {
    "village_code": "51105",
    "village": "DADIBOU",
    "postal_code": "84171"
  },
  {
    "village_code": "51138",
    "village": "DONGGOBOLO",
    "postal_code": "84171"
  },
  {
    "village_code": "51246",
    "village": "KALAMPA",
    "postal_code": "84171"
  },
  {
    "village_code": "51300",
    "village": "KELI",
    "postal_code": "84171"
  },
  {
    "village_code": "51568",
    "village": "NARU",
    "postal_code": "84171"
  },
  {
    "village_code": "51578",
    "village": "NISA",
    "postal_code": "84171"
  },
  {
    "village_code": "51622",
    "village": "PANDAI",
    "postal_code": "84171"
  },
  {
    "village_code": "51655",
    "village": "PENAPALI",
    "postal_code": "84171"
  },
  {
    "village_code": "51722",
    "village": "RABAKODO",
    "postal_code": "84171"
  },
  {
    "village_code": "51756",
    "village": "RISA",
    "postal_code": "84171"
  },
  {
    "village_code": "51784",
    "village": "SAMILI",
    "postal_code": "84171"
  },
  {
    "village_code": "51933",
    "village": "TALABIU",
    "postal_code": "84171"
  },
  {
    "village_code": "51981",
    "village": "TENGA",
    "postal_code": "84171"
  },
  {
    "village_code": "51984",
    "village": "TENTE",
    "postal_code": "84171"
  },
  {
    "village_code": "52023",
    "village": "WADUWANI",
    "postal_code": "84171"
  }
]