[
  {
    "village_code": "51200",
    "village": "HIDIRASA",
    "postal_code": "84182"
  },
  {
    "village_code": "51247",
    "village": "KALEO",
    "postal_code": "84182"
  },
  {
    "village_code": "51386",
    "village": "LAMBU",
    "postal_code": "84182"
  },
  {
    "village_code": "51399",
    "village": "LANTA",
    "postal_code": "84182"
  },
  {
    "village_code": "51404",
    "village": "LAUTA BARAT",
    "postal_code": "84182"
  },
  {
    "village_code": "51471",
    "village": "MANGGE",
    "postal_code": "84182"
  },
  {
    "village_code": "51510",
    "village": "MELAYU",
    "postal_code": "84182"
  },
  {
    "village_code": "51574",
    "village": "NGGELU",
    "postal_code": "84182"
  },
  {
    "village_code": "51742",
    "village": "RATO",
    "postal_code": "84182"
  },
  {
    "village_code": "51883",
    "village": "SIMPASAI",
    "postal_code": "84182"
  },
  {
    "village_code": "51899",
    "village": "SORO",
    "postal_code": "84182"
  },
  {
    "village_code": "51923",
    "village": "SUMI",
    "postal_code": "84182"
  }
]