[
  {
    "village_code": "74840",
    "village": "ACENEP (OCENEP)",
    "postal_code": "99782"
  },
  {
    "village_code": "74875",
    "village": "AINAMSATO",
    "postal_code": "99782"
  },
  {
    "village_code": "74882",
    "village": "AIS",
    "postal_code": "99782"
  },
  {
    "village_code": "74889",
    "village": "AKAN TAPAK",
    "postal_code": "99782"
  },
  {
    "village_code": "74929",
    "village": "AMAITA",
    "postal_code": "99782"
  },
  {
    "village_code": "75180",
    "village": "BAGAIR",
    "postal_code": "99782"
  },
  {
    "village_code": "75207",
    "village": "BAKYOR",
    "postal_code": "99782"
  },
  {
    "village_code": "75258",
    "village": "BASIM",
    "postal_code": "99782"
  },
  {
    "village_code": "75274",
    "village": "BAWOS",
    "postal_code": "99782"
  },
  {
    "village_code": "75374",
    "village": "BIOPIS",
    "postal_code": "99782"
  },
  {
    "village_code": "75444",
    "village": "BORA",
    "postal_code": "99782"
  },
  {
    "village_code": "76300",
    "village": "ISAR",
    "postal_code": "99782"
  },
  {
    "village_code": "76397",
    "village": "KAGAS",
    "postal_code": "99782"
  },
  {
    "village_code": "76559",
    "village": "KAYARPIS",
    "postal_code": "99782"
  },
  {
    "village_code": "77187",
    "village": "MAPANE",
    "postal_code": "99782"
  },
  {
    "village_code": "77496",
    "village": "NANAI (NANAY)",
    "postal_code": "99782"
  },
  {
    "village_code": "77936",
    "village": "PIRAMAT",
    "postal_code": "99782"
  },
  {
    "village_code": "77944",
    "village": "PIRIEN",
    "postal_code": "99782"
  },
  {
    "village_code": "78225",
    "village": "SAYOA",
    "postal_code": "99782"
  },
  {
    "village_code": "78592",
    "village": "TAURO",
    "postal_code": "99782"
  },
  {
    "village_code": "79075",
    "village": "WARAS",
    "postal_code": "99782"
  },
  {
    "village_code": "79250",
    "village": "WIYAR",
    "postal_code": "99782"
  },
  {
    "village_code": "79499",
    "village": "YAWAS",
    "postal_code": "99782"
  }
]