[
  {
    "village_code": "74891",
    "village": "AKAT (AYAM)",
    "postal_code": "99779"
  },
  {
    "village_code": "75276",
    "village": "BAYIW PINAM",
    "postal_code": "99779"
  },
  {
    "village_code": "75281",
    "village": "BECO",
    "postal_code": "99779"
  },
  {
    "village_code": "75478",
    "village": "BUETKWAR (BETKUAR)",
    "postal_code": "99779"
  },
  {
    "village_code": "75531",
    "village": "CUMNEW",
    "postal_code": "99779"
  },
  {
    "village_code": "75845",
    "village": "FAKAN",
    "postal_code": "99779"
  },
  {
    "village_code": "76341",
    "village": "JEWES",
    "postal_code": "99779"
  },
  {
    "village_code": "77158",
    "village": "MANEPSIMNI (MANEP)",
    "postal_code": "99779"
  },
  {
    "village_code": "78339",
    "village": "SIMINI",
    "postal_code": "99779"
  },
  {
    "village_code": "79126",
    "village": "WAW",
    "postal_code": "99779"
  },
  {
    "village_code": "79657",
    "village": "YUNI",
    "postal_code": "99779"
  }
]