[
  {
    "village_code": "75114",
    "village": "ASUWETSY",
    "postal_code": "99777"
  },
  {
    "village_code": "75383",
    "village": "BIS AGATS",
    "postal_code": "99777"
  },
  {
    "village_code": "75386",
    "village": "BISMAN",
    "postal_code": "99777"
  },
  {
    "village_code": "75457",
    "village": "BOU",
    "postal_code": "99777"
  },
  {
    "village_code": "75465",
    "village": "BRITEN (BIRITEN / BERITEN)",
    "postal_code": "99777"
  },
  {
    "village_code": "76560",
    "village": "KAYE",
    "postal_code": "99777"
  },
  {
    "village_code": "77247",
    "village": "MBAIT",
    "postal_code": "99777"
  },
  {
    "village_code": "77887",
    "village": "PER",
    "postal_code": "99777"
  },
  {
    "village_code": "78212",
    "village": "SAW",
    "postal_code": "99777"
  },
  {
    "village_code": "78506",
    "village": "SUWRU",
    "postal_code": "99777"
  },
  {
    "village_code": "78895",
    "village": "UWUS",
    "postal_code": "99777"
  },
  {
    "village_code": "79452",
    "village": "YAMOTH (YOMOTH)",
    "postal_code": "99777"
  }
]