[
  {
    "village_code": "75129",
    "village": "AUBAN",
    "postal_code": "99766"
  },
  {
    "village_code": "75358",
    "village": "BINAMSAIN",
    "postal_code": "99766"
  },
  {
    "village_code": "75521",
    "village": "BUTUKATNAU",
    "postal_code": "99766"
  },
  {
    "village_code": "77075",
    "village": "MABUL",
    "postal_code": "99766"
  },
  {
    "village_code": "77863",
    "village": "PATIPI (PATIPPI)",
    "postal_code": "99766"
  },
  {
    "village_code": "77884",
    "village": "PEPERA",
    "postal_code": "99766"
  },
  {
    "village_code": "77933",
    "village": "PIRABANAK",
    "postal_code": "99766"
  },
  {
    "village_code": "78357",
    "village": "SIPENAP  /  SIPANAP (ASAREP)",
    "postal_code": "99766"
  },
  {
    "village_code": "78829",
    "village": "ULAKIN",
    "postal_code": "99766"
  },
  {
    "village_code": "79315",
    "village": "WOUTU BRASA",
    "postal_code": "99766"
  },
  {
    "village_code": "79316",
    "village": "WOUTU KOLOF",
    "postal_code": "99766"
  }
]