[
  {
    "village_code": "75158",
    "village": "AWORKEY  /  AWORKET",
    "postal_code": "99773"
  },
  {
    "village_code": "75277",
    "village": "BAYUN",
    "postal_code": "99773"
  },
  {
    "village_code": "75778",
    "village": "EMENE (EUMENE)",
    "postal_code": "99773"
  },
  {
    "village_code": "76369",
    "village": "JITORSOK",
    "postal_code": "99773"
  },
  {
    "village_code": "76401",
    "village": "KAGIRIM  /  KAIRIN",
    "postal_code": "99773"
  },
  {
    "village_code": "77996",
    "village": "PRIMAPUN (FIRIMAPUN / FIRIMAPON)",
    "postal_code": "99773"
  },
  {
    "village_code": "78141",
    "village": "SAMAN",
    "postal_code": "99773"
  },
  {
    "village_code": "78155",
    "village": "SAMENDORO  /  SEMENDORO",
    "postal_code": "99773"
  },
  {
    "village_code": "78175",
    "village": "SANTABOR (SANTAMBOR)",
    "postal_code": "99773"
  },
  {
    "village_code": "78343",
    "village": "SIMSAGAR",
    "postal_code": "99773"
  },
  {
    "village_code": "78632",
    "village": "TEREO  /  TAREO (TAERO)",
    "postal_code": "99773"
  },
  {
    "village_code": "79480",
    "village": "YAPTAMBOR",
    "postal_code": "99773"
  }
]