[
  {
    "village_code": "7012",
    "village": "BATU MAMAK",
    "postal_code": "22163"
  },
  {
    "village_code": "7086",
    "village": "BEKILANG",
    "postal_code": "22163"
  },
  {
    "village_code": "7272",
    "village": "BULUH PANCUR",
    "postal_code": "22163"
  },
  {
    "village_code": "7623",
    "village": "GUNUNG JUHAR",
    "postal_code": "22163"
  },
  {
    "village_code": "8232",
    "village": "JANDI (JANDI MERIAH)",
    "postal_code": "22163"
  },
  {
    "village_code": "8301",
    "village": "JUHAR GINTING",
    "postal_code": "22163"
  },
  {
    "village_code": "8300",
    "village": "JUHAR GINTING SADANIOGA",
    "postal_code": "22163"
  },
  {
    "village_code": "8302",
    "village": "JUHAR PERANGIN-ANGIN",
    "postal_code": "22163"
  },
  {
    "village_code": "8303",
    "village": "JUHAR TARIGAN",
    "postal_code": "22163"
  },
  {
    "village_code": "8418",
    "village": "KERIAHEN",
    "postal_code": "22163"
  },
  {
    "village_code": "8423",
    "village": "KETAWAREN",
    "postal_code": "22163"
  },
  {
    "village_code": "8424",
    "village": "KIDUPEN",
    "postal_code": "22163"
  },
  {
    "village_code": "8527",
    "village": "KUTAGUGUNG",
    "postal_code": "22163"
  },
  {
    "village_code": "8533",
    "village": "KUTAMBELIN",
    "postal_code": "22163"
  },
  {
    "village_code": "8655",
    "village": "LAU KIDUPEN",
    "postal_code": "22163"
  },
  {
    "village_code": "8657",
    "village": "LAU LINGGA",
    "postal_code": "22163"
  },
  {
    "village_code": "9080",
    "village": "MBETONG (MBETUNG)",
    "postal_code": "22163"
  },
  {
    "village_code": "9234",
    "village": "NAGA",
    "postal_code": "22163"
  },
  {
    "village_code": "9243",
    "village": "NAGERI",
    "postal_code": "22163"
  },
  {
    "village_code": "9285",
    "village": "NAMOSURO",
    "postal_code": "22163"
  },
  {
    "village_code": "9856",
    "village": "PASAR BARU",
    "postal_code": "22163"
  },
  {
    "village_code": "10198",
    "village": "PERNANTIN",
    "postal_code": "22163"
  },
  {
    "village_code": "11051",
    "village": "SIGENDERANG",
    "postal_code": "22163"
  },
  {
    "village_code": "11705",
    "village": "SUGIHEN",
    "postal_code": "22163"
  },
  {
    "village_code": "11761",
    "village": "SUKABABO",
    "postal_code": "22163"
  }
]