[
  {
    "village_code": "312",
    "village": "ANTARA",
    "postal_code": "24563"
  },
  {
    "village_code": "350",
    "village": "ARUL ITEM",
    "postal_code": "24563"
  },
  {
    "village_code": "1608",
    "village": "DELUNG SEKINEL",
    "postal_code": "24563"
  },
  {
    "village_code": "1624",
    "village": "DISPOT LINGE",
    "postal_code": "24563"
  },
  {
    "village_code": "1835",
    "village": "GELAMPANG GADING",
    "postal_code": "24563"
  },
  {
    "village_code": "1849",
    "village": "GEMBOYAH",
    "postal_code": "24563"
  },
  {
    "village_code": "1906",
    "village": "GEWAT",
    "postal_code": "24563"
  },
  {
    "village_code": "2080",
    "village": "ISE ISE",
    "postal_code": "24563"
  },
  {
    "village_code": "2095",
    "village": "JAMAT",
    "postal_code": "24563"
  },
  {
    "village_code": "2369",
    "village": "KEMERLENG (AIR ASIN KEMERLENG)",
    "postal_code": "24563"
  },
  {
    "village_code": "2807",
    "village": "KUTE BARU",
    "postal_code": "24563"
  },
  {
    "village_code": "2812",
    "village": "KUTE KERAMIL",
    "postal_code": "24563"
  },
  {
    "village_code": "2824",
    "village": "KUTE RAYANG",
    "postal_code": "24563"
  },
  {
    "village_code": "2825",
    "village": "KUTE REJE",
    "postal_code": "24563"
  },
  {
    "village_code": "2828",
    "village": "KUTE RIYEM (MERIEM)",
    "postal_code": "24563"
  },
  {
    "village_code": "2829",
    "village": "KUTE ROBEL",
    "postal_code": "24563"
  },
  {
    "village_code": "3423",
    "village": "LINGE",
    "postal_code": "24563"
  },
  {
    "village_code": "3503",
    "village": "LUMUT",
    "postal_code": "24563"
  },
  {
    "village_code": "4148",
    "village": "MUNGKUR",
    "postal_code": "24563"
  },
  {
    "village_code": "4227",
    "village": "OWAQ",
    "postal_code": "24563"
  },
  {
    "village_code": "4358",
    "village": "PANTAN NANGKA",
    "postal_code": "24563"
  },
  {
    "village_code": "4362",
    "village": "PANTAN REDUK",
    "postal_code": "24563"
  },
  {
    "village_code": "4709",
    "village": "PENARUN",
    "postal_code": "24563"
  },
  {
    "village_code": "5141",
    "village": "REJE PAYUNG",
    "postal_code": "24563"
  },
  {
    "village_code": "5595",
    "village": "SIMPANG III UNING",
    "postal_code": "24563"
  },
  {
    "village_code": "6382",
    "village": "UMANG",
    "postal_code": "24563"
  }
]