[
  {
    "village_code": "355",
    "village": "ARUL LATONG",
    "postal_code": "24561"
  },
  {
    "village_code": "377",
    "village": "ATANG JUNGKET",
    "postal_code": "24561"
  },
  {
    "village_code": "700",
    "village": "BIES BARU",
    "postal_code": "24561"
  },
  {
    "village_code": "701",
    "village": "BIES MULIE",
    "postal_code": "24561"
  },
  {
    "village_code": "702",
    "village": "BIES PENENTANAN",
    "postal_code": "24561"
  },
  {
    "village_code": "2307",
    "village": "KARANG BAYUR",
    "postal_code": "24561"
  },
  {
    "village_code": "3259",
    "village": "LENGA",
    "postal_code": "24561"
  },
  {
    "village_code": "4860",
    "village": "PUCUK DEKU",
    "postal_code": "24561"
  },
  {
    "village_code": "5610",
    "village": "SIMPANG LUKUB BADAK",
    "postal_code": "24561"
  },
  {
    "village_code": "5623",
    "village": "SIMPANG UNING NIKEN",
    "postal_code": "24561"
  },
  {
    "village_code": "5946",
    "village": "TEBES LUES",
    "postal_code": "24561"
  },
  {
    "village_code": "6389",
    "village": "UNING PEGANTUNGEN",
    "postal_code": "24561"
  }
]