[
  {
    "village_code": "374",
    "village": "ASIR-ASIR",
    "postal_code": "24513"
  },
  {
    "village_code": "373",
    "village": "ASIR-ASIR ASIA",
    "postal_code": "24512"
  },
  {
    "village_code": "478",
    "village": "BALE ATU",
    "postal_code": "24512"
  },
  {
    "village_code": "1042",
    "village": "BUJANG",
    "postal_code": "24512"
  },
  {
    "village_code": "2009",
    "village": "GUNUNG SUKU",
    "postal_code": "24512"
  },
  {
    "village_code": "2025",
    "village": "HAKIM BALE BUJANG",
    "postal_code": "24513"
  },
  {
    "village_code": "2379",
    "village": "KENAWAT",
    "postal_code": "24515"
  },
  {
    "village_code": "2821",
    "village": "KUTE NIREJE (KUTENI RAJA)",
    "postal_code": "24512"
  },
  {
    "village_code": "3742",
    "village": "MERAH MERSA",
    "postal_code": "24516"
  },
  {
    "village_code": "4695",
    "village": "PEDEMUN ONE-ONE",
    "postal_code": "24515"
  },
  {
    "village_code": "5121",
    "village": "RAWE",
    "postal_code": "24516"
  },
  {
    "village_code": "5804",
    "village": "TAKENGON BARAT",
    "postal_code": "24514"
  },
  {
    "village_code": "5805",
    "village": "TAKENGON TIMUR",
    "postal_code": "24511"
  },
  {
    "village_code": "5965",
    "village": "TELUK ONE-ONE",
    "postal_code": "24515"
  },
  {
    "village_code": "6114",
    "village": "TOWEREN ANTARA",
    "postal_code": "24516"
  },
  {
    "village_code": "6115",
    "village": "TOWEREN TOA",
    "postal_code": "24516"
  },
  {
    "village_code": "6116",
    "village": "TOWEREN UKEN",
    "postal_code": "24516"
  },
  {
    "village_code": "6423",
    "village": "WAQ TOWEREN",
    "postal_code": "24516"
  }
]