[
  {
    "village_code": "396",
    "village": "ATU LINTANG",
    "postal_code": "24563"
  },
  {
    "village_code": "719",
    "village": "BINTANG KEKELIP",
    "postal_code": "24563"
  },
  {
    "village_code": "1493",
    "village": "DAMAR MULIA",
    "postal_code": "24563"
  },
  {
    "village_code": "1825",
    "village": "GAYO MURNI",
    "postal_code": "24563"
  },
  {
    "village_code": "2383",
    "village": "KEPALA AKAL",
    "postal_code": "24563"
  },
  {
    "village_code": "3740",
    "village": "MERAH JERNANG",
    "postal_code": "24563"
  },
  {
    "village_code": "3741",
    "village": "MERAH MEGE",
    "postal_code": "24563"
  },
  {
    "village_code": "3743",
    "village": "MERAH MUYANG / MAYANG",
    "postal_code": "24563"
  },
  {
    "village_code": "3744",
    "village": "MERAH PUPUK",
    "postal_code": "24563"
  },
  {
    "village_code": "4349",
    "village": "PANTAN DAMAR",
    "postal_code": "24563"
  },
  {
    "village_code": "5923",
    "village": "TANOH ABU",
    "postal_code": "24563"
  }
]