[
  {
    "village_code": "52521",
    "village": "EBAN",
    "postal_code": "85661"
  },
  {
    "village_code": "52602",
    "village": "FATUNENO",
    "postal_code": "85661"
  },
  {
    "village_code": "52603",
    "village": "FATUNISUAN",
    "postal_code": "85661"
  },
  {
    "village_code": "52608",
    "village": "FATUTASU",
    "postal_code": "85661"
  },
  {
    "village_code": "52757",
    "village": "HAULASI",
    "postal_code": "85661"
  },
  {
    "village_code": "53277",
    "village": "LEMON",
    "postal_code": "85661"
  },
  {
    "village_code": "53518",
    "village": "MANUSASI",
    "postal_code": "85661"
  },
  {
    "village_code": "53911",
    "village": "NOELTOKO",
    "postal_code": "85661"
  },
  {
    "village_code": "53917",
    "village": "NOEPESU",
    "postal_code": "85661"
  },
  {
    "village_code": "54470",
    "village": "SAENAM",
    "postal_code": "85661"
  },
  {
    "village_code": "54482",
    "village": "SALLU",
    "postal_code": "85661"
  },
  {
    "village_code": "54586",
    "village": "SUANAE",
    "postal_code": "85661"
  }
]