[
  {
    "village_code": "20182",
    "village": "BAJAK I",
    "postal_code": "38386"
  },
  {
    "village_code": "20447",
    "village": "JAMBU",
    "postal_code": "38386"
  },
  {
    "village_code": "20543",
    "village": "KELINDANG",
    "postal_code": "38386"
  },
  {
    "village_code": "20542",
    "village": "KELINDANG ATAS",
    "postal_code": "38386"
  },
  {
    "village_code": "20691",
    "village": "LUBUK UNEN",
    "postal_code": "38386"
  },
  {
    "village_code": "20690",
    "village": "LUBUK UNEN BARU",
    "postal_code": "38386"
  },
  {
    "village_code": "20811",
    "village": "PADANG KEDEPER",
    "postal_code": "38386"
  },
  {
    "village_code": "20959",
    "village": "PENEMBANG",
    "postal_code": "38386"
  },
  {
    "village_code": "21013",
    "village": "PUNGGUK BERINGIN",
    "postal_code": "38386"
  },
  {
    "village_code": "21015",
    "village": "PUNGGUK KETUPAT",
    "postal_code": "38386"
  },
  {
    "village_code": "21272",
    "village": "TABA DURIAN SEBAKUL",
    "postal_code": "38386"
  },
  {
    "village_code": "21306",
    "village": "TALANG AMBUNG  /  LAMBUNG",
    "postal_code": "38386"
  },
  {
    "village_code": "21578",
    "village": "ULAK LEBAR",
    "postal_code": "38386"
  }
]