[
  {
    "village_code": "71912",
    "village": "BABANA",
    "postal_code": "91563"
  },
  {
    "village_code": "71944",
    "village": "BARAKKANG",
    "postal_code": "91563"
  },
  {
    "village_code": "71980",
    "village": "BOJO",
    "postal_code": "91563"
  },
  {
    "village_code": "72084",
    "village": "KIRE",
    "postal_code": "91563"
  },
  {
    "village_code": "72125",
    "village": "LEMBAH HADA",
    "postal_code": "91563"
  },
  {
    "village_code": "72149",
    "village": "LUMU",
    "postal_code": "91563"
  },
  {
    "village_code": "72259",
    "village": "PASSAPA (PASAPA)",
    "postal_code": "91563"
  },
  {
    "village_code": "72283",
    "village": "PONTANAKAYANG",
    "postal_code": "91563"
  },
  {
    "village_code": "72328",
    "village": "SALUGATTA (SALOGATTA)",
    "postal_code": "91563"
  },
  {
    "village_code": "72336",
    "village": "SALUMANURUNG",
    "postal_code": "91563"
  },
  {
    "village_code": "72462",
    "village": "TINALI",
    "postal_code": "91563"
  }
]