[
  {
    "village_code": "72043",
    "village": "KADAILA",
    "postal_code": "91512"
  },
  {
    "village_code": "72056",
    "village": "KAMBUNONG",
    "postal_code": "91512"
  },
  {
    "village_code": "72066",
    "village": "KAROSSA",
    "postal_code": "91512"
  },
  {
    "village_code": "72076",
    "village": "KAYUCALLA",
    "postal_code": "91512"
  },
  {
    "village_code": "72114",
    "village": "LARA",
    "postal_code": "91512"
  },
  {
    "village_code": "72113",
    "village": "LARA III",
    "postal_code": "91512"
  },
  {
    "village_code": "72126",
    "village": "LEMBAH HOPO",
    "postal_code": "91512"
  },
  {
    "village_code": "72202",
    "village": "MORA BENGGAULU",
    "postal_code": "91512"
  },
  {
    "village_code": "72203",
    "village": "MORA IV",
    "postal_code": "91512"
  },
  {
    "village_code": "72396",
    "village": "SUKAMAJU",
    "postal_code": "91512"
  },
  {
    "village_code": "72456",
    "village": "TASOKKO",
    "postal_code": "91512"
  }
]