[
  {
    "village_code": "40889",
    "village": "BENDOSARI",
    "postal_code": "66151"
  },
  {
    "village_code": "40892",
    "village": "BENDOWULUNG",
    "postal_code": "66151"
  },
  {
    "village_code": "42056",
    "village": "GLEDUG",
    "postal_code": "66151"
  },
  {
    "village_code": "42445",
    "village": "JEDING",
    "postal_code": "66151"
  },
  {
    "village_code": "42746",
    "village": "KALIPUCUNG",
    "postal_code": "66151"
  },
  {
    "village_code": "45756",
    "village": "PLOSOARANG",
    "postal_code": "66151"
  },
  {
    "village_code": "46059",
    "village": "PURWOREJO",
    "postal_code": "66151"
  },
  {
    "village_code": "46363",
    "village": "SANANKULON",
    "postal_code": "66151"
  },
  {
    "village_code": "47327",
    "village": "SUMBER",
    "postal_code": "66151"
  },
  {
    "village_code": "47430",
    "village": "SUMBERINGIN",
    "postal_code": "66151"
  },
  {
    "village_code": "47446",
    "village": "SUMBERJO",
    "postal_code": "66151"
  },
  {
    "village_code": "48281",
    "village": "TULISKRIYO",
    "postal_code": "66151"
  }
]