[
  {
    "village_code": "15475",
    "village": "BATU SAWAR",
    "postal_code": "36655"
  },
  {
    "village_code": "15552",
    "village": "BULUH KASAB",
    "postal_code": "36655"
  },
  {
    "village_code": "15681",
    "village": "KAMPUNG BARU",
    "postal_code": "36655"
  },
  {
    "village_code": "15739",
    "village": "KEMBANG SERI",
    "postal_code": "36655"
  },
  {
    "village_code": "16086",
    "village": "OLAK KEMANG",
    "postal_code": "36655"
  },
  {
    "village_code": "16095",
    "village": "PADANG KELAPO",
    "postal_code": "36655"
  },
  {
    "village_code": "16233",
    "village": "PENINJAUAN",
    "postal_code": "36655"
  },
  {
    "village_code": "16387",
    "village": "RENGAS SEMBILAN",
    "postal_code": "36655"
  },
  {
    "village_code": "16495",
    "village": "SIMPANG SUNGAI RENGAS",
    "postal_code": "36655"
  },
  {
    "village_code": "16632",
    "village": "SUNGAI LINGKAR",
    "postal_code": "36655"
  },
  {
    "village_code": "16664",
    "village": "SUNGAI RUAN ILIR",
    "postal_code": "36655"
  },
  {
    "village_code": "16665",
    "village": "SUNGAI RUAN ULU",
    "postal_code": "36655"
  },
  {
    "village_code": "16818",
    "village": "TEBING TINGGI",
    "postal_code": "36655"
  },
  {
    "village_code": "16848",
    "village": "TELUK LEBAN",
    "postal_code": "36655"
  }
]