[
  {
    "village_code": "40190",
    "village": "AENG TABAR",
    "postal_code": "69156"
  },
  {
    "village_code": "40485",
    "village": "BANDANG DAYAH",
    "postal_code": "69156"
  },
  {
    "village_code": "40672",
    "village": "BANYU SANGKAH",
    "postal_code": "69156"
  },
  {
    "village_code": "41259",
    "village": "BUMI ANYAR",
    "postal_code": "69156"
  },
  {
    "village_code": "41281",
    "village": "BUNGKENG",
    "postal_code": "69156"
  },
  {
    "village_code": "44082",
    "village": "LARANGAN TIMUR",
    "postal_code": "69156"
  },
  {
    "village_code": "44225",
    "village": "MACAJAH",
    "postal_code": "69156"
  },
  {
    "village_code": "45446",
    "village": "PASESEH",
    "postal_code": "69156"
  },
  {
    "village_code": "45726",
    "village": "PLANGGIRAN",
    "postal_code": "69156"
  },
  {
    "village_code": "47611",
    "village": "TAGUNGGUH",
    "postal_code": "69156"
  },
  {
    "village_code": "47706",
    "village": "TAMBAK POCOK",
    "postal_code": "69156"
  },
  {
    "village_code": "47829",
    "village": "TANJUNG BUMI",
    "postal_code": "69156"
  },
  {
    "village_code": "48003",
    "village": "TELAGA / TLAGA BIRU",
    "postal_code": "69156"
  },
  {
    "village_code": "48146",
    "village": "TLANGOH",
    "postal_code": "69156"
  }
]