[
  {
    "village_code": "40219",
    "village": "ALASKOKON",
    "postal_code": "69166"
  },
  {
    "village_code": "41106",
    "village": "BRAKAS DAJAH",
    "postal_code": "69166"
  },
  {
    "village_code": "42061",
    "village": "GLISGIS (GLIGIS)",
    "postal_code": "69166"
  },
  {
    "village_code": "42945",
    "village": "KARANGANYAR",
    "postal_code": "69166"
  },
  {
    "village_code": "43835",
    "village": "KOLLA",
    "postal_code": "69166"
  },
  {
    "village_code": "44063",
    "village": "LANGPANGGANG",
    "postal_code": "69166"
  },
  {
    "village_code": "44298",
    "village": "MANGGAAN",
    "postal_code": "69166"
  },
  {
    "village_code": "44535",
    "village": "MODUNG",
    "postal_code": "69166"
  },
  {
    "village_code": "44744",
    "village": "NEROH",
    "postal_code": "69166"
  },
  {
    "village_code": "45136",
    "village": "PAENG",
    "postal_code": "69166"
  },
  {
    "village_code": "45229",
    "village": "PAKONG",
    "postal_code": "69166"
  },
  {
    "village_code": "45384",
    "village": "PANGPAJUNG",
    "postal_code": "69166"
  },
  {
    "village_code": "45482",
    "village": "PATENGTENG",
    "postal_code": "69166"
  },
  {
    "village_code": "45483",
    "village": "PATEREMAN",
    "postal_code": "69166"
  },
  {
    "village_code": "47016",
    "village": "SRABI / SERABI BARAT",
    "postal_code": "69166"
  },
  {
    "village_code": "47017",
    "village": "SRABI / SERABI TIMUR",
    "postal_code": "69166"
  },
  {
    "village_code": "47599",
    "village": "SUWAAN",
    "postal_code": "69166"
  }
]