[
  {
    "village_code": "40241",
    "village": "AMPARAAN",
    "postal_code": "69155"
  },
  {
    "village_code": "40484",
    "village": "BANDA SOLEH",
    "postal_code": "69155"
  },
  {
    "village_code": "40486",
    "village": "BANDANG LAOK",
    "postal_code": "69155"
  },
  {
    "village_code": "40761",
    "village": "BATOKOROGAN",
    "postal_code": "69155"
  },
  {
    "village_code": "41707",
    "village": "DUPOK",
    "postal_code": "69155"
  },
  {
    "village_code": "41725",
    "village": "DURJAN",
    "postal_code": "69155"
  },
  {
    "village_code": "43113",
    "village": "KATOL TIMUR",
    "postal_code": "69155"
  },
  {
    "village_code": "43834",
    "village": "KOKOP",
    "postal_code": "69155"
  },
  {
    "village_code": "44144",
    "village": "LEMBUNG GUNUNG / GUNONG",
    "postal_code": "69155"
  },
  {
    "village_code": "44291",
    "village": "MANDUNG",
    "postal_code": "69155"
  },
  {
    "village_code": "44336",
    "village": "MANO\\AN",
    "postal_code": "69155"
  },
  {
    "village_code": "48177",
    "village": "TLOKOH",
    "postal_code": "69155"
  },
  {
    "village_code": "48222",
    "village": "TRAMOK",
    "postal_code": "69155"
  }
]