[
  {
    "village_code": "40480",
    "village": "BANCARAN",
    "postal_code": "69112"
  },
  {
    "village_code": "41577",
    "village": "DEMANGAN",
    "postal_code": "69115"
  },
  {
    "village_code": "41868",
    "village": "GEBANG",
    "postal_code": "69114"
  },
  {
    "village_code": "43451",
    "village": "KEMAYORAN",
    "postal_code": "69116"
  },
  {
    "village_code": "43612",
    "village": "KERATON",
    "postal_code": "69119"
  },
  {
    "village_code": "43876",
    "village": "KRAMAT (KERAMAT)",
    "postal_code": "69119"
  },
  {
    "village_code": "44487",
    "village": "MERTAJASAH (MARTAJASAH)",
    "postal_code": "69119"
  },
  {
    "village_code": "44505",
    "village": "MLAJAH",
    "postal_code": "69116"
  },
  {
    "village_code": "45350",
    "village": "PANGERANAN",
    "postal_code": "69115"
  },
  {
    "village_code": "45527",
    "village": "PEJAGAN (PAJAGAN)",
    "postal_code": "69112"
  },
  {
    "village_code": "46271",
    "village": "SABIYAN",
    "postal_code": "69113"
  },
  {
    "village_code": "46567",
    "village": "SEMBILANGAN",
    "postal_code": "69118"
  },
  {
    "village_code": "48360",
    "village": "UJUNG PIRING",
    "postal_code": "69118"
  }
]