[
  {
    "village_code": "40666",
    "village": "BANYONENG DAJAH (BAYONENG)",
    "postal_code": "69152"
  },
  {
    "village_code": "40667",
    "village": "BANYONENG LAOK (BAYONENG)",
    "postal_code": "69152"
  },
  {
    "village_code": "40756",
    "village": "BATOBELLA (BATOBELLE)",
    "postal_code": "69152"
  },
  {
    "village_code": "41317",
    "village": "CAMPOR",
    "postal_code": "69152"
  },
  {
    "village_code": "41485",
    "village": "DABUNG (DEBUNG)",
    "postal_code": "69152"
  },
  {
    "village_code": "41911",
    "village": "GEGER",
    "postal_code": "69152"
  },
  {
    "village_code": "42802",
    "village": "KAMPAK",
    "postal_code": "69152"
  },
  {
    "village_code": "43112",
    "village": "KATOL BARAT",
    "postal_code": "69152"
  },
  {
    "village_code": "43844",
    "village": "KOMBANGAN",
    "postal_code": "69152"
  },
  {
    "village_code": "43847",
    "village": "KOMPOL",
    "postal_code": "69152"
  },
  {
    "village_code": "44170",
    "village": "LERPAK",
    "postal_code": "69152"
  },
  {
    "village_code": "47610",
    "village": "TAGUBANG (TOGUBANG)",
    "postal_code": "69152"
  },
  {
    "village_code": "47991",
    "village": "TEGERPRIYAH (TEGARPRIYAH)",
    "postal_code": "69152"
  }
]