[
  {
    "village_code": "40803",
    "village": "BA\\ENGAS",
    "postal_code": "69163"
  },
  {
    "village_code": "41130",
    "village": "BRINGIN (BRINGEN)",
    "postal_code": "69163"
  },
  {
    "village_code": "41268",
    "village": "BUNAJIH",
    "postal_code": "69163"
  },
  {
    "village_code": "42596",
    "village": "JUKONG",
    "postal_code": "69163"
  },
  {
    "village_code": "43661",
    "village": "KESEK",
    "postal_code": "69163"
  },
  {
    "village_code": "44027",
    "village": "LABANG",
    "postal_code": "69163"
  },
  {
    "village_code": "44646",
    "village": "MORKEPEK",
    "postal_code": "69163"
  },
  {
    "village_code": "45385",
    "village": "PANGPONG",
    "postal_code": "69163"
  },
  {
    "village_code": "45659",
    "village": "PETAPAN",
    "postal_code": "69163"
  },
  {
    "village_code": "46612",
    "village": "SENDANG DAYA / DAJAH",
    "postal_code": "69163"
  },
  {
    "village_code": "46613",
    "village": "SENDANG LAOK",
    "postal_code": "69163"
  },
  {
    "village_code": "47137",
    "village": "SUKOLILO BARAT",
    "postal_code": "69163"
  },
  {
    "village_code": "47138",
    "village": "SUKOLILO TIMUR",
    "postal_code": "69163"
  }
]