[
  {
    "village_code": "32740",
    "village": "GARUNGLOR",
    "postal_code": "56362"
  },
  {
    "village_code": "33144",
    "village": "GUMIWANG",
    "postal_code": "56362"
  },
  {
    "village_code": "33204",
    "village": "GUNUNGTUGEL",
    "postal_code": "56362"
  },
  {
    "village_code": "33439",
    "village": "JEBENGPLAMPITAN",
    "postal_code": "56362"
  },
  {
    "village_code": "33728",
    "village": "KAJEKSAN",
    "postal_code": "56362"
  },
  {
    "village_code": "33788",
    "village": "KALIBENING",
    "postal_code": "56362"
  },
  {
    "village_code": "34127",
    "village": "KARANGANYAR",
    "postal_code": "56362"
  },
  {
    "village_code": "35332",
    "village": "KUPANGAN",
    "postal_code": "56362"
  },
  {
    "village_code": "35888",
    "village": "MERGOSARI",
    "postal_code": "56362"
  },
  {
    "village_code": "37048",
    "village": "PLODONGAN",
    "postal_code": "56362"
  },
  {
    "village_code": "37235",
    "village": "PUCUNG WETAN",
    "postal_code": "56362"
  },
  {
    "village_code": "37278",
    "village": "PULUS",
    "postal_code": "56362"
  },
  {
    "village_code": "37545",
    "village": "ROGOJATI",
    "postal_code": "56362"
  },
  {
    "village_code": "37882",
    "village": "SEMPOL",
    "postal_code": "56362"
  },
  {
    "village_code": "38447",
    "village": "SUKOHARJO",
    "postal_code": "56362"
  },
  {
    "village_code": "38626",
    "village": "SUROYUDAN",
    "postal_code": "56362"
  },
  {
    "village_code": "39152",
    "village": "TLOGO",
    "postal_code": "56362"
  }
]