[
  {
    "village_code": "74829",
    "village": "ABOGE",
    "postal_code": "99874"
  },
  {
    "village_code": "75093",
    "village": "ASAREN (ASSAREN)",
    "postal_code": "99874"
  },
  {
    "village_code": "75528",
    "village": "CHANANI (KHANAMI)",
    "postal_code": "99874"
  },
  {
    "village_code": "75744",
    "village": "ECI",
    "postal_code": "99874"
  },
  {
    "village_code": "75972",
    "village": "GIRIMIO",
    "postal_code": "99874"
  },
  {
    "village_code": "76047",
    "village": "HAFFO",
    "postal_code": "99874"
  },
  {
    "village_code": "76150",
    "village": "HOMANG",
    "postal_code": "99874"
  },
  {
    "village_code": "76294",
    "village": "ISAGE",
    "postal_code": "99874"
  },
  {
    "village_code": "76373",
    "village": "JUFO BESAR",
    "postal_code": "99874"
  },
  {
    "village_code": "76374",
    "village": "JUFO KECIL",
    "postal_code": "99874"
  },
  {
    "village_code": "76424",
    "village": "KAITOK",
    "postal_code": "99874"
  },
  {
    "village_code": "76617",
    "village": "KERU",
    "postal_code": "99874"
  },
  {
    "village_code": "76627",
    "village": "KHABU",
    "postal_code": "99874"
  },
  {
    "village_code": "76643",
    "village": "KIKI",
    "postal_code": "99874"
  },
  {
    "village_code": "76772",
    "village": "KOPI",
    "postal_code": "99874"
  },
  {
    "village_code": "77261",
    "village": "MEDA",
    "postal_code": "99874"
  },
  {
    "village_code": "78307",
    "village": "SIGARE",
    "postal_code": "99874"
  },
  {
    "village_code": "79441",
    "village": "YAME",
    "postal_code": "99874"
  }
]