[
  {
    "village_code": "75121",
    "village": "ATI  /  ATTI",
    "postal_code": "99872"
  },
  {
    "village_code": "76380",
    "village": "KABE",
    "postal_code": "99872"
  },
  {
    "village_code": "76544",
    "village": "KAUMI",
    "postal_code": "99872"
  },
  {
    "village_code": "76557",
    "village": "KAYAGAE (KAYAGAI)",
    "postal_code": "99872"
  },
  {
    "village_code": "76709",
    "village": "KOFAR",
    "postal_code": "99872"
  },
  {
    "village_code": "76713",
    "village": "KOGIR",
    "postal_code": "99872"
  },
  {
    "village_code": "76747",
    "village": "KOMRU",
    "postal_code": "99872"
  },
  {
    "village_code": "77834",
    "village": "PANO",
    "postal_code": "99872"
  },
  {
    "village_code": "78259",
    "village": "SENE",
    "postal_code": "99872"
  },
  {
    "village_code": "78484",
    "village": "SUMUR AMAN",
    "postal_code": "99872"
  },
  {
    "village_code": "78577",
    "village": "TARAGAI  /  TARAGAE",
    "postal_code": "99872"
  },
  {
    "village_code": "78862",
    "village": "UPIN",
    "postal_code": "99872"
  }
]