[
  {
    "village_code": "24175",
    "village": "AIK KETEKOK",
    "postal_code": "33411"
  },
  {
    "village_code": "24177",
    "village": "AIK PALEMPANG JAYA",
    "postal_code": "33414"
  },
  {
    "village_code": "24178",
    "village": "AIK RAYAK",
    "postal_code": "33413"
  },
  {
    "village_code": "24198",
    "village": "AIR MERBAU",
    "postal_code": "33411"
  },
  {
    "village_code": "24203",
    "village": "AIR SAGA",
    "postal_code": "33415"
  },
  {
    "village_code": "24256",
    "village": "BULUH TUMBANG",
    "postal_code": "33411"
  },
  {
    "village_code": "24274",
    "village": "DUKONG",
    "postal_code": "33411"
  },
  {
    "village_code": "24300",
    "village": "JURU SEBERANG",
    "postal_code": "33417"
  },
  {
    "village_code": "24336",
    "village": "KOTA TANJUNG PANDAN",
    "postal_code": "33411"
  },
  {
    "village_code": "24354",
    "village": "LESUNG BATANG",
    "postal_code": "33411"
  },
  {
    "village_code": "24395",
    "village": "PAAL SATU",
    "postal_code": "33414"
  },
  {
    "village_code": "24405",
    "village": "PANGKAL LALANG",
    "postal_code": "33412"
  },
  {
    "village_code": "24410",
    "village": "PARIT",
    "postal_code": "33411"
  },
  {
    "village_code": "24432",
    "village": "PERAWAS",
    "postal_code": "33413"
  },
  {
    "village_code": "24527",
    "village": "TANJUNG PENDAM",
    "postal_code": "33411"
  }
]