[
  {
    "village_code": "7223",
    "village": "BOTOT",
    "postal_code": "22563"
  },
  {
    "village_code": "7413",
    "village": "DOLOK PANTIS",
    "postal_code": "22563"
  },
  {
    "village_code": "7495",
    "village": "FAJAR",
    "postal_code": "22563"
  },
  {
    "village_code": "7578",
    "village": "GONTING MAHE",
    "postal_code": "22563"
  },
  {
    "village_code": "9260",
    "village": "NAI POS POS BARAT",
    "postal_code": "22563"
  },
  {
    "village_code": "9735",
    "village": "PARDAMEAN",
    "postal_code": "22563"
  },
  {
    "village_code": "9769",
    "village": "PARGARINGAN",
    "postal_code": "22563"
  },
  {
    "village_code": "9776",
    "village": "PARGARUTAN",
    "postal_code": "22563"
  },
  {
    "village_code": "9986",
    "village": "PEARAJA",
    "postal_code": "22563"
  },
  {
    "village_code": "10022",
    "village": "PELITA",
    "postal_code": "22563"
  },
  {
    "village_code": "10439",
    "village": "RIANIATE",
    "postal_code": "22563"
  },
  {
    "village_code": "11294",
    "village": "SIMARPINGGAN",
    "postal_code": "22563"
  },
  {
    "village_code": "11673",
    "village": "SORKAM",
    "postal_code": "22563"
  },
  {
    "village_code": "12083",
    "village": "TARUTUNG BOLAK",
    "postal_code": "22563"
  },
  {
    "village_code": "12138",
    "village": "TELUK ROBAN",
    "postal_code": "22563"
  }
]