[
  {
    "village_code": "6463",
    "village": "ADIANKOTING",
    "postal_code": "22461"
  },
  {
    "village_code": "6917",
    "village": "BANUAJI I",
    "postal_code": "22461"
  },
  {
    "village_code": "6918",
    "village": "BANUAJI II",
    "postal_code": "22461"
  },
  {
    "village_code": "6919",
    "village": "BANUAJI IV",
    "postal_code": "22461"
  },
  {
    "village_code": "7411",
    "village": "DOLOK NAULI",
    "postal_code": "22461"
  },
  {
    "village_code": "9518",
    "village": "PAGARAN LAMBUNG I",
    "postal_code": "22461"
  },
  {
    "village_code": "9519",
    "village": "PAGARAN LAMBUNG II",
    "postal_code": "22461"
  },
  {
    "village_code": "9520",
    "village": "PAGARAN LAMBUNG III",
    "postal_code": "22461"
  },
  {
    "village_code": "9521",
    "village": "PAGARAN LAMBUNG IV",
    "postal_code": "22461"
  },
  {
    "village_code": "9526",
    "village": "PAGARAN PISANG",
    "postal_code": "22461"
  },
  {
    "village_code": "9653",
    "village": "PANSUR BATU",
    "postal_code": "22461"
  },
  {
    "village_code": "9745",
    "village": "PARDOMUAN NAULI",
    "postal_code": "22461"
  },
  {
    "village_code": "10850",
    "village": "SIANTAR NAI POSPOS",
    "postal_code": "22461"
  },
  {
    "village_code": "10870",
    "village": "SIBALANGA",
    "postal_code": "22461"
  }
]