[
  {
    "village_code": "6675",
    "village": "ARITONANG",
    "postal_code": "22476"
  },
  {
    "village_code": "6931",
    "village": "BARIBA NIAEK",
    "postal_code": "22476"
  },
  {
    "village_code": "6994",
    "village": "BATU BINUMBUN",
    "postal_code": "22476"
  },
  {
    "village_code": "7405",
    "village": "DOLOK MARTUMBUR",
    "postal_code": "22476"
  },
  {
    "village_code": "8063",
    "village": "HUTA GINJANG",
    "postal_code": "22476"
  },
  {
    "village_code": "8096",
    "village": "HUTA LONTUNG",
    "postal_code": "22476"
  },
  {
    "village_code": "8098",
    "village": "HUTA NAGODANG",
    "postal_code": "22476"
  },
  {
    "village_code": "9679",
    "village": "PAPANDE",
    "postal_code": "22476"
  },
  {
    "village_code": "10557",
    "village": "SAMPURAN",
    "postal_code": "22476"
  },
  {
    "village_code": "10872",
    "village": "SIBANDANG",
    "postal_code": "22476"
  },
  {
    "village_code": "11161",
    "village": "SILALI TORUAN",
    "postal_code": "22476"
  },
  {
    "village_code": "11166",
    "village": "SILANDO",
    "postal_code": "22476"
  },
  {
    "village_code": "11312",
    "village": "SIMATUPANG",
    "postal_code": "22476"
  },
  {
    "village_code": "11578",
    "village": "SITANGGOR",
    "postal_code": "22476"
  },
  {
    "village_code": "12367",
    "village": "UNTE MUNGKUR",
    "postal_code": "22476"
  }
]