[
  {
    "village_code": "9257",
    "village": "NAHORNOP MARSADA",
    "postal_code": "22465"
  },
  {
    "village_code": "9731",
    "village": "PARDAMEAN NAINGGOLAN",
    "postal_code": "22465"
  },
  {
    "village_code": "9744",
    "village": "PARDOMUAN NAINGGOLAN",
    "postal_code": "22465"
  },
  {
    "village_code": "9827",
    "village": "PARSAORAN NAINGGOLAN",
    "postal_code": "22465"
  },
  {
    "village_code": "9828",
    "village": "PARSAORAN SAMOSIR",
    "postal_code": "22465"
  },
  {
    "village_code": "10602",
    "village": "SARULLA (PASAR SARULLA)",
    "postal_code": "22465"
  },
  {
    "village_code": "10803",
    "village": "SETIA",
    "postal_code": "22465"
  },
  {
    "village_code": "11080",
    "village": "SIGURUNG GURUNG",
    "postal_code": "22465"
  },
  {
    "village_code": "11170",
    "village": "SILANGKITANG",
    "postal_code": "22465"
  },
  {
    "village_code": "11432",
    "village": "SIOPAT BAHAL",
    "postal_code": "22465"
  },
  {
    "village_code": "11601",
    "village": "SITOLU OMPU",
    "postal_code": "22465"
  },
  {
    "village_code": "11768",
    "village": "SUKAMAJU",
    "postal_code": "22465"
  },
  {
    "village_code": "12237",
    "village": "TORDOLOK NAULI",
    "postal_code": "22465"
  }
]