[
  {
    "village_code": "75164",
    "village": "AYATE (AYATEI)",
    "postal_code": "98764"
  },
  {
    "village_code": "75602",
    "village": "DEMAGO (DEEMAGO)",
    "postal_code": "98764"
  },
  {
    "village_code": "75627",
    "village": "DIGIBAGATA",
    "postal_code": "98764"
  },
  {
    "village_code": "75656",
    "village": "DIYAI",
    "postal_code": "98764"
  },
  {
    "village_code": "75890",
    "village": "GAKOKEBO",
    "postal_code": "98727"
  },
  {
    "village_code": "77748",
    "village": "ONAGO",
    "postal_code": "98764"
  },
  {
    "village_code": "77956",
    "village": "PIYAKADIMI (PIYEKEDIMI)",
    "postal_code": "98764"
  },
  {
    "village_code": "78622",
    "village": "TENEDAGI",
    "postal_code": "98764"
  },
  {
    "village_code": "78939",
    "village": "WAGOMANI",
    "postal_code": "98764"
  },
  {
    "village_code": "79203",
    "village": "WIDIMEI (WIDI MEY)",
    "postal_code": "98764"
  },
  {
    "village_code": "79204",
    "village": "WIDUWAKIYA (WIDUWAKIA)",
    "postal_code": "98764"
  },
  {
    "village_code": "79544",
    "village": "YENUDOBA / JINIDOBA",
    "postal_code": "98764"
  }
]