[
  {
    "village_code": "40206",
    "village": "ALAS KANDANG",
    "postal_code": "67283"
  },
  {
    "village_code": "40210",
    "village": "ALAS NYIUR",
    "postal_code": "67283"
  },
  {
    "village_code": "40212",
    "village": "ALAS SUMUR LOR",
    "postal_code": "67283"
  },
  {
    "village_code": "40213",
    "village": "ALAS TENGAH",
    "postal_code": "67283"
  },
  {
    "village_code": "40351",
    "village": "BAGO",
    "postal_code": "67283"
  },
  {
    "village_code": "40927",
    "village": "BESUK AGUNG",
    "postal_code": "67283"
  },
  {
    "village_code": "40928",
    "village": "BESUK KIDUL",
    "postal_code": "67283"
  },
  {
    "village_code": "42275",
    "village": "JAMBANGAN",
    "postal_code": "67283"
  },
  {
    "village_code": "43241",
    "village": "KECIK",
    "postal_code": "67283"
  },
  {
    "village_code": "43767",
    "village": "KLAMPOKAN",
    "postal_code": "67283"
  },
  {
    "village_code": "43888",
    "village": "KRAMPILAN",
    "postal_code": "67283"
  },
  {
    "village_code": "44401",
    "village": "MATEKAN",
    "postal_code": "67283"
  },
  {
    "village_code": "46117",
    "village": "RANDU JALAK",
    "postal_code": "67283"
  },
  {
    "village_code": "46883",
    "village": "SINDET ANYAR",
    "postal_code": "67283"
  },
  {
    "village_code": "46884",
    "village": "SINDET LAMI",
    "postal_code": "67283"
  },
  {
    "village_code": "47350",
    "village": "SUMBERAN",
    "postal_code": "67283"
  },
  {
    "village_code": "47549",
    "village": "SUMUR DALAM",
    "postal_code": "67283"
  }
]