[
  {
    "village_code": "40214",
    "village": "ALAS TENGAH",
    "postal_code": "67291"
  },
  {
    "village_code": "40957",
    "village": "BHINAR",
    "postal_code": "67291"
  },
  {
    "village_code": "42247",
    "village": "JABUNG CANDI",
    "postal_code": "67291"
  },
  {
    "village_code": "42248",
    "village": "JABUNG SISIR",
    "postal_code": "67291"
  },
  {
    "village_code": "42249",
    "village": "JABUNG WETAN",
    "postal_code": "67291"
  },
  {
    "village_code": "42722",
    "village": "KALIKAJAR KULON",
    "postal_code": "67291"
  },
  {
    "village_code": "42723",
    "village": "KALIKAJAR WETAN",
    "postal_code": "67291"
  },
  {
    "village_code": "42946",
    "village": "KARANGANYAR",
    "postal_code": "67291"
  },
  {
    "village_code": "45174",
    "village": "PAITON",
    "postal_code": "67291"
  },
  {
    "village_code": "45327",
    "village": "PANDEAN",
    "postal_code": "67291"
  },
  {
    "village_code": "45502",
    "village": "PATUNJUNGAN",
    "postal_code": "67291"
  },
  {
    "village_code": "45715",
    "village": "PLAMPANG",
    "postal_code": "67291"
  },
  {
    "village_code": "45840",
    "village": "PONDOK KELOR",
    "postal_code": "67291"
  },
  {
    "village_code": "46118",
    "village": "RANDU MERAK",
    "postal_code": "67291"
  },
  {
    "village_code": "46119",
    "village": "RANDU TATAH",
    "postal_code": "67291"
  },
  {
    "village_code": "46720",
    "village": "SIDODADI",
    "postal_code": "67291"
  },
  {
    "village_code": "47109",
    "village": "SUKODADI",
    "postal_code": "67291"
  },
  {
    "village_code": "47354",
    "village": "SUMBERANYAR",
    "postal_code": "67291"
  },
  {
    "village_code": "47410",
    "village": "SUMBEREJO",
    "postal_code": "67291"
  },
  {
    "village_code": "47658",
    "village": "TAMAN",
    "postal_code": "67291"
  }
]