[
  {
    "village_code": "40254",
    "village": "ANDUNG BIRU",
    "postal_code": "67287"
  },
  {
    "village_code": "40255",
    "village": "ANDUNG SARI",
    "postal_code": "67287"
  },
  {
    "village_code": "42317",
    "village": "JANGKANG",
    "postal_code": "67287"
  },
  {
    "village_code": "45518",
    "village": "PEGADANGAN",
    "postal_code": "67287"
  },
  {
    "village_code": "45643",
    "village": "PESAWAHAN",
    "postal_code": "67287"
  },
  {
    "village_code": "46095",
    "village": "RACEK",
    "postal_code": "67287"
  },
  {
    "village_code": "46148",
    "village": "RANUAGUNG",
    "postal_code": "67287"
  },
  {
    "village_code": "46150",
    "village": "RANUGEDANG",
    "postal_code": "67287"
  },
  {
    "village_code": "46212",
    "village": "RENJING (REJING)",
    "postal_code": "67287"
  },
  {
    "village_code": "46465",
    "village": "SEGARAN",
    "postal_code": "67287"
  },
  {
    "village_code": "47985",
    "village": "TEGALWATU",
    "postal_code": "67287"
  },
  {
    "village_code": "48123",
    "village": "TIRIS",
    "postal_code": "67287"
  },
  {
    "village_code": "48158",
    "village": "TLOGOARGO",
    "postal_code": "67287"
  },
  {
    "village_code": "48171",
    "village": "TLOGOSARI",
    "postal_code": "67287"
  },
  {
    "village_code": "48300",
    "village": "TULUPARI",
    "postal_code": "67287"
  },
  {
    "village_code": "48491",
    "village": "WEDUSAN",
    "postal_code": "67287"
  }
]