[
  {
    "village_code": "40644",
    "village": "BANJARSAWAH",
    "postal_code": "67274"
  },
  {
    "village_code": "40992",
    "village": "BLADO KULON",
    "postal_code": "67274"
  },
  {
    "village_code": "41227",
    "village": "BULUJARAN KIDUL",
    "postal_code": "67274"
  },
  {
    "village_code": "41228",
    "village": "BULUJARAN LOR",
    "postal_code": "67274"
  },
  {
    "village_code": "42177",
    "village": "GUNUNG BEKEL",
    "postal_code": "67274"
  },
  {
    "village_code": "44270",
    "village": "MALASAN WETAN",
    "postal_code": "67274"
  },
  {
    "village_code": "45423",
    "village": "PARAS",
    "postal_code": "67274"
  },
  {
    "village_code": "47374",
    "village": "SUMBERBULU",
    "postal_code": "67274"
  },
  {
    "village_code": "47461",
    "village": "SUMBERKLEDUNG",
    "postal_code": "67274"
  },
  {
    "village_code": "47945",
    "village": "TEGAL MOJO",
    "postal_code": "67274"
  },
  {
    "village_code": "47946",
    "village": "TEGAL SIWALAN",
    "postal_code": "67274"
  },
  {
    "village_code": "47947",
    "village": "TEGAL SONO",
    "postal_code": "67274"
  }
]