[
  {
    "village_code": "40800",
    "village": "BAYEMAN",
    "postal_code": "67252"
  },
  {
    "village_code": "41460",
    "village": "CURAH DRINGU",
    "postal_code": "67252"
  },
  {
    "village_code": "41469",
    "village": "CURAH TULIS",
    "postal_code": "67252"
  },
  {
    "village_code": "41703",
    "village": "DUNGUN",
    "postal_code": "67252"
  },
  {
    "village_code": "43766",
    "village": "KLAMPOK",
    "postal_code": "67252"
  },
  {
    "village_code": "45262",
    "village": "PAMATAN",
    "postal_code": "67252"
  },
  {
    "village_code": "47415",
    "village": "SUMBEREJO",
    "postal_code": "67252"
  },
  {
    "village_code": "47464",
    "village": "SUMBERKRAMAT",
    "postal_code": "67252"
  },
  {
    "village_code": "47533",
    "village": "SUMENDI",
    "postal_code": "67252"
  },
  {
    "village_code": "47742",
    "village": "TAMBAKREJO",
    "postal_code": "67252"
  },
  {
    "village_code": "47868",
    "village": "TANJUNGREJO",
    "postal_code": "67252"
  },
  {
    "village_code": "48201",
    "village": "TONGAS KULON",
    "postal_code": "67252"
  },
  {
    "village_code": "48202",
    "village": "TONGAS WETAN",
    "postal_code": "67252"
  },
  {
    "village_code": "48673",
    "village": "WRINGINANOM",
    "postal_code": "67252"
  }
]