[
  {
    "village_code": "41480",
    "village": "CURAHTEMU",
    "postal_code": "67293"
  },
  {
    "village_code": "43385",
    "village": "KEDUNGREJOSO",
    "postal_code": "67293"
  },
  {
    "village_code": "43855",
    "village": "KOTA ANYAR",
    "postal_code": "67293"
  },
  {
    "village_code": "45444",
    "village": "PASEMBON",
    "postal_code": "67293"
  },
  {
    "village_code": "46312",
    "village": "SAMBIRAMPAK KIDUL",
    "postal_code": "67293"
  },
  {
    "village_code": "46313",
    "village": "SAMBIRAMPAK LOR",
    "postal_code": "67293"
  },
  {
    "village_code": "46785",
    "village": "SIDOMULYO",
    "postal_code": "67293"
  },
  {
    "village_code": "46823",
    "village": "SIDOREJO",
    "postal_code": "67293"
  },
  {
    "village_code": "47182",
    "village": "SUKOREJO",
    "postal_code": "67293"
  },
  {
    "village_code": "47378",
    "village": "SUMBERCENTANG (SUMBERCENTENG)",
    "postal_code": "67293"
  },
  {
    "village_code": "47636",
    "village": "TALKADANG",
    "postal_code": "67293"
  },
  {
    "village_code": "47751",
    "village": "TAMBAKUKIR",
    "postal_code": "67293"
  },
  {
    "village_code": "48247",
    "village": "TRIWUNGAN",
    "postal_code": "67293"
  }
]