[
  {
    "village_code": "41547",
    "village": "DAWUAN",
    "postal_code": "67284"
  },
  {
    "village_code": "41874",
    "village": "GEBANGAN",
    "postal_code": "67284"
  },
  {
    "village_code": "42437",
    "village": "JATIURIP",
    "postal_code": "67284"
  },
  {
    "village_code": "42792",
    "village": "KAMALKUNING",
    "postal_code": "67284"
  },
  {
    "village_code": "43039",
    "village": "KARANGREN",
    "postal_code": "67284"
  },
  {
    "village_code": "43319",
    "village": "KEDUNGCALUK",
    "postal_code": "67284"
  },
  {
    "village_code": "43920",
    "village": "KREJENGAN",
    "postal_code": "67284"
  },
  {
    "village_code": "45072",
    "village": "OPO OPO",
    "postal_code": "67284"
  },
  {
    "village_code": "45474",
    "village": "PATEMON",
    "postal_code": "67284"
  },
  {
    "village_code": "46159",
    "village": "RAWAN",
    "postal_code": "67284"
  },
  {
    "village_code": "46443",
    "village": "SEBORO",
    "postal_code": "67284"
  },
  {
    "village_code": "46658",
    "village": "SENTONG",
    "postal_code": "67284"
  },
  {
    "village_code": "46965",
    "village": "SOKAAN",
    "postal_code": "67284"
  },
  {
    "village_code": "47453",
    "village": "SUMBERKATIMOHO",
    "postal_code": "67284"
  },
  {
    "village_code": "47872",
    "village": "TANJUNGSARI",
    "postal_code": "67284"
  },
  {
    "village_code": "48028",
    "village": "TEMENGGUNGAN",
    "postal_code": "67284"
  },
  {
    "village_code": "48502",
    "village": "WIDORO",
    "postal_code": "67284"
  }
]