[
  {
    "village_code": "637",
    "village": "BERANDANG",
    "postal_code": "24671"
  },
  {
    "village_code": "1025",
    "village": "BUAH PALA",
    "postal_code": "24671"
  },
  {
    "village_code": "2538",
    "village": "KISAM",
    "postal_code": "24671"
  },
  {
    "village_code": "2535",
    "village": "KISAM KUTE PASIR",
    "postal_code": "24671"
  },
  {
    "village_code": "2536",
    "village": "KISAM KUTE RAMBE",
    "postal_code": "24671"
  },
  {
    "village_code": "2537",
    "village": "KISAM LESTARI",
    "postal_code": "24671"
  },
  {
    "village_code": "2809",
    "village": "KUTE BUNIN",
    "postal_code": "24671"
  },
  {
    "village_code": "2816",
    "village": "KUTE LESUNG",
    "postal_code": "24671"
  },
  {
    "village_code": "3217",
    "village": "LAWE POLAK",
    "postal_code": "24671"
  },
  {
    "village_code": "3238",
    "village": "LAWE SUMUR",
    "postal_code": "24671"
  },
  {
    "village_code": "3235",
    "village": "LAWE SUMUR BARU",
    "postal_code": "24671"
  },
  {
    "village_code": "3236",
    "village": "LAWE SUMUR SEPAKAT",
    "postal_code": "24671"
  },
  {
    "village_code": "4719",
    "village": "PENOSAN",
    "postal_code": "24671"
  },
  {
    "village_code": "5376",
    "village": "SETIA BARU",
    "postal_code": "24671"
  },
  {
    "village_code": "5950",
    "village": "TEGER MIKO",
    "postal_code": "24671"
  },
  {
    "village_code": "5982",
    "village": "TENGKU MBELIN",
    "postal_code": "24671"
  },
  {
    "village_code": "5994",
    "village": "TERUTUNG MEGAKHE BAKHU",
    "postal_code": "24671"
  },
  {
    "village_code": "5996",
    "village": "TERUTUNG MEGARA LAWE PASARAN",
    "postal_code": "24671"
  }
]