[
  {
    "village_code": "35",
    "village": "ALAS MEMANCAR",
    "postal_code": "24651"
  },
  {
    "village_code": "598",
    "village": "BATU MBULAN ASLI",
    "postal_code": "24651"
  },
  {
    "village_code": "599",
    "village": "BATU MBULAN I",
    "postal_code": "24651"
  },
  {
    "village_code": "600",
    "village": "BATU MBULAN II",
    "postal_code": "24651"
  },
  {
    "village_code": "601",
    "village": "BATU MBULAN SEPAKAT",
    "postal_code": "24651"
  },
  {
    "village_code": "610",
    "village": "BATUM BLN BARU",
    "postal_code": "24651"
  },
  {
    "village_code": "1962",
    "village": "GUMPANG JAYA",
    "postal_code": "24671"
  },
  {
    "village_code": "2277",
    "village": "KAMPUNG MELAYU GABUNGAN",
    "postal_code": "24651"
  },
  {
    "village_code": "2282",
    "village": "KAMPUNG RAJA",
    "postal_code": "24651"
  },
  {
    "village_code": "2561",
    "village": "KOTA KUTACANE",
    "postal_code": "24651"
  },
  {
    "village_code": "2803",
    "village": "KUTACANE LAMA",
    "postal_code": "24651"
  },
  {
    "village_code": "2827",
    "village": "KUTE RIH",
    "postal_code": "24651"
  },
  {
    "village_code": "3700",
    "village": "MBARUNG",
    "postal_code": "24651"
  },
  {
    "village_code": "3701",
    "village": "MBURUNG DATUK SEKHUDANE",
    "postal_code": "24651"
  },
  {
    "village_code": "3727",
    "village": "MELAYU I",
    "postal_code": "24651"
  },
  {
    "village_code": "3733",
    "village": "MENDABE",
    "postal_code": "24651"
  },
  {
    "village_code": "4121",
    "village": "MUARA LAWE BULAN",
    "postal_code": "24651"
  },
  {
    "village_code": "4731",
    "village": "PERAPAT HILIR",
    "postal_code": "24651"
  },
  {
    "village_code": "4732",
    "village": "PERAPAT HULU",
    "postal_code": "24651"
  },
  {
    "village_code": "4733",
    "village": "PERAPAT SEPAKAT",
    "postal_code": "24651"
  },
  {
    "village_code": "4734",
    "village": "PERAPAT TITI PANJANG",
    "postal_code": "24651"
  },
  {
    "village_code": "4936",
    "village": "PULO LATONG",
    "postal_code": "24651"
  },
  {
    "village_code": "4956",
    "village": "PULO PEDING",
    "postal_code": "24651"
  },
  {
    "village_code": "4972",
    "village": "PULO SANGGAKH",
    "postal_code": "24651"
  },
  {
    "village_code": "5005",
    "village": "PULONAS",
    "postal_code": "24651"
  },
  {
    "village_code": "6000",
    "village": "TERUTUNG PEDI",
    "postal_code": "24651"
  },
  {
    "village_code": "6270",
    "village": "UJUNG BARAT",
    "postal_code": "24651"
  }
]