[
  {
    "village_code": "2262",
    "village": "KAMPUNG BARU",
    "postal_code": "24678"
  },
  {
    "village_code": "2349",
    "village": "KEBUN SERE",
    "postal_code": "24678"
  },
  {
    "village_code": "3178",
    "village": "LAWE BERINGIN GAYO",
    "postal_code": "24678"
  },
  {
    "village_code": "3179",
    "village": "LAWE BERINGIN HORAS",
    "postal_code": "24678"
  },
  {
    "village_code": "3192",
    "village": "LAWE KINGA GABUNGAN",
    "postal_code": "24678"
  },
  {
    "village_code": "3193",
    "village": "LAWE KINGA LAPTER",
    "postal_code": "24678"
  },
  {
    "village_code": "3194",
    "village": "LAWE KINGA TEBING TINGGI",
    "postal_code": "24678"
  },
  {
    "village_code": "3209",
    "village": "LAWE MENJILAI",
    "postal_code": "24678"
  },
  {
    "village_code": "3215",
    "village": "LAWE PETANDUK",
    "postal_code": "24678"
  },
  {
    "village_code": "3214",
    "village": "LAWE PETANDUK I",
    "postal_code": "24678"
  },
  {
    "village_code": "4207",
    "village": "NGKERAN ALUR BULUH",
    "postal_code": "24678"
  },
  {
    "village_code": "4487",
    "village": "PASAR PUNTUNG+P2723",
    "postal_code": "24678"
  },
  {
    "village_code": "5334",
    "village": "SELAMAT INDAH",
    "postal_code": "24678"
  },
  {
    "village_code": "5340",
    "village": "SEMADAM ASAL",
    "postal_code": "24678"
  },
  {
    "village_code": "5341",
    "village": "SEMADAM AWAL",
    "postal_code": "24678"
  },
  {
    "village_code": "5355",
    "village": "SEPAKAT SEGENEP",
    "postal_code": "24678"
  },
  {
    "village_code": "5617",
    "village": "SIMPANG SEMADAM",
    "postal_code": "24678"
  },
  {
    "village_code": "5732",
    "village": "SUKA MAKMUR",
    "postal_code": "24678"
  },
  {
    "village_code": "6108",
    "village": "TITI PASIR",
    "postal_code": "24678"
  }
]