[
  {
    "village_code": "66011",
    "village": "AJALLASSE",
    "postal_code": "92754"
  },
  {
    "village_code": "66082",
    "village": "AWANG CENGRANA  /  CENRANA",
    "postal_code": "92754"
  },
  {
    "village_code": "66762",
    "village": "CENRANA",
    "postal_code": "92754"
  },
  {
    "village_code": "67135",
    "village": "LABONGE (LEBBONGNGE)",
    "postal_code": "92754"
  },
  {
    "village_code": "67136",
    "village": "LABOTTO",
    "postal_code": "92754"
  },
  {
    "village_code": "67233",
    "village": "LAONI",
    "postal_code": "92754"
  },
  {
    "village_code": "67264",
    "village": "LATONRO",
    "postal_code": "92754"
  },
  {
    "village_code": "67750",
    "village": "NAGA ULENG",
    "postal_code": "92754"
  },
  {
    "village_code": "67803",
    "village": "PACUBBE",
    "postal_code": "92754"
  },
  {
    "village_code": "67881",
    "village": "PALLAE",
    "postal_code": "92754"
  },
  {
    "village_code": "67896",
    "village": "PALLIME",
    "postal_code": "92754"
  },
  {
    "village_code": "67950",
    "village": "PANYIWI",
    "postal_code": "92754"
  },
  {
    "village_code": "68188",
    "village": "PUSUNGNGE",
    "postal_code": "92754"
  },
  {
    "village_code": "68922",
    "village": "UJUNG TANAH",
    "postal_code": "92754"
  },
  {
    "village_code": "68992",
    "village": "WATANG TA",
    "postal_code": "92754"
  },
  {
    "village_code": "68998",
    "village": "WATU",
    "postal_code": "92754"
  }
]