[
  {
    "village_code": "66012",
    "village": "AJANG LALENG",
    "postal_code": "92755"
  },
  {
    "village_code": "66038",
    "village": "AMALI RIATTANG",
    "postal_code": "92755"
  },
  {
    "village_code": "66323",
    "village": "BENTENG TELLUE",
    "postal_code": "92755"
  },
  {
    "village_code": "66356",
    "village": "BILA",
    "postal_code": "92755"
  },
  {
    "village_code": "67241",
    "village": "LAPONRONG",
    "postal_code": "92755"
  },
  {
    "village_code": "67358",
    "village": "LILI RIATTANG",
    "postal_code": "92755"
  },
  {
    "village_code": "67504",
    "village": "MAMPOTU",
    "postal_code": "92755"
  },
  {
    "village_code": "67656",
    "village": "MATTARO PURAE",
    "postal_code": "92755"
  },
  {
    "village_code": "68552",
    "village": "TACIPONG",
    "postal_code": "92755"
  },
  {
    "village_code": "68705",
    "village": "TASSIPI",
    "postal_code": "92755"
  },
  {
    "village_code": "68798",
    "village": "TOCINNONG",
    "postal_code": "92755"
  },
  {
    "village_code": "68932",
    "village": "ULAWENG RIAJA",
    "postal_code": "92755"
  },
  {
    "village_code": "68958",
    "village": "WAEMPUBBUE",
    "postal_code": "92755"
  },
  {
    "village_code": "68959",
    "village": "WAEMPUTTANGE",
    "postal_code": "92755"
  },
  {
    "village_code": "69006",
    "village": "WELLULANG",
    "postal_code": "92755"
  }
]