[
  {
    "village_code": "66032",
    "village": "ALLAMUNGENG PATUE",
    "postal_code": "92755"
  },
  {
    "village_code": "66041",
    "village": "AMESSANGENG",
    "postal_code": "92755"
  },
  {
    "village_code": "67133",
    "village": "LABISSA",
    "postal_code": "92755"
  },
  {
    "village_code": "67291",
    "village": "LEBBAE",
    "postal_code": "92755"
  },
  {
    "village_code": "67335",
    "village": "LEPPANGENG",
    "postal_code": "92755"
  },
  {
    "village_code": "67510",
    "village": "MANCIRI",
    "postal_code": "92755"
  },
  {
    "village_code": "67774",
    "village": "OPO",
    "postal_code": "92755"
  },
  {
    "village_code": "67799",
    "village": "PACCIRO",
    "postal_code": "92755"
  },
  {
    "village_code": "68106",
    "village": "PINCENG PUTE",
    "postal_code": "92755"
  },
  {
    "village_code": "68140",
    "village": "POMPANUA",
    "postal_code": "92755"
  },
  {
    "village_code": "68139",
    "village": "POMPANUA RIATTANG (SALEWANGENG)",
    "postal_code": "92755"
  },
  {
    "village_code": "68720",
    "village": "TELLE",
    "postal_code": "92755"
  },
  {
    "village_code": "68769",
    "village": "TIMURUNG",
    "postal_code": "92755"
  },
  {
    "village_code": "69003",
    "village": "WELADO",
    "postal_code": "92755"
  }
]