[
  {
    "village_code": "66056",
    "village": "APALA",
    "postal_code": "92771"
  },
  {
    "village_code": "66091",
    "village": "BACU",
    "postal_code": "92771"
  },
  {
    "village_code": "66203",
    "village": "BAREBBO",
    "postal_code": "92771"
  },
  {
    "village_code": "66749",
    "village": "CEMPANIGA",
    "postal_code": "92771"
  },
  {
    "village_code": "66776",
    "village": "CINGKANG",
    "postal_code": "92771"
  },
  {
    "village_code": "66778",
    "village": "CINNONG",
    "postal_code": "92771"
  },
  {
    "village_code": "66786",
    "village": "CONGKO",
    "postal_code": "92771"
  },
  {
    "village_code": "66792",
    "village": "CORAWALIE",
    "postal_code": "92771"
  },
  {
    "village_code": "66942",
    "village": "KADING",
    "postal_code": "90225"
  },
  {
    "village_code": "66954",
    "village": "KAJAOLALIDDONG",
    "postal_code": "92771"
  },
  {
    "village_code": "67022",
    "village": "KAMPUNO",
    "postal_code": "92771"
  },
  {
    "village_code": "67207",
    "village": "LAMPOKO",
    "postal_code": "92771"
  },
  {
    "village_code": "67991",
    "village": "PARIPPUNG",
    "postal_code": "92771"
  },
  {
    "village_code": "68342",
    "village": "SAMAELO",
    "postal_code": "92771"
  },
  {
    "village_code": "68503",
    "village": "SUGIALE",
    "postal_code": "92771"
  },
  {
    "village_code": "68592",
    "village": "TALUNGENG",
    "postal_code": "92771"
  },
  {
    "village_code": "68997",
    "village": "WATU",
    "postal_code": "92771"
  },
  {
    "village_code": "69014",
    "village": "WOLLANGI",
    "postal_code": "92771"
  }
]