[
  {
    "village_code": "66062",
    "village": "ARALLAE",
    "postal_code": "92767"
  },
  {
    "village_code": "66141",
    "village": "BALLE",
    "postal_code": "92767"
  },
  {
    "village_code": "66380",
    "village": "BIRU",
    "postal_code": "92714"
  },
  {
    "village_code": "66475",
    "village": "BONTO PADANG",
    "postal_code": "92767"
  },
  {
    "village_code": "66728",
    "village": "CAKKELA",
    "postal_code": "92767"
  },
  {
    "village_code": "66733",
    "village": "CAMMILO",
    "postal_code": "92767"
  },
  {
    "village_code": "66743",
    "village": "CARIMA",
    "postal_code": "92767"
  },
  {
    "village_code": "66763",
    "village": "CENRANA",
    "postal_code": "92754"
  },
  {
    "village_code": "66893",
    "village": "HULO",
    "postal_code": "92767"
  },
  {
    "village_code": "67138",
    "village": "LABUAJA",
    "postal_code": "92767"
  },
  {
    "village_code": "67179",
    "village": "LALEPO",
    "postal_code": "92767"
  },
  {
    "village_code": "67445",
    "village": "MAGGENRANG (MANGGENRANG)",
    "postal_code": "92767"
  },
  {
    "village_code": "67640",
    "village": "MATAJANG",
    "postal_code": "92767"
  },
  {
    "village_code": "67693",
    "village": "MATTOANGING",
    "postal_code": "92767"
  },
  {
    "village_code": "67765",
    "village": "NUSA",
    "postal_code": "92767"
  },
  {
    "village_code": "67864",
    "village": "PALAKKA",
    "postal_code": "92761"
  },
  {
    "village_code": "67874",
    "village": "PALATTAE",
    "postal_code": "92767"
  },
  {
    "village_code": "67997",
    "village": "PASAKA",
    "postal_code": "92767"
  },
  {
    "village_code": "68375",
    "village": "SANREGO",
    "postal_code": "92767"
  },
  {
    "village_code": "68836",
    "village": "TOMPONG PATU",
    "postal_code": "92767"
  }
]