[
  {
    "village_code": "66096",
    "village": "BAINANG",
    "postal_code": "92761"
  },
  {
    "village_code": "66775",
    "village": "CINENNUNG",
    "postal_code": "92761"
  },
  {
    "village_code": "67318",
    "village": "LEMOAPE",
    "postal_code": "92761"
  },
  {
    "village_code": "67442",
    "village": "MADURI",
    "postal_code": "92761"
  },
  {
    "village_code": "67652",
    "village": "MATTANETE BUA",
    "postal_code": "92761"
  },
  {
    "village_code": "67714",
    "village": "MELLE",
    "postal_code": "92761"
  },
  {
    "village_code": "67718",
    "village": "MICO",
    "postal_code": "92761"
  },
  {
    "village_code": "67949",
    "village": "PANYILI",
    "postal_code": "92761"
  },
  {
    "village_code": "68006",
    "village": "PASEMPE",
    "postal_code": "92761"
  },
  {
    "village_code": "68012",
    "village": "PASSIPPO",
    "postal_code": "92761"
  },
  {
    "village_code": "68445",
    "village": "SIAME",
    "postal_code": "92761"
  },
  {
    "village_code": "68640",
    "village": "TANAH TENGA",
    "postal_code": "92761"
  },
  {
    "village_code": "68785",
    "village": "TIRONG",
    "postal_code": "92761"
  },
  {
    "village_code": "68952",
    "village": "URENG",
    "postal_code": "92761"
  },
  {
    "village_code": "68953",
    "village": "USA",
    "postal_code": "92761"
  }
]