[
  {
    "village_code": "13630",
    "village": "BANDAR PADANG",
    "postal_code": "29371"
  },
  {
    "village_code": "13720",
    "village": "BELIGAN",
    "postal_code": "29371"
  },
  {
    "village_code": "13792",
    "village": "BUKIT MERANTI",
    "postal_code": "29371"
  },
  {
    "village_code": "13809",
    "village": "BULUH RAMPAI",
    "postal_code": "29371"
  },
  {
    "village_code": "14017",
    "village": "KELESA",
    "postal_code": "29371"
  },
  {
    "village_code": "14391",
    "village": "PANGKALAN KASAI",
    "postal_code": "29371"
  },
  {
    "village_code": "14465",
    "village": "PAYARUMBAI",
    "postal_code": "29371"
  },
  {
    "village_code": "14542",
    "village": "PETALA BUMI",
    "postal_code": "29371"
  },
  {
    "village_code": "14850",
    "village": "SERASAM",
    "postal_code": "29371"
  },
  {
    "village_code": "14877",
    "village": "SIBABAT",
    "postal_code": "29371"
  },
  {
    "village_code": "15350",
    "village": "TITIAN RESAK",
    "postal_code": "29371"
  }
]