[
  {
    "village_code": "13658",
    "village": "BANJAR BALAM",
    "postal_code": "29353"
  },
  {
    "village_code": "13897",
    "village": "GUDANG BATU",
    "postal_code": "29353"
  },
  {
    "village_code": "13943",
    "village": "JAPURA",
    "postal_code": "29353"
  },
  {
    "village_code": "14173",
    "village": "LAMBANG SARI I / II / III",
    "postal_code": "29353"
  },
  {
    "village_code": "14174",
    "village": "LAMBANG SARI IV",
    "postal_code": "29353"
  },
  {
    "village_code": "14175",
    "village": "LAMBANG SARI V",
    "postal_code": "29353"
  },
  {
    "village_code": "14203",
    "village": "LIRIK AREA",
    "postal_code": "29353"
  },
  {
    "village_code": "14275",
    "village": "MEKAR SARI",
    "postal_code": "29353"
  },
  {
    "village_code": "14454",
    "village": "PASIR RINGGIT",
    "postal_code": "29353"
  },
  {
    "village_code": "14456",
    "village": "PASIR SIALANG JAYA",
    "postal_code": "29353"
  },
  {
    "village_code": "14692",
    "village": "REDANG SEKO",
    "postal_code": "29353"
  },
  {
    "village_code": "14694",
    "village": "REJOSARI",
    "postal_code": "29353"
  },
  {
    "village_code": "14815",
    "village": "SEKO LUBUK TIGO",
    "postal_code": "29353"
  },
  {
    "village_code": "14886",
    "village": "SIDOMULYO",
    "postal_code": "29353"
  },
  {
    "village_code": "14970",
    "village": "SUKAJADI",
    "postal_code": "29353"
  },
  {
    "village_code": "15074",
    "village": "SUNGAI SAGU",
    "postal_code": "29353"
  },
  {
    "village_code": "15374",
    "village": "WONOSARI",
    "postal_code": "29353"
  }
]