[
  {
    "village_code": "13707",
    "village": "BATU SAWAR",
    "postal_code": "29352"
  },
  {
    "village_code": "13780",
    "village": "BUKIT INDAH",
    "postal_code": "29352"
  },
  {
    "village_code": "13971",
    "village": "KAMPUNG BUNGO",
    "postal_code": "29352"
  },
  {
    "village_code": "14013",
    "village": "KELAYANG",
    "postal_code": "29352"
  },
  {
    "village_code": "14073",
    "village": "KOTA BARU",
    "postal_code": "29352"
  },
  {
    "village_code": "14140",
    "village": "KUANTAN TENANG",
    "postal_code": "29352"
  },
  {
    "village_code": "14239",
    "village": "LUBUK SITARAK",
    "postal_code": "29352"
  },
  {
    "village_code": "14551",
    "village": "PETONGGAN",
    "postal_code": "29352"
  },
  {
    "village_code": "14707",
    "village": "RIMBA SEMINAI",
    "postal_code": "29352"
  },
  {
    "village_code": "15111",
    "village": "TALANG DURIAN CACAR",
    "postal_code": "29352"
  },
  {
    "village_code": "15112",
    "village": "TALANG GEDABU",
    "postal_code": "29352"
  },
  {
    "village_code": "15118",
    "village": "TALANG PARIGI",
    "postal_code": "29352"
  },
  {
    "village_code": "15119",
    "village": "TALANG PRING JAYA",
    "postal_code": "29352"
  },
  {
    "village_code": "15120",
    "village": "TALANG SEI / SUNGAI ELOK",
    "postal_code": "29352"
  },
  {
    "village_code": "15121",
    "village": "TALANG SEI / SUNGAI LIMAU",
    "postal_code": "29352"
  },
  {
    "village_code": "15122",
    "village": "TALANG SEI / SUNGAI MAJU",
    "postal_code": "29352"
  },
  {
    "village_code": "15123",
    "village": "TALANG SEI / SUNGAI PARIT",
    "postal_code": "29352"
  },
  {
    "village_code": "15124",
    "village": "TALANG SELANTAI",
    "postal_code": "29352"
  },
  {
    "village_code": "15125",
    "village": "TALANG TUJUH BUAH TANGGA",
    "postal_code": "29352"
  }
]