[
  {
    "village_code": "40443",
    "village": "BALONGWONO",
    "postal_code": "61362"
  },
  {
    "village_code": "40839",
    "village": "BEJIJONG",
    "postal_code": "61362"
  },
  {
    "village_code": "40850",
    "village": "BELOH",
    "postal_code": "61362"
  },
  {
    "village_code": "40961",
    "village": "BICAK",
    "postal_code": "61362"
  },
  {
    "village_code": "41636",
    "village": "DOMAS",
    "postal_code": "61362"
  },
  {
    "village_code": "42307",
    "village": "JAMBUWOK",
    "postal_code": "61362"
  },
  {
    "village_code": "42399",
    "village": "JATIPASAR",
    "postal_code": "61362"
  },
  {
    "village_code": "43419",
    "village": "KEJAGAN",
    "postal_code": "61362"
  },
  {
    "village_code": "45215",
    "village": "PAKIS",
    "postal_code": "61362"
  },
  {
    "village_code": "45354",
    "village": "PANGGIH",
    "postal_code": "61362"
  },
  {
    "village_code": "46659",
    "village": "SENTONOREJO",
    "postal_code": "61362"
  },
  {
    "village_code": "47924",
    "village": "TAWANGSARI",
    "postal_code": "61362"
  },
  {
    "village_code": "48033",
    "village": "TEMON",
    "postal_code": "61362"
  },
  {
    "village_code": "48257",
    "village": "TROWULAN",
    "postal_code": "61362"
  },
  {
    "village_code": "48447",
    "village": "WATESUMPAK",
    "postal_code": "61362"
  },
  {
    "village_code": "48623",
    "village": "WONOREJO",
    "postal_code": "61362"
  }
]