[
  {
    "village_code": "40496",
    "village": "BANDARASRI",
    "postal_code": "61385"
  },
  {
    "village_code": "41339",
    "village": "CANDIHARJO",
    "postal_code": "61385"
  },
  {
    "village_code": "42349",
    "village": "JASEM",
    "postal_code": "61385"
  },
  {
    "village_code": "43468",
    "village": "KEMBANGSRI",
    "postal_code": "61385"
  },
  {
    "village_code": "43663",
    "village": "KESEMEN",
    "postal_code": "61385"
  },
  {
    "village_code": "43978",
    "village": "KUNJOROWESI",
    "postal_code": "61385"
  },
  {
    "village_code": "43995",
    "village": "KUTOGIRANG",
    "postal_code": "61385"
  },
  {
    "village_code": "44191",
    "village": "LOLAWANG",
    "postal_code": "61385"
  },
  {
    "village_code": "44292",
    "village": "MANDURO MANGGUNG GAJAH",
    "postal_code": "61385"
  },
  {
    "village_code": "44949",
    "village": "NGORO",
    "postal_code": "61385"
  },
  {
    "village_code": "46042",
    "village": "PURWOJATI",
    "postal_code": "61385"
  },
  {
    "village_code": "46453",
    "village": "SEDATI",
    "postal_code": "61385"
  },
  {
    "village_code": "47031",
    "village": "SRIGADING",
    "postal_code": "61385"
  },
  {
    "village_code": "47102",
    "village": "SUKOANYAR",
    "postal_code": "61385"
  },
  {
    "village_code": "47735",
    "village": "TAMBAKREJO",
    "postal_code": "61385"
  },
  {
    "village_code": "47826",
    "village": "TANJANGRONO",
    "postal_code": "61385"
  },
  {
    "village_code": "48444",
    "village": "WATESNEGORO",
    "postal_code": "61385"
  },
  {
    "village_code": "48631",
    "village": "WONOSARI",
    "postal_code": "61385"
  },
  {
    "village_code": "48657",
    "village": "WOTANMASJEDONG",
    "postal_code": "61385"
  }
]