[
  {
    "village_code": "13853",
    "village": "DOMO",
    "postal_code": "28471"
  },
  {
    "village_code": "13937",
    "village": "IV KOTO SETINGKAI",
    "postal_code": "28471"
  },
  {
    "village_code": "14153",
    "village": "KUNTU",
    "postal_code": "28471"
  },
  {
    "village_code": "14152",
    "village": "KUNTU DARUSSALAM",
    "postal_code": "28471"
  },
  {
    "village_code": "14202",
    "village": "LIPAT KAIN",
    "postal_code": "28471"
  },
  {
    "village_code": "14200",
    "village": "LIPAT KAIN SELATAN",
    "postal_code": "28471"
  },
  {
    "village_code": "14201",
    "village": "LIPAT KAIN UTARA",
    "postal_code": "28471"
  },
  {
    "village_code": "14325",
    "village": "MUARA SELAYA",
    "postal_code": "28471"
  },
  {
    "village_code": "14360",
    "village": "PADANG SAWAH",
    "postal_code": "28471"
  },
  {
    "village_code": "15023",
    "village": "SUNGAI GERINGGING",
    "postal_code": "28471"
  },
  {
    "village_code": "15026",
    "village": "SUNGAI HARAPAN",
    "postal_code": "28471"
  },
  {
    "village_code": "15044",
    "village": "SUNGAI LITI",
    "postal_code": "28471"
  },
  {
    "village_code": "15058",
    "village": "SUNGAI PAKU",
    "postal_code": "28471"
  },
  {
    "village_code": "15066",
    "village": "SUNGAI RAJA",
    "postal_code": "28471"
  },
  {
    "village_code": "15067",
    "village": "SUNGAI RAMBAI",
    "postal_code": "28471"
  },
  {
    "village_code": "15077",
    "village": "SUNGAI SARIK",
    "postal_code": "28471"
  },
  {
    "village_code": "15183",
    "village": "TANJUNG HARAPAN",
    "postal_code": "28471"
  },
  {
    "village_code": "15194",
    "village": "TANJUNG MAS",
    "postal_code": "28471"
  },
  {
    "village_code": "15295",
    "village": "TELUK PAMAN",
    "postal_code": "28471"
  },
  {
    "village_code": "15294",
    "village": "TELUK PAMAN TIMUR",
    "postal_code": "28471"
  }
]