[
  {
    "village_code": "64176",
    "village": "BAMBARIMI",
    "postal_code": "94351"
  },
  {
    "village_code": "64739",
    "village": "LALOMBI",
    "postal_code": "94351"
  },
  {
    "village_code": "64808",
    "village": "LEMBASADA",
    "postal_code": "94351"
  },
  {
    "village_code": "64903",
    "village": "LUMBU TAROMBO",
    "postal_code": "94351"
  },
  {
    "village_code": "64905",
    "village": "LUMBULAMA",
    "postal_code": "94351"
  },
  {
    "village_code": "64906",
    "village": "LUMBUMAMARA",
    "postal_code": "94351"
  },
  {
    "village_code": "64944",
    "village": "MALINO",
    "postal_code": "94351"
  },
  {
    "village_code": "65029",
    "village": "MBUWU",
    "postal_code": "94351"
  },
  {
    "village_code": "65168",
    "village": "ONGULARA",
    "postal_code": "94351"
  },
  {
    "village_code": "65434",
    "village": "SALUMPAKU",
    "postal_code": "94351"
  },
  {
    "village_code": "65435",
    "village": "SALUNGKAENU",
    "postal_code": "94351"
  },
  {
    "village_code": "65436",
    "village": "SALUSUMPU",
    "postal_code": "94351"
  },
  {
    "village_code": "65464",
    "village": "SAROMBAYA",
    "postal_code": "94351"
  },
  {
    "village_code": "65615",
    "village": "SURUMANA",
    "postal_code": "94351"
  },
  {
    "village_code": "65667",
    "village": "TANAHMEA",
    "postal_code": "94351"
  },
  {
    "village_code": "65671",
    "village": "TANAMPULU",
    "postal_code": "94351"
  },
  {
    "village_code": "65815",
    "village": "TOLONGANO",
    "postal_code": "94351"
  },
  {
    "village_code": "65871",
    "village": "TOSALE",
    "postal_code": "94351"
  },
  {
    "village_code": "65968",
    "village": "WATATU",
    "postal_code": "94351"
  }
]