[
  {
    "village_code": "64333",
    "village": "BUDIMUKTI",
    "postal_code": "94356"
  },
  {
    "village_code": "64341",
    "village": "BUKIT HARAPAN",
    "postal_code": "94356"
  },
  {
    "village_code": "64596",
    "village": "KARYAMUKTI",
    "postal_code": "94356"
  },
  {
    "village_code": "64631",
    "village": "KEMBAYANG (KAMBAYANG)",
    "postal_code": "94356"
  },
  {
    "village_code": "64798",
    "village": "LEMBA MUKTI",
    "postal_code": "94356"
  },
  {
    "village_code": "64951",
    "village": "MALONAS",
    "postal_code": "94356"
  },
  {
    "village_code": "65248",
    "village": "PANII",
    "postal_code": "94356"
  },
  {
    "village_code": "65266",
    "village": "PARISAN AGUNG",
    "postal_code": "94356"
  },
  {
    "village_code": "65336",
    "village": "PONGGERANG",
    "postal_code": "94356"
  },
  {
    "village_code": "65388",
    "village": "RERANG",
    "postal_code": "94356"
  },
  {
    "village_code": "65400",
    "village": "SABANG",
    "postal_code": "94356"
  },
  {
    "village_code": "65565",
    "village": "SIOYONG",
    "postal_code": "94356"
  },
  {
    "village_code": "65636",
    "village": "TALAGA",
    "postal_code": "94356"
  }
]