[
  {
    "village_code": "79887",
    "village": "DIBERA",
    "postal_code": "98359"
  },
  {
    "village_code": "79892",
    "village": "DISIHU (DIHISU)",
    "postal_code": "98359"
  },
  {
    "village_code": "79893",
    "village": "DISRA (DESRA)",
    "postal_code": "98359"
  },
  {
    "village_code": "79902",
    "village": "DUHUGESA",
    "postal_code": "98359"
  },
  {
    "village_code": "80019",
    "village": "HUGAMOD (HUGOMOT)",
    "postal_code": "98359"
  },
  {
    "village_code": "80075",
    "village": "INYUARA",
    "postal_code": "98359"
  },
  {
    "village_code": "80090",
    "village": "ISIM",
    "postal_code": "98359"
  },
  {
    "village_code": "80484",
    "village": "MINDERMES",
    "postal_code": "98359"
  },
  {
    "village_code": "80765",
    "village": "SIBJO",
    "postal_code": "98359"
  },
  {
    "village_code": "80877",
    "village": "TAHOSTA (TOHOSTA)",
    "postal_code": "98359"
  },
  {
    "village_code": "80951",
    "village": "TUBES",
    "postal_code": "98359"
  },
  {
    "village_code": "80983",
    "village": "UMUHOUSI (UMOUSI)",
    "postal_code": "98359"
  }
]