[
  {
    "village_code": "75076",
    "village": "ARSBOL",
    "postal_code": "99553"
  },
  {
    "village_code": "75165",
    "village": "AYEKI",
    "postal_code": "99553"
  },
  {
    "village_code": "75748",
    "village": "EGAIMA (ENGAIMA)",
    "postal_code": "99553"
  },
  {
    "village_code": "75791",
    "village": "ENGGAMA",
    "postal_code": "99553"
  },
  {
    "village_code": "75812",
    "village": "ERAGEAM (ERAGAEM)",
    "postal_code": "99553"
  },
  {
    "village_code": "76675",
    "village": "KINO (KINOU)",
    "postal_code": "99553"
  },
  {
    "village_code": "76835",
    "village": "KUGAP",
    "postal_code": "99553"
  },
  {
    "village_code": "77354",
    "village": "MOGONIK",
    "postal_code": "99553"
  },
  {
    "village_code": "77372",
    "village": "MOLOGI (MOLAGI)",
    "postal_code": "99553"
  },
  {
    "village_code": "77797",
    "village": "PAGALE",
    "postal_code": "99553"
  },
  {
    "village_code": "79054",
    "village": "WANILOK (YELAM)",
    "postal_code": "99553"
  },
  {
    "village_code": "79221",
    "village": "WINAM",
    "postal_code": "99553"
  },
  {
    "village_code": "79226",
    "village": "WINIMA",
    "postal_code": "99553"
  },
  {
    "village_code": "79357",
    "village": "WURIGELEBUR",
    "postal_code": "99553"
  },
  {
    "village_code": "79375",
    "village": "YABENDILI",
    "postal_code": "99553"
  }
]