[
  {
    "village_code": "74917",
    "village": "ALOBAGA",
    "postal_code": "99562"
  },
  {
    "village_code": "75642",
    "village": "DIMBARA",
    "postal_code": "99562"
  },
  {
    "village_code": "75929",
    "village": "GEYA",
    "postal_code": "99562"
  },
  {
    "village_code": "76335",
    "village": "JELEPELE",
    "postal_code": "99562"
  },
  {
    "village_code": "76637",
    "village": "KIBU",
    "postal_code": "99562"
  },
  {
    "village_code": "77531",
    "village": "NAWU",
    "postal_code": "99562"
  },
  {
    "village_code": "78675",
    "village": "TIMORI",
    "postal_code": "99562"
  },
  {
    "village_code": "78679",
    "village": "TINAGOGA",
    "postal_code": "99562"
  },
  {
    "village_code": "79200",
    "village": "WEYAMBI",
    "postal_code": "99562"
  },
  {
    "village_code": "79220",
    "village": "WINALO",
    "postal_code": "99562"
  },
  {
    "village_code": "79242",
    "village": "WITIPUR",
    "postal_code": "99562"
  },
  {
    "village_code": "79347",
    "village": "WUNGGILIPUR",
    "postal_code": "99562"
  }
]