[
  {
    "village_code": "75060",
    "village": "ARIKOBA",
    "postal_code": "99562"
  },
  {
    "village_code": "75083",
    "village": "ARULO",
    "postal_code": "99562"
  },
  {
    "village_code": "75084",
    "village": "ARUMAGI",
    "postal_code": "99562"
  },
  {
    "village_code": "75897",
    "village": "GANAGE",
    "postal_code": "99562"
  },
  {
    "village_code": "75958",
    "village": "GIMO",
    "postal_code": "99562"
  },
  {
    "village_code": "76750",
    "village": "KONDA",
    "postal_code": "99562"
  },
  {
    "village_code": "77157",
    "village": "MANDURA",
    "postal_code": "99562"
  },
  {
    "village_code": "77403",
    "village": "MOWILOME",
    "postal_code": "99562"
  },
  {
    "village_code": "78316",
    "village": "SILABULO",
    "postal_code": "99562"
  },
  {
    "village_code": "78681",
    "village": "TINGAPURA",
    "postal_code": "99562"
  },
  {
    "village_code": "79503",
    "village": "YAWINERI",
    "postal_code": "99562"
  }
]