[
  {
    "village_code": "75272",
    "village": "BAWI",
    "postal_code": "99569"
  },
  {
    "village_code": "75311",
    "village": "BEREMO",
    "postal_code": "99569"
  },
  {
    "village_code": "75417",
    "village": "BOLUBUR",
    "postal_code": "99569"
  },
  {
    "village_code": "75811",
    "village": "ERAGANI",
    "postal_code": "99569"
  },
  {
    "village_code": "75918",
    "village": "GENELUK",
    "postal_code": "99569"
  },
  {
    "village_code": "76719",
    "village": "KOINGGAMBU",
    "postal_code": "99569"
  },
  {
    "village_code": "77009",
    "village": "LIWINA",
    "postal_code": "99569"
  },
  {
    "village_code": "77017",
    "village": "LOGULO",
    "postal_code": "99569"
  },
  {
    "village_code": "77049",
    "village": "LUKI",
    "postal_code": "99569"
  },
  {
    "village_code": "77934",
    "village": "PIRAGE",
    "postal_code": "99569"
  },
  {
    "village_code": "78701",
    "village": "TIONER",
    "postal_code": "99569"
  },
  {
    "village_code": "78708",
    "village": "TIRIB",
    "postal_code": "99569"
  }
]