[
  {
    "village_code": "75391",
    "village": "BIUK",
    "postal_code": "99562"
  },
  {
    "village_code": "75894",
    "village": "GALUBUP",
    "postal_code": "99562"
  },
  {
    "village_code": "76012",
    "village": "GUBURINI",
    "postal_code": "99562"
  },
  {
    "village_code": "77250",
    "village": "MBINIME / JINULIRA",
    "postal_code": "99562"
  },
  {
    "village_code": "78035",
    "village": "PURUGI",
    "postal_code": "99562"
  },
  {
    "village_code": "78732",
    "village": "TOMAGI / GUBAGI",
    "postal_code": "99562"
  },
  {
    "village_code": "78733",
    "village": "TOMAGIPURA",
    "postal_code": "99562"
  },
  {
    "village_code": "79281",
    "village": "WONABU",
    "postal_code": "99562"
  },
  {
    "village_code": "79575",
    "village": "YILUK / KONDENGGUN",
    "postal_code": "99562"
  },
  {
    "village_code": "79585",
    "village": "YIYOGOBAK / KIBUR",
    "postal_code": "99562"
  },
  {
    "village_code": "79638",
    "village": "YUGU MABUR",
    "postal_code": "99562"
  }
]