[
  {
    "village_code": "75900",
    "village": "GATINI",
    "postal_code": "99569"
  },
  {
    "village_code": "76036",
    "village": "GURIN",
    "postal_code": "99569"
  },
  {
    "village_code": "77333",
    "village": "MINO",
    "postal_code": "99569"
  },
  {
    "village_code": "77489",
    "village": "NAMBU",
    "postal_code": "99569"
  },
  {
    "village_code": "77606",
    "village": "NOLOPUR",
    "postal_code": "99569"
  },
  {
    "village_code": "77803",
    "village": "PAGONGGA",
    "postal_code": "99569"
  },
  {
    "village_code": "77946",
    "village": "PIRILUK",
    "postal_code": "99569"
  },
  {
    "village_code": "77987",
    "village": "POPAGA",
    "postal_code": "99569"
  },
  {
    "village_code": "78841",
    "village": "UMAGI",
    "postal_code": "99569"
  },
  {
    "village_code": "79099",
    "village": "WARNA",
    "postal_code": "99569"
  },
  {
    "village_code": "79412",
    "village": "YALEME",
    "postal_code": "99569"
  },
  {
    "village_code": "79415",
    "village": "YALI",
    "postal_code": "99569"
  }
]