[
  {
    "village_code": "75984",
    "village": "GOLENA",
    "postal_code": "99568"
  },
  {
    "village_code": "76017",
    "village": "GULAK",
    "postal_code": "99568"
  },
  {
    "village_code": "76026",
    "village": "GUNALO",
    "postal_code": "99568"
  },
  {
    "village_code": "76780",
    "village": "KORLO",
    "postal_code": "99568"
  },
  {
    "village_code": "76867",
    "village": "KUMBUR",
    "postal_code": "99568"
  },
  {
    "village_code": "76912",
    "village": "KWARINI",
    "postal_code": "99568"
  },
  {
    "village_code": "77613",
    "village": "NOWO",
    "postal_code": "99568"
  },
  {
    "village_code": "78664",
    "village": "TIMER",
    "postal_code": "99568"
  },
  {
    "village_code": "78766",
    "village": "TOWOLOME",
    "postal_code": "99568"
  },
  {
    "village_code": "78985",
    "village": "WAMA",
    "postal_code": "99568"
  },
  {
    "village_code": "79199",
    "village": "WEYAGE",
    "postal_code": "99568"
  },
  {
    "village_code": "79293",
    "village": "WONITU",
    "postal_code": "99568"
  }
]