[
  {
    "village_code": "50363",
    "village": "BONGAN (BOONGAN)",
    "postal_code": "82112"
  },
  {
    "village_code": "50373",
    "village": "BUAHAN",
    "postal_code": "82115"
  },
  {
    "village_code": "50420",
    "village": "DAUH PEKEN",
    "postal_code": "82111"
  },
  {
    "village_code": "50432",
    "village": "DEJAN PEKEN (DAJAN PEKEN)",
    "postal_code": "82114"
  },
  {
    "village_code": "50434",
    "village": "DELOD PEKEN",
    "postal_code": "82113"
  },
  {
    "village_code": "50436",
    "village": "DENBANTAS",
    "postal_code": "82115"
  },
  {
    "village_code": "50459",
    "village": "GUBUG",
    "postal_code": "82115"
  },
  {
    "village_code": "50807",
    "village": "SESANDAN",
    "postal_code": "82115"
  },
  {
    "village_code": "50830",
    "village": "SUBAMIA",
    "postal_code": "82115"
  },
  {
    "village_code": "50834",
    "village": "SUDIMARA",
    "postal_code": "82115"
  },
  {
    "village_code": "50927",
    "village": "TUNJUK",
    "postal_code": "82115"
  },
  {
    "village_code": "50945",
    "village": "WANASARI",
    "postal_code": "82111"
  }
]