[
  {
    "village_code": "64082",
    "village": "AMPERA",
    "postal_code": "94752"
  },
  {
    "village_code": "64096",
    "village": "ASAAN",
    "postal_code": "94752"
  },
  {
    "village_code": "64129",
    "village": "BAJO POAT",
    "postal_code": "94752"
  },
  {
    "village_code": "64142",
    "village": "BALAI GONDI",
    "postal_code": "94752"
  },
  {
    "village_code": "64162",
    "village": "BALOADODA",
    "postal_code": "94752"
  },
  {
    "village_code": "64202",
    "village": "BASABUNGAN",
    "postal_code": "94752"
  },
  {
    "village_code": "64296",
    "village": "BONDAT",
    "postal_code": "94752"
  },
  {
    "village_code": "64358",
    "village": "BULU",
    "postal_code": "94752"
  },
  {
    "village_code": "64371",
    "village": "BUNGAWON",
    "postal_code": "94752"
  },
  {
    "village_code": "64441",
    "village": "DONGKALAN",
    "postal_code": "94752"
  },
  {
    "village_code": "64486",
    "village": "GOMUO",
    "postal_code": "94752"
  },
  {
    "village_code": "64503",
    "village": "HOHUDONGAN",
    "postal_code": "94752"
  },
  {
    "village_code": "64506",
    "village": "HUHAK",
    "postal_code": "94752"
  },
  {
    "village_code": "64517",
    "village": "JAYA BAKTI",
    "postal_code": "94752"
  },
  {
    "village_code": "64750",
    "village": "LAMBANGAN",
    "postal_code": "94752"
  },
  {
    "village_code": "64760",
    "village": "LAMO",
    "postal_code": "94752"
  },
  {
    "village_code": "65100",
    "village": "NAIN",
    "postal_code": "94752"
  },
  {
    "village_code": "65196",
    "village": "PAGIMANA",
    "postal_code": "94752"
  },
  {
    "village_code": "65206",
    "village": "PAKOWA",
    "postal_code": "94752"
  },
  {
    "village_code": "65308",
    "village": "PINAPUAN",
    "postal_code": "94752"
  },
  {
    "village_code": "65315",
    "village": "PISOU",
    "postal_code": "94752"
  },
  {
    "village_code": "65319",
    "village": "POH",
    "postal_code": "94752"
  },
  {
    "village_code": "65438",
    "village": "SAMA JATEM",
    "postal_code": "94752"
  },
  {
    "village_code": "65488",
    "village": "SEPAK",
    "postal_code": "94752"
  },
  {
    "village_code": "65550",
    "village": "SINAMPANGNYO",
    "postal_code": "94752"
  },
  {
    "village_code": "65574",
    "village": "SIUNA",
    "postal_code": "94752"
  },
  {
    "village_code": "65643",
    "village": "TALOYON",
    "postal_code": "94752"
  },
  {
    "village_code": "65661",
    "village": "TAMPE",
    "postal_code": "94752"
  },
  {
    "village_code": "65759",
    "village": "TINTINGAN",
    "postal_code": "94752"
  },
  {
    "village_code": "65796",
    "village": "TOIPAN",
    "postal_code": "94752"
  },
  {
    "village_code": "65820",
    "village": "TOMBANG",
    "postal_code": "94752"
  },
  {
    "village_code": "65852",
    "village": "TONGKONUNUK",
    "postal_code": "94752"
  },
  {
    "village_code": "65945",
    "village": "UWEDAKA",
    "postal_code": "94752"
  }
]