[
  {
    "village_code": "73679",
    "village": "AKE JAWI",
    "postal_code": "97863"
  },
  {
    "village_code": "73773",
    "village": "BINAGARA",
    "postal_code": "97863"
  },
  {
    "village_code": "73809",
    "village": "BUKUTIO",
    "postal_code": "97863"
  },
  {
    "village_code": "73881",
    "village": "EKOR",
    "postal_code": "97863"
  },
  {
    "village_code": "73882",
    "village": "EKORINO",
    "postal_code": "97863"
  },
  {
    "village_code": "73892",
    "village": "FAYAUL",
    "postal_code": "97863"
  },
  {
    "village_code": "74022",
    "village": "INO JAYA",
    "postal_code": "97863"
  },
  {
    "village_code": "74039",
    "village": "JIKO MOI",
    "postal_code": "97863"
  },
  {
    "village_code": "74180",
    "village": "LOLEBA",
    "postal_code": "97863"
  },
  {
    "village_code": "74265",
    "village": "MINAMIN",
    "postal_code": "97863"
  },
  {
    "village_code": "74290",
    "village": "NANAS",
    "postal_code": "97863"
  },
  {
    "village_code": "74314",
    "village": "NUSA AMBU (NUSA AMBO)",
    "postal_code": "97863"
  },
  {
    "village_code": "74316",
    "village": "NUSA JAYA",
    "postal_code": "97863"
  },
  {
    "village_code": "74375",
    "village": "PINTATU",
    "postal_code": "97863"
  },
  {
    "village_code": "74456",
    "village": "SAOLAT",
    "postal_code": "97863"
  },
  {
    "village_code": "74457",
    "village": "SARAMAKE (SARAMAAKE)",
    "postal_code": "97863"
  },
  {
    "village_code": "74515",
    "village": "SONDO-SONDO",
    "postal_code": "97863"
  },
  {
    "village_code": "74548",
    "village": "TABANALOU (TABANOLI)",
    "postal_code": "97863"
  },
  {
    "village_code": "74572",
    "village": "TALAGA JAYA",
    "postal_code": "97863"
  },
  {
    "village_code": "74587",
    "village": "TANURE",
    "postal_code": "97863"
  },
  {
    "village_code": "74675",
    "village": "TOMARES",
    "postal_code": "97863"
  },
  {
    "village_code": "74737",
    "village": "WAIJOI",
    "postal_code": "97863"
  },
  {
    "village_code": "74773",
    "village": "WASILE",
    "postal_code": "97863"
  },
  {
    "village_code": "74808",
    "village": "YAWAL",
    "postal_code": "97863"
  }
]