[
  {
    "village_code": "73719",
    "village": "BABASARAM",
    "postal_code": "97862"
  },
  {
    "village_code": "73741",
    "village": "BANGUL",
    "postal_code": "97862"
  },
  {
    "village_code": "73755",
    "village": "BEBSILI",
    "postal_code": "97862"
  },
  {
    "village_code": "73764",
    "village": "BERINGIN LAMO (BARINGIN)",
    "postal_code": "97862"
  },
  {
    "village_code": "73864",
    "village": "DOROLAMO",
    "postal_code": "97862"
  },
  {
    "village_code": "73913",
    "village": "GAIFOLI",
    "postal_code": "97862"
  },
  {
    "village_code": "74237",
    "village": "MARASIPNO",
    "postal_code": "97862"
  },
  {
    "village_code": "74238",
    "village": "MARATANA (MARATHANA JAYA )",
    "postal_code": "97862"
  },
  {
    "village_code": "74263",
    "village": "MIAF",
    "postal_code": "97862"
  },
  {
    "village_code": "74596",
    "village": "TATANGAPU",
    "postal_code": "97862"
  },
  {
    "village_code": "74783",
    "village": "WAYAMLI (WAYAMLY)",
    "postal_code": "97862"
  },
  {
    "village_code": "74809",
    "village": "YAWANLI",
    "postal_code": "97862"
  }
]