[
  {
    "village_code": "69270",
    "village": "BEA",
    "postal_code": "93661"
  },
  {
    "village_code": "69279",
    "village": "BENTE",
    "postal_code": "93661"
  },
  {
    "village_code": "69474",
    "village": "KAMBAWUNA",
    "postal_code": "93661"
  },
  {
    "village_code": "69515",
    "village": "KASAKA",
    "postal_code": "93661"
  },
  {
    "village_code": "69538",
    "village": "KAWITE WITE",
    "postal_code": "93661"
  },
  {
    "village_code": "69580",
    "village": "KONTUMERE",
    "postal_code": "93661"
  },
  {
    "village_code": "69671",
    "village": "LAIMPI",
    "postal_code": "93661"
  },
  {
    "village_code": "69744",
    "village": "LAMAEO",
    "postal_code": "93661"
  },
  {
    "village_code": "70490",
    "village": "RANGKA",
    "postal_code": "93661"
  },
  {
    "village_code": "70686",
    "village": "TANJUNG BATU",
    "postal_code": "93661"
  },
  {
    "village_code": "70981",
    "village": "WANTIWORO",
    "postal_code": "93661"
  }
]