[
  {
    "village_code": "69360",
    "village": "DANAGOA",
    "postal_code": "93662"
  },
  {
    "village_code": "69390",
    "village": "FONGKANIWA",
    "postal_code": "93662"
  },
  {
    "village_code": "69581",
    "village": "KONTUMOLEPE",
    "postal_code": "93662"
  },
  {
    "village_code": "69595",
    "village": "KOTANO WUNA",
    "postal_code": "93662"
  },
  {
    "village_code": "69653",
    "village": "LAGHONTOGHE  /  LAHONTOHE",
    "postal_code": "93662"
  },
  {
    "village_code": "69689",
    "village": "LAKOLOGOU",
    "postal_code": "93662"
  },
  {
    "village_code": "69803",
    "village": "LAMORENDE",
    "postal_code": "93662"
  },
  {
    "village_code": "69865",
    "village": "LAPADINDI",
    "postal_code": "93662"
  },
  {
    "village_code": "70109",
    "village": "MATANO OE",
    "postal_code": "93662"
  },
  {
    "village_code": "70231",
    "village": "OEMPU",
    "postal_code": "93662"
  },
  {
    "village_code": "70691",
    "village": "TANJUNG",
    "postal_code": "93662"
  },
  {
    "village_code": "70806",
    "village": "TOMBULA",
    "postal_code": "93662"
  }
]