[
  {
    "village_code": "6504",
    "village": "AEK KAHOMBU",
    "postal_code": "22774"
  },
  {
    "village_code": "6559",
    "village": "AEK PARUPUK",
    "postal_code": "22774"
  },
  {
    "village_code": "6593",
    "village": "AEK UNCIM",
    "postal_code": "22774"
  },
  {
    "village_code": "7004",
    "village": "BATU HORPAK",
    "postal_code": "22774"
  },
  {
    "village_code": "7732",
    "village": "HAREAN",
    "postal_code": "22774"
  },
  {
    "village_code": "8179",
    "village": "HUTARAJA",
    "postal_code": "22774"
  },
  {
    "village_code": "8210",
    "village": "INGUL JAE",
    "postal_code": "22774"
  },
  {
    "village_code": "8458",
    "village": "KOTA TUA",
    "postal_code": "22774"
  },
  {
    "village_code": "8872",
    "village": "LUMBAN JABI-JABI",
    "postal_code": "22774"
  },
  {
    "village_code": "8890",
    "village": "LUMBAN RATUS",
    "postal_code": "22774"
  },
  {
    "village_code": "9577",
    "village": "PANABARI HUTATONGA",
    "postal_code": "22774"
  },
  {
    "village_code": "9642",
    "village": "PANINDOAN",
    "postal_code": "22774"
  },
  {
    "village_code": "10350",
    "village": "PURBA TUA",
    "postal_code": "22774"
  },
  {
    "village_code": "11263",
    "village": "SIMANINGGIR TT",
    "postal_code": "22774"
  },
  {
    "village_code": "11561",
    "village": "SISOMA",
    "postal_code": "22774"
  },
  {
    "village_code": "11615",
    "village": "SITUMBA",
    "postal_code": "22774"
  },
  {
    "village_code": "11976",
    "village": "TANJUNG MEDAN",
    "postal_code": "22774"
  }
]