[
  {
    "village_code": "6530",
    "village": "AEK NABARA",
    "postal_code": "22735"
  },
  {
    "village_code": "8699",
    "village": "LEMBAH LUBUK MANIK",
    "postal_code": "22735"
  },
  {
    "village_code": "8748",
    "village": "LOBU LAYAN SIGORDANG",
    "postal_code": "22735"
  },
  {
    "village_code": "9646",
    "village": "PANOBASAN",
    "postal_code": "22735"
  },
  {
    "village_code": "9822",
    "village": "PARSALAKAN",
    "postal_code": "22735"
  },
  {
    "village_code": "10830",
    "village": "SIALOGO",
    "postal_code": "22735"
  },
  {
    "village_code": "10877",
    "village": "SIBANGKUA",
    "postal_code": "22735"
  },
  {
    "village_code": "11079",
    "village": "SIGUMURU",
    "postal_code": "22735"
  },
  {
    "village_code": "11307",
    "village": "SIMATOHIR  /  SIMATOIR",
    "postal_code": "22735"
  },
  {
    "village_code": "11310",
    "village": "SIMATORKIS SISOMA",
    "postal_code": "22735"
  },
  {
    "village_code": "11564",
    "village": "SISUNDUNG",
    "postal_code": "22735"
  },
  {
    "village_code": "11585",
    "village": "SITINJAK",
    "postal_code": "22735"
  },
  {
    "village_code": "11624",
    "village": "SIUHOM",
    "postal_code": "22735"
  }
]