[
  {
    "village_code": "6532",
    "village": "AEK NABARA",
    "postal_code": "22738"
  },
  {
    "village_code": "6567",
    "village": "AEK SABAON",
    "postal_code": "22738"
  },
  {
    "village_code": "7540",
    "village": "GAPUK TUA",
    "postal_code": "22738"
  },
  {
    "village_code": "7762",
    "village": "HAUNATAS",
    "postal_code": "22738"
  },
  {
    "village_code": "8017",
    "village": "HURABA",
    "postal_code": "22738"
  },
  {
    "village_code": "9003",
    "village": "MARANCAR",
    "postal_code": "22738"
  },
  {
    "village_code": "9002",
    "village": "MARANCAR GODANG",
    "postal_code": "22738"
  },
  {
    "village_code": "9146",
    "village": "MOMBANG BORU",
    "postal_code": "22738"
  },
  {
    "village_code": "9907",
    "village": "PASAR SEMPURNA",
    "postal_code": "22738"
  },
  {
    "village_code": "11266",
    "village": "SIMANINGGIR",
    "postal_code": "22738"
  },
  {
    "village_code": "11702",
    "village": "SUGI TONGA",
    "postal_code": "22738"
  },
  {
    "village_code": "11941",
    "village": "TANJUNG DOLOK",
    "postal_code": "22738"
  }
]