[
  {
    "village_code": "6549",
    "village": "AEK NAULI",
    "postal_code": "22738"
  },
  {
    "village_code": "6560",
    "village": "AEK PINING",
    "postal_code": "22738"
  },
  {
    "village_code": "7003",
    "village": "BATU HORING",
    "postal_code": "22738"
  },
  {
    "village_code": "7005",
    "village": "BATU HULA",
    "postal_code": "22738"
  },
  {
    "village_code": "7544",
    "village": "GAROGA",
    "postal_code": "22738"
  },
  {
    "village_code": "7719",
    "village": "HAPESONG BARU",
    "postal_code": "22738"
  },
  {
    "village_code": "7720",
    "village": "HAPESONG LAMA",
    "postal_code": "22738"
  },
  {
    "village_code": "8068",
    "village": "HUTA GODANG",
    "postal_code": "22738"
  },
  {
    "village_code": "8156",
    "village": "HUTABARU",
    "postal_code": "22738"
  },
  {
    "village_code": "9302",
    "village": "NAPA",
    "postal_code": "22738"
  },
  {
    "village_code": "9467",
    "village": "PADANG LANCAT",
    "postal_code": "22738"
  },
  {
    "village_code": "10126",
    "village": "PERKEBUNAN BATANG TORU",
    "postal_code": "22738"
  },
  {
    "village_code": "10139",
    "village": "PERKEBUNAN HAPESONG",
    "postal_code": "22738"
  },
  {
    "village_code": "10842",
    "village": "SIANGGUNAN",
    "postal_code": "22738"
  },
  {
    "village_code": "11030",
    "village": "SIGALA-GALA (PERKEBUNAN SIGALA-GALA)",
    "postal_code": "22738"
  },
  {
    "village_code": "11463",
    "village": "SIPENGGENG",
    "postal_code": "22738"
  },
  {
    "village_code": "11535",
    "village": "SISIPA",
    "postal_code": "22738"
  },
  {
    "village_code": "11559",
    "village": "SISOMA JAE",
    "postal_code": "22738"
  },
  {
    "village_code": "11809",
    "village": "SUMURAN",
    "postal_code": "22738"
  },
  {
    "village_code": "12120",
    "village": "TELO",
    "postal_code": "22738"
  },
  {
    "village_code": "12382",
    "village": "WEK I BATANG TORU",
    "postal_code": "22738"
  },
  {
    "village_code": "12384",
    "village": "WEK II BATANG TORU",
    "postal_code": "22738"
  },
  {
    "village_code": "12386",
    "village": "WEK III BATANG TORU",
    "postal_code": "22738"
  },
  {
    "village_code": "12388",
    "village": "WEK IV BATANG TORU",
    "postal_code": "22738"
  }
]