[
  {
    "village_code": "6987",
    "village": "BATANG TURA SIRUMAMBE",
    "postal_code": "22733"
  },
  {
    "village_code": "7642",
    "village": "GUNUNG MANUNGKAP",
    "postal_code": "22733"
  },
  {
    "village_code": "8016",
    "village": "HURABA",
    "postal_code": "22733"
  },
  {
    "village_code": "8061",
    "village": "HUTA GINJANG",
    "postal_code": "22733"
  },
  {
    "village_code": "8620",
    "village": "LANTOSAN ROGAS",
    "postal_code": "22733"
  },
  {
    "village_code": "9039",
    "village": "MARISI",
    "postal_code": "22733"
  },
  {
    "village_code": "9562",
    "village": "PALL SEBELAS",
    "postal_code": "22733"
  },
  {
    "village_code": "9652",
    "village": "PANOMPUAN",
    "postal_code": "22733"
  },
  {
    "village_code": "9651",
    "village": "PANOMPUAN JAE",
    "postal_code": "22733"
  },
  {
    "village_code": "9770",
    "village": "PARGARUTAN DOLOK",
    "postal_code": "22733"
  },
  {
    "village_code": "9771",
    "village": "PARGARUTAN HUTA BARU",
    "postal_code": "22733"
  },
  {
    "village_code": "9772",
    "village": "PARGARUTAN JAE",
    "postal_code": "22733"
  },
  {
    "village_code": "9773",
    "village": "PARGARUTAN JULU",
    "postal_code": "22733"
  },
  {
    "village_code": "9774",
    "village": "PARGARUTAN TONGA",
    "postal_code": "22733"
  },
  {
    "village_code": "9902",
    "village": "PASAR PARGARUTAN",
    "postal_code": "22733"
  },
  {
    "village_code": "10567",
    "village": "SANGGAPATI",
    "postal_code": "22733"
  },
  {
    "village_code": "11138",
    "village": "SIJUNGKANG",
    "postal_code": "22733"
  },
  {
    "village_code": "11235",
    "village": "SIMANDALU",
    "postal_code": "22733"
  },
  {
    "village_code": "11502",
    "village": "SIREGAR MATOGU",
    "postal_code": "22733"
  },
  {
    "village_code": "11514",
    "village": "SIRUMAMBE",
    "postal_code": "22733"
  },
  {
    "village_code": "11677",
    "village": "SOSOPAN PARGARUTAN",
    "postal_code": "22733"
  },
  {
    "village_code": "11834",
    "village": "TABUSIRA",
    "postal_code": "22733"
  },
  {
    "village_code": "12170",
    "village": "TIANG ARAS",
    "postal_code": "22733"
  }
]