[
  {
    "village_code": "58793",
    "village": "ALUAN",
    "postal_code": "71371"
  },
  {
    "village_code": "58790",
    "village": "ALUAN BESAR",
    "postal_code": "71371"
  },
  {
    "village_code": "58791",
    "village": "ALUAN MATI",
    "postal_code": "71371"
  },
  {
    "village_code": "58792",
    "village": "ALUAN SUMUR",
    "postal_code": "71371"
  },
  {
    "village_code": "58903",
    "village": "BAKTI",
    "postal_code": "71371"
  },
  {
    "village_code": "58993",
    "village": "BARU",
    "postal_code": "71371"
  },
  {
    "village_code": "59279",
    "village": "HALIAU",
    "postal_code": "71371"
  },
  {
    "village_code": "59415",
    "village": "KAHAKAN",
    "postal_code": "71371"
  },
  {
    "village_code": "59425",
    "village": "KALI BARU",
    "postal_code": "71371"
  },
  {
    "village_code": "59628",
    "village": "LAYUH",
    "postal_code": "71371"
  },
  {
    "village_code": "59832",
    "village": "MURUNG A",
    "postal_code": "71371"
  },
  {
    "village_code": "59886",
    "village": "PAGAT",
    "postal_code": "71371"
  },
  {
    "village_code": "59966",
    "village": "PANTAI BATUNG",
    "postal_code": "71371"
  },
  {
    "village_code": "60025",
    "village": "PAYA BESAR",
    "postal_code": "71371"
  }
]