[
  {
    "village_code": "58812",
    "village": "ANDUHUM",
    "postal_code": "71381"
  },
  {
    "village_code": "58961",
    "village": "BANUA RANTAU",
    "postal_code": "71381"
  },
  {
    "village_code": "59125",
    "village": "BIRAYANG",
    "postal_code": "71381"
  },
  {
    "village_code": "59123",
    "village": "BIRAYANG SURAPATI",
    "postal_code": "71381"
  },
  {
    "village_code": "59124",
    "village": "BIRAYANG TIMUR",
    "postal_code": "71381"
  },
  {
    "village_code": "59176",
    "village": "CUKAN LIPAI",
    "postal_code": "71381"
  },
  {
    "village_code": "59462",
    "village": "KAPAR",
    "postal_code": "71381"
  },
  {
    "village_code": "59550",
    "village": "KIAS",
    "postal_code": "71381"
  },
  {
    "village_code": "59600",
    "village": "LABUHAN",
    "postal_code": "71381"
  },
  {
    "village_code": "59633",
    "village": "LIMBAR",
    "postal_code": "71381"
  },
  {
    "village_code": "59648",
    "village": "LOK BESAR",
    "postal_code": "71381"
  },
  {
    "village_code": "59678",
    "village": "LUNJUK",
    "postal_code": "71381"
  },
  {
    "village_code": "59693",
    "village": "MAHELA",
    "postal_code": "71381"
  },
  {
    "village_code": "60026",
    "village": "PAYA",
    "postal_code": "71381"
  },
  {
    "village_code": "60154",
    "village": "RANGAS",
    "postal_code": "71381"
  },
  {
    "village_code": "60587",
    "village": "TANAH HABANG",
    "postal_code": "71381"
  },
  {
    "village_code": "60706",
    "village": "TEMBUK BAHALANG",
    "postal_code": "71381"
  },
  {
    "village_code": "60771",
    "village": "WAWAI",
    "postal_code": "71381"
  },
  {
    "village_code": "60770",
    "village": "WAWAI GARDU",
    "postal_code": "71381"
  }
]