[
  {
    "village_code": "22068",
    "village": "GALIH / GILIH KARANGJATI",
    "postal_code": "34176"
  },
  {
    "village_code": "22108",
    "village": "GEDUNG HAJI",
    "postal_code": "34176"
  },
  {
    "village_code": "22112",
    "village": "GEDUNG HARTA",
    "postal_code": "34176"
  },
  {
    "village_code": "22351",
    "village": "KARANG ANYAR",
    "postal_code": "34176"
  },
  {
    "village_code": "22613",
    "village": "LINGGA PURA",
    "postal_code": "34176"
  },
  {
    "village_code": "22649",
    "village": "MARGA JAYA",
    "postal_code": "34176"
  },
  {
    "village_code": "22825",
    "village": "NEGERI AGUNG",
    "postal_code": "34176"
  },
  {
    "village_code": "22836",
    "village": "NEGERI JAYA",
    "postal_code": "34176"
  },
  {
    "village_code": "22840",
    "village": "NEGERI KATON",
    "postal_code": "34176"
  },
  {
    "village_code": "22882",
    "village": "NYUKANG HARJO",
    "postal_code": "34176"
  },
  {
    "village_code": "23363",
    "village": "SIDOHARJO",
    "postal_code": "34176"
  },
  {
    "village_code": "23784",
    "village": "TAMAN SARI",
    "postal_code": "34176"
  },
  {
    "village_code": "23861",
    "village": "TANJUNG RATU",
    "postal_code": "34176"
  }
]