[
  {
    "village_code": "22077",
    "village": "GAYA BARU DELAPAN",
    "postal_code": "34158"
  },
  {
    "village_code": "22078",
    "village": "GAYA BARU DUA",
    "postal_code": "34158"
  },
  {
    "village_code": "22079",
    "village": "GAYA BARU EMPAT",
    "postal_code": "34158"
  },
  {
    "village_code": "22080",
    "village": "GAYA BARU ENAM",
    "postal_code": "34158"
  },
  {
    "village_code": "22082",
    "village": "GAYA BARU SATU",
    "postal_code": "34158"
  },
  {
    "village_code": "22083",
    "village": "GAYA BARU TIGA",
    "postal_code": "34158"
  },
  {
    "village_code": "22084",
    "village": "GAYA BARU TUJUH",
    "postal_code": "34158"
  },
  {
    "village_code": "22465",
    "village": "KENANGA SARI",
    "postal_code": "34158"
  },
  {
    "village_code": "22687",
    "village": "MATARAM ILIR",
    "postal_code": "34158"
  },
  {
    "village_code": "23202",
    "village": "RAWA BETIK",
    "postal_code": "34158"
  },
  {
    "village_code": "23477",
    "village": "SRI KATON",
    "postal_code": "34158"
  },
  {
    "village_code": "23487",
    "village": "SRI MULYA JAYA",
    "postal_code": "34158"
  },
  {
    "village_code": "23697",
    "village": "SUMBER KATON",
    "postal_code": "34158"
  }
]