[
  {
    "village_code": "23259",
    "village": "SAKTI BUANA",
    "postal_code": "34156"
  },
  {
    "village_code": "23265",
    "village": "SANGGAR BUANA",
    "postal_code": "34156"
  },
  {
    "village_code": "23273",
    "village": "SARI BAKTI",
    "postal_code": "34156"
  },
  {
    "village_code": "23314",
    "village": "SETIA BAKTI",
    "postal_code": "34156"
  },
  {
    "village_code": "23316",
    "village": "SETIA BUMI",
    "postal_code": "34156"
  },
  {
    "village_code": "23457",
    "village": "SISWA BANGUN",
    "postal_code": "34156"
  },
  {
    "village_code": "23466",
    "village": "SRI BASUKI",
    "postal_code": "34156"
  },
  {
    "village_code": "23686",
    "village": "SUMBER BAHAGIA",
    "postal_code": "34156"
  },
  {
    "village_code": "23689",
    "village": "SUMBER BARU",
    "postal_code": "34156"
  },
  {
    "village_code": "23690",
    "village": "SUMBER FAJAR",
    "postal_code": "34156"
  },
  {
    "village_code": "23753",
    "village": "SWASTIKA BUANA",
    "postal_code": "34156"
  },
  {
    "village_code": "23831",
    "village": "TANJUNG HARAPAN",
    "postal_code": "34156"
  },
  {
    "village_code": "23899",
    "village": "TANJUNGKERAJAN",
    "postal_code": "34156"
  }
]