[
  {
    "village_code": "64083",
    "village": "AMPERA",
    "postal_code": "94364"
  },
  {
    "village_code": "64106",
    "village": "BAHAGIA",
    "postal_code": "94364"
  },
  {
    "village_code": "64139",
    "village": "BAKU-BAKULU",
    "postal_code": "94364"
  },
  {
    "village_code": "64227",
    "village": "BERDIKARI",
    "postal_code": "94364"
  },
  {
    "village_code": "64265",
    "village": "BOBO",
    "postal_code": "94364"
  },
  {
    "village_code": "64370",
    "village": "BUNGA",
    "postal_code": "94364"
  },
  {
    "village_code": "64586",
    "village": "KAPIROE",
    "postal_code": "94364"
  },
  {
    "village_code": "64805",
    "village": "LEMBAN TONGOA",
    "postal_code": "94364"
  },
  {
    "village_code": "64921",
    "village": "MAKMUR",
    "postal_code": "94364"
  },
  {
    "village_code": "65298",
    "village": "PETIMBE",
    "postal_code": "94364"
  },
  {
    "village_code": "65376",
    "village": "RAHMAT",
    "postal_code": "94364"
  },
  {
    "village_code": "65381",
    "village": "RANTELEDE (RANTELEDA)",
    "postal_code": "94364"
  },
  {
    "village_code": "65387",
    "village": "REJEKI",
    "postal_code": "94364"
  },
  {
    "village_code": "65482",
    "village": "SEJAHTERA",
    "postal_code": "94364"
  },
  {
    "village_code": "65531",
    "village": "SIGIMPU",
    "postal_code": "94364"
  },
  {
    "village_code": "65563",
    "village": "SINTUWU",
    "postal_code": "94364"
  },
  {
    "village_code": "65665",
    "village": "TANAH HARAPAN",
    "postal_code": "94364"
  },
  {
    "village_code": "65854",
    "village": "TONGOA",
    "postal_code": "94364"
  },
  {
    "village_code": "65913",
    "village": "UENUNI",
    "postal_code": "94364"
  }
]