[
  {
    "village_code": "64185",
    "village": "BANGGAIBA",
    "postal_code": "94363"
  },
  {
    "village_code": "64275",
    "village": "BOLADANGKO",
    "postal_code": "94363"
  },
  {
    "village_code": "64280",
    "village": "BOLAPAPU",
    "postal_code": "94363"
  },
  {
    "village_code": "64880",
    "village": "LONCA",
    "postal_code": "94363"
  },
  {
    "village_code": "65011",
    "village": "MATAUE",
    "postal_code": "94363"
  },
  {
    "village_code": "65108",
    "village": "NAMO",
    "postal_code": "94363"
  },
  {
    "village_code": "65383",
    "village": "RANTEWULU",
    "postal_code": "94363"
  },
  {
    "village_code": "65423",
    "village": "SALUA",
    "postal_code": "94363"
  },
  {
    "village_code": "65577",
    "village": "SIWONGI",
    "postal_code": "94363"
  },
  {
    "village_code": "65612",
    "village": "SUNGKU",
    "postal_code": "94363"
  },
  {
    "village_code": "65682",
    "village": "TANGKULOWI",
    "postal_code": "94363"
  },
  {
    "village_code": "65867",
    "village": "TORO",
    "postal_code": "94363"
  },
  {
    "village_code": "65881",
    "village": "TOWULU",
    "postal_code": "94363"
  },
  {
    "village_code": "65985",
    "village": "WINATU",
    "postal_code": "94363"
  }
]