[
  {
    "village_code": "431",
    "village": "BABAH LUENG",
    "postal_code": "23662"
  },
  {
    "village_code": "1638",
    "village": "DRIEN TUJOH",
    "postal_code": "23662"
  },
  {
    "village_code": "2225",
    "village": "KABU",
    "postal_code": "23662"
  },
  {
    "village_code": "2679",
    "village": "KUALA TERIPA / TRIPA",
    "postal_code": "23662"
  },
  {
    "village_code": "3481",
    "village": "LUENG KEUBE JAGAT / JAGAD",
    "postal_code": "23662"
  },
  {
    "village_code": "4102",
    "village": "MON DUA",
    "postal_code": "23662"
  },
  {
    "village_code": "4193",
    "village": "NEUBOK YEE PK",
    "postal_code": "23662"
  },
  {
    "village_code": "4194",
    "village": "NEUBOK YEE PP",
    "postal_code": "23662"
  },
  {
    "village_code": "4452",
    "village": "PANTON PANGE",
    "postal_code": "23662"
  },
  {
    "village_code": "4534",
    "village": "PASIE KEUBE DOM",
    "postal_code": "23662"
  },
  {
    "village_code": "6243",
    "village": "UJONG KRUENG",
    "postal_code": "23662"
  }
]