[
  {
    "village_code": "55",
    "village": "ALUE BATA",
    "postal_code": "23661"
  },
  {
    "village_code": "116",
    "village": "ALUE GAJAH",
    "postal_code": "23661"
  },
  {
    "village_code": "168",
    "village": "ALUE LABUE",
    "postal_code": "23661"
  },
  {
    "village_code": "232",
    "village": "ALUE SEPENG (SEUPEUNG)",
    "postal_code": "23661"
  },
  {
    "village_code": "241",
    "village": "ALUE SIRON",
    "postal_code": "23661"
  },
  {
    "village_code": "414",
    "village": "BABAH DUA",
    "postal_code": "23661"
  },
  {
    "village_code": "434",
    "village": "BABAH ROT",
    "postal_code": "23661"
  },
  {
    "village_code": "605",
    "village": "BATU RAJA",
    "postal_code": "23661"
  },
  {
    "village_code": "1373",
    "village": "COT MEE",
    "postal_code": "23661"
  },
  {
    "village_code": "1386",
    "village": "COT MUE",
    "postal_code": "23661"
  },
  {
    "village_code": "1811",
    "village": "GAPA GARU",
    "postal_code": "23661"
  },
  {
    "village_code": "1970",
    "village": "GUNONG GULUNGO (GEULUGO)",
    "postal_code": "23661"
  },
  {
    "village_code": "1973",
    "village": "GUNONG KUPOK",
    "postal_code": "23661"
  },
  {
    "village_code": "1981",
    "village": "GUNONG PUNGKIE",
    "postal_code": "23661"
  },
  {
    "village_code": "1984",
    "village": "GUNONG SAPEK",
    "postal_code": "23661"
  },
  {
    "village_code": "2597",
    "village": "KRUENG ITAM",
    "postal_code": "23661"
  },
  {
    "village_code": "2678",
    "village": "KUALA TADU",
    "postal_code": "23661"
  },
  {
    "village_code": "4516",
    "village": "PASI LUAH",
    "postal_code": "23661"
  },
  {
    "village_code": "5100",
    "village": "RANTAU SELAMAT",
    "postal_code": "23661"
  },
  {
    "village_code": "5292",
    "village": "SARAH MANTOK",
    "postal_code": "23661"
  },
  {
    "village_code": "5597",
    "village": "SIMPANG JAYA",
    "postal_code": "23661"
  },
  {
    "village_code": "5777",
    "village": "SUMBER DAYA",
    "postal_code": "23661"
  }
]