[
  {
    "village_code": "130",
    "village": "ALUE IE MAMEH",
    "postal_code": "23661"
  },
  {
    "village_code": "757",
    "village": "BLANG BARO",
    "postal_code": "23661"
  },
  {
    "village_code": "772",
    "village": "BLANG BINTANG",
    "postal_code": "23661"
  },
  {
    "village_code": "903",
    "village": "BLANG MUKO",
    "postal_code": "23661"
  },
  {
    "village_code": "994",
    "village": "BLANG TEUNGOH",
    "postal_code": "23661"
  },
  {
    "village_code": "1330",
    "village": "COT KUMBANG",
    "postal_code": "23661"
  },
  {
    "village_code": "1983",
    "village": "GUNONG REUBO",
    "postal_code": "23661"
  },
  {
    "village_code": "2174",
    "village": "JOGJA / JOKJA",
    "postal_code": "23661"
  },
  {
    "village_code": "2776",
    "village": "KUTA MAKMUR",
    "postal_code": "23661"
  },
  {
    "village_code": "3171",
    "village": "LAWA BATU",
    "postal_code": "23661"
  },
  {
    "village_code": "4923",
    "village": "PULO IE",
    "postal_code": "23661"
  },
  {
    "village_code": "5027",
    "village": "PURWOREJO",
    "postal_code": "23661"
  },
  {
    "village_code": "5612",
    "village": "SIMPANG PEUT",
    "postal_code": "23661"
  },
  {
    "village_code": "6239",
    "village": "UJONG FATIHAH",
    "postal_code": "23661"
  },
  {
    "village_code": "6253",
    "village": "UJONG PADANG",
    "postal_code": "23661"
  },
  {
    "village_code": "6254",
    "village": "UJONG PASI",
    "postal_code": "23661"
  },
  {
    "village_code": "6259",
    "village": "UJONG SIKUNENG",
    "postal_code": "23661"
  }
]