[
  {
    "village_code": "57263",
    "village": "BAJARAU",
    "postal_code": "74355"
  },
  {
    "village_code": "57278",
    "village": "BANDAR AGUNG",
    "postal_code": "74355"
  },
  {
    "village_code": "57306",
    "village": "BARINGIN TUNGGAL JAYA",
    "postal_code": "74355"
  },
  {
    "village_code": "57311",
    "village": "BARUNANG MIRI",
    "postal_code": "74355"
  },
  {
    "village_code": "57417",
    "village": "BUKIT HARAPAN",
    "postal_code": "74355"
  },
  {
    "village_code": "57603",
    "village": "KABUAU",
    "postal_code": "74355"
  },
  {
    "village_code": "57649",
    "village": "KARANG SARI",
    "postal_code": "74355"
  },
  {
    "village_code": "57651",
    "village": "KARANG TUNGGAL",
    "postal_code": "74355"
  },
  {
    "village_code": "57856",
    "village": "MEKAR JAYA",
    "postal_code": "74355"
  },
  {
    "village_code": "58033",
    "village": "PARENGGEAN",
    "postal_code": "74355"
  },
  {
    "village_code": "58214",
    "village": "SARI HARAPAN",
    "postal_code": "74355"
  },
  {
    "village_code": "58372",
    "village": "SUMBER MAKMUR",
    "postal_code": "74355"
  },
  {
    "village_code": "58489",
    "village": "TEHANG",
    "postal_code": "74355"
  }
]