[
  {
    "village_code": "57264",
    "village": "BAJARUM",
    "postal_code": "74353"
  },
  {
    "village_code": "57453",
    "village": "CAMBA",
    "postal_code": "74353"
  },
  {
    "village_code": "57539",
    "village": "HANJALIPAN",
    "postal_code": "74353"
  },
  {
    "village_code": "57635",
    "village": "KANDAN",
    "postal_code": "74353"
  },
  {
    "village_code": "57697",
    "village": "KOTA BESI HILIR",
    "postal_code": "74353"
  },
  {
    "village_code": "57698",
    "village": "KOTA BESI HULU",
    "postal_code": "74353"
  },
  {
    "village_code": "57973",
    "village": "PALANGAN",
    "postal_code": "74353"
  },
  {
    "village_code": "57987",
    "village": "PAMALIAN",
    "postal_code": "74353"
  },
  {
    "village_code": "58159",
    "village": "RASAU TUMBUH",
    "postal_code": "74353"
  },
  {
    "village_code": "58339",
    "village": "SIMPUR",
    "postal_code": "74353"
  },
  {
    "village_code": "58344",
    "village": "SOREN",
    "postal_code": "74353"
  }
]