[
  {
    "village_code": "57296",
    "village": "BAPANGGANG RAYA",
    "postal_code": "74326"
  },
  {
    "village_code": "57297",
    "village": "BAPEANG",
    "postal_code": "74326"
  },
  {
    "village_code": "57376",
    "village": "BENGKUANG MAKMUR",
    "postal_code": "74326"
  },
  {
    "village_code": "57504",
    "village": "EKA BAHURUI",
    "postal_code": "74326"
  },
  {
    "village_code": "57686",
    "village": "KETAPANG",
    "postal_code": "74325"
  },
  {
    "village_code": "57869",
    "village": "MENTAWA BARU HILIR",
    "postal_code": "74323"
  },
  {
    "village_code": "57870",
    "village": "MENTAWA BARU HULU",
    "postal_code": "74322"
  },
  {
    "village_code": "58039",
    "village": "PASIR PUTIH",
    "postal_code": "74322"
  },
  {
    "village_code": "58050",
    "village": "PELANGSIAN",
    "postal_code": "74326"
  },
  {
    "village_code": "58221",
    "village": "SAWAHAN (MENTAWA BARU HULU UTARA)",
    "postal_code": "74321"
  },
  {
    "village_code": "58490",
    "village": "TELAGA BARU",
    "postal_code": "74326"
  }
]