[
  {
    "village_code": "57415",
    "village": "BUKIT BATU",
    "postal_code": "74354"
  },
  {
    "village_code": "57426",
    "village": "BUKIT RAYA",
    "postal_code": "74354"
  },
  {
    "village_code": "57683",
    "village": "KERUING",
    "postal_code": "74354"
  },
  {
    "village_code": "58020",
    "village": "PANTAI HARAPAN",
    "postal_code": "74354"
  },
  {
    "village_code": "58036",
    "village": "PARIT",
    "postal_code": "74354"
  },
  {
    "village_code": "58051",
    "village": "PELANTARAN",
    "postal_code": "74354"
  },
  {
    "village_code": "58110",
    "village": "PUNDU",
    "postal_code": "74354"
  },
  {
    "village_code": "58312",
    "village": "SELUCING",
    "postal_code": "74354"
  },
  {
    "village_code": "58347",
    "village": "SUDAN",
    "postal_code": "74354"
  },
  {
    "village_code": "58385",
    "village": "SUNGAI UBAR MANDIRI",
    "postal_code": "74354"
  },
  {
    "village_code": "58619",
    "village": "TUMBANG KOLING / KULING",
    "postal_code": "74354"
  }
]