[
  {
    "village_code": "57424",
    "village": "BUKIT MAKMUR",
    "postal_code": "74355"
  },
  {
    "village_code": "57460",
    "village": "CEMPAKA PUTIH",
    "postal_code": "74355"
  },
  {
    "village_code": "57468",
    "village": "DAMAR MAKMUR",
    "postal_code": "74355"
  },
  {
    "village_code": "57590",
    "village": "JATI WARINGIN",
    "postal_code": "74355"
  },
  {
    "village_code": "57784",
    "village": "LUWUK SAMPUN",
    "postal_code": "74355"
  },
  {
    "village_code": "57859",
    "village": "MEKAR SARI",
    "postal_code": "74355"
  },
  {
    "village_code": "57874",
    "village": "MERAH",
    "postal_code": "74355"
  },
  {
    "village_code": "58230",
    "village": "SEBUNGSU",
    "postal_code": "74355"
  },
  {
    "village_code": "58461",
    "village": "TANJUNG JORONG",
    "postal_code": "74355"
  },
  {
    "village_code": "58666",
    "village": "TUMBANG MUJAM",
    "postal_code": "74355"
  },
  {
    "village_code": "58767",
    "village": "WONOSARI",
    "postal_code": "74355"
  }
]