[
  {
    "village_code": "6957",
    "village": "BARUZO",
    "postal_code": "22871"
  },
  {
    "village_code": "7808",
    "village": "HILIBADALU",
    "postal_code": "22871"
  },
  {
    "village_code": "7876",
    "village": "HILIMBANA",
    "postal_code": "22871"
  },
  {
    "village_code": "8676",
    "village": "LAURI",
    "postal_code": "22871"
  },
  {
    "village_code": "10516",
    "village": "SAITAGARAMBA (SAETAGARAMBA)",
    "postal_code": "22871"
  },
  {
    "village_code": "11096",
    "village": "SIHAREO SOGAEADU",
    "postal_code": "22871"
  },
  {
    "village_code": "11527",
    "village": "SISARAHILI SOGEADU",
    "postal_code": "22871"
  },
  {
    "village_code": "11647",
    "village": "SOGAEADU",
    "postal_code": "22871"
  },
  {
    "village_code": "12262",
    "village": "TUHEMBUASI",
    "postal_code": "22871"
  },
  {
    "village_code": "12273",
    "village": "TULUMBAHO",
    "postal_code": "22871"
  },
  {
    "village_code": "12381",
    "village": "WEA-WEA",
    "postal_code": "22871"
  }
]