[
  {
    "village_code": "7813",
    "village": "HILIBORODANO",
    "postal_code": "22871"
  },
  {
    "village_code": "7849",
    "village": "HILIGODU SOMOLO-MOLO",
    "postal_code": "22871"
  },
  {
    "village_code": "8014",
    "village": "HUNO (HINO)",
    "postal_code": "22871"
  },
  {
    "village_code": "8211",
    "village": "IODANO",
    "postal_code": "22871"
  },
  {
    "village_code": "8710",
    "village": "LEWUOGURU I",
    "postal_code": "22871"
  },
  {
    "village_code": "8712",
    "village": "LEWUOMBANUA",
    "postal_code": "22871"
  },
  {
    "village_code": "11017",
    "village": "SIFAOROASI",
    "postal_code": "22871"
  },
  {
    "village_code": "11534",
    "village": "SISARATANDRAWA",
    "postal_code": "22871"
  },
  {
    "village_code": "11557",
    "village": "SISOBAWINO I",
    "postal_code": "22871"
  },
  {
    "village_code": "11690",
    "village": "SO\\EWALI",
    "postal_code": "22871"
  },
  {
    "village_code": "11658",
    "village": "SOMOLO-MOLO",
    "postal_code": "22871"
  }
]