[
  {
    "village_code": "62334",
    "village": "BAKIDA",
    "postal_code": "95774"
  },
  {
    "village_code": "62423",
    "village": "BINIHA",
    "postal_code": "95774"
  },
  {
    "village_code": "62422",
    "village": "BINIHA TIMUR",
    "postal_code": "95774"
  },
  {
    "village_code": "62590",
    "village": "DUDEPO",
    "postal_code": "95774"
  },
  {
    "village_code": "62595",
    "village": "DUMINANGA",
    "postal_code": "95774"
  },
  {
    "village_code": "63177",
    "village": "MOLIBAGU",
    "postal_code": "95774"
  },
  {
    "village_code": "63333",
    "village": "PANGIA",
    "postal_code": "95774"
  },
  {
    "village_code": "63428",
    "village": "PINOLANTUNGAN",
    "postal_code": "95774"
  },
  {
    "village_code": "63464",
    "village": "POPODU",
    "postal_code": "95774"
  },
  {
    "village_code": "63566",
    "village": "SALONGO",
    "postal_code": "95774"
  },
  {
    "village_code": "63637",
    "village": "SINANDAKA",
    "postal_code": "95774"
  },
  {
    "village_code": "63654",
    "village": "SOGUO",
    "postal_code": "95774"
  },
  {
    "village_code": "63662",
    "village": "SONDANA",
    "postal_code": "95774"
  },
  {
    "village_code": "63664",
    "village": "SOPUTA",
    "postal_code": "95774"
  },
  {
    "village_code": "63687",
    "village": "TABILAA",
    "postal_code": "95774"
  },
  {
    "village_code": "63733",
    "village": "TANGAGAH",
    "postal_code": "95774"
  },
  {
    "village_code": "63838",
    "village": "TOLONDADU",
    "postal_code": "95774"
  },
  {
    "village_code": "63836",
    "village": "TOLONDADU I",
    "postal_code": "95774"
  },
  {
    "village_code": "63837",
    "village": "TOLONDADU II",
    "postal_code": "95774"
  },
  {
    "village_code": "63840",
    "village": "TOLUAYA",
    "postal_code": "95774"
  }
]