[
  {
    "village_code": "62368",
    "village": "BATULIODU",
    "postal_code": "95774"
  },
  {
    "village_code": "62979",
    "village": "LION",
    "postal_code": "95774"
  },
  {
    "village_code": "63025",
    "village": "LUWOO",
    "postal_code": "95774"
  },
  {
    "village_code": "63094",
    "village": "MANGGADAA",
    "postal_code": "95774"
  },
  {
    "village_code": "63142",
    "village": "MEYAMBANGA",
    "postal_code": "95774"
  },
  {
    "village_code": "63145",
    "village": "MILANGODAA",
    "postal_code": "95774"
  },
  {
    "village_code": "63144",
    "village": "MILANGODAA BARAT",
    "postal_code": "95774"
  },
  {
    "village_code": "63192",
    "village": "MOMALIA I",
    "postal_code": "95774"
  },
  {
    "village_code": "63193",
    "village": "MOMALIA II",
    "postal_code": "95774"
  },
  {
    "village_code": "63400",
    "village": "PILOLAHUNGA",
    "postal_code": "95774"
  },
  {
    "village_code": "63559",
    "village": "SAIBUAH",
    "postal_code": "95774"
  },
  {
    "village_code": "63560",
    "village": "SAKTI",
    "postal_code": "95774"
  },
  {
    "village_code": "63646",
    "village": "SINOMBAYUGA",
    "postal_code": "95774"
  },
  {
    "village_code": "63841",
    "village": "TOLUTU",
    "postal_code": "95774"
  },
  {
    "village_code": "63866",
    "village": "TONALA",
    "postal_code": "95774"
  }
]