[
  {
    "village_code": "40225",
    "village": "ALASSUMUR",
    "postal_code": "68271"
  },
  {
    "village_code": "43424",
    "village": "KEJAYAN",
    "postal_code": "68271"
  },
  {
    "village_code": "44312",
    "village": "MANGLI",
    "postal_code": "68271"
  },
  {
    "village_code": "44396",
    "village": "MASKUNING KULON",
    "postal_code": "68271"
  },
  {
    "village_code": "44397",
    "village": "MASKUNING WETAN",
    "postal_code": "68271"
  },
  {
    "village_code": "44456",
    "village": "MENGOK",
    "postal_code": "68271"
  },
  {
    "village_code": "45123",
    "village": "PADASAN",
    "postal_code": "68271"
  },
  {
    "village_code": "46128",
    "village": "RANDUCANGKRING",
    "postal_code": "68271"
  },
  {
    "village_code": "47118",
    "village": "SUKODONO",
    "postal_code": "68271"
  },
  {
    "village_code": "47133",
    "village": "SUKOKERTO",
    "postal_code": "68271"
  },
  {
    "village_code": "47243",
    "village": "SUKOWONO",
    "postal_code": "68271"
  }
]