[
  {
    "village_code": "40338",
    "village": "BADEAN",
    "postal_code": "68214"
  },
  {
    "village_code": "41027",
    "village": "BLINDUNGAN",
    "postal_code": "68212"
  },
  {
    "village_code": "41483",
    "village": "DABASAH",
    "postal_code": "68211"
  },
  {
    "village_code": "42637",
    "village": "KADEMANGAN",
    "postal_code": "68217"
  },
  {
    "village_code": "43454",
    "village": "KEMBANG",
    "postal_code": "68219"
  },
  {
    "village_code": "43859",
    "village": "KOTAKULON",
    "postal_code": "68213"
  },
  {
    "village_code": "44737",
    "village": "NANGKAAN",
    "postal_code": "68215"
  },
  {
    "village_code": "45280",
    "village": "PANCORAN",
    "postal_code": "68219"
  },
  {
    "village_code": "45535",
    "village": "PEJATEN",
    "postal_code": "68218"
  },
  {
    "village_code": "47239",
    "village": "SUKOWIRYO",
    "postal_code": "68219"
  },
  {
    "village_code": "47680",
    "village": "TAMANSARI",
    "postal_code": "68216"
  }
]