[
  {
    "village_code": "40742",
    "village": "BATAAN",
    "postal_code": "68281"
  },
  {
    "village_code": "41561",
    "village": "DAWUHAN",
    "postal_code": "68281"
  },
  {
    "village_code": "41872",
    "village": "GEBANG",
    "postal_code": "68281"
  },
  {
    "village_code": "42652",
    "village": "KAJAR",
    "postal_code": "68281"
  },
  {
    "village_code": "43662",
    "village": "KESEMEK (KASEMEK)",
    "postal_code": "68281"
  },
  {
    "village_code": "43851",
    "village": "KONCER DARUL ALAM",
    "postal_code": "68281"
  },
  {
    "village_code": "43852",
    "village": "KONCER KIDUL",
    "postal_code": "68281"
  },
  {
    "village_code": "44189",
    "village": "LOJAJAR",
    "postal_code": "68281"
  },
  {
    "village_code": "45539",
    "village": "PEKALANGAN",
    "postal_code": "68281"
  },
  {
    "village_code": "47491",
    "village": "SUMBERSALAM",
    "postal_code": "68281"
  },
  {
    "village_code": "47822",
    "village": "TANGSIL KULON",
    "postal_code": "68281"
  },
  {
    "village_code": "48065",
    "village": "TENGGARANG",
    "postal_code": "68281"
  }
]