[
  {
    "village_code": "41470",
    "village": "CURAHDAMI",
    "postal_code": "68251"
  },
  {
    "village_code": "41477",
    "village": "CURAHPOH",
    "postal_code": "68251"
  },
  {
    "village_code": "42507",
    "village": "JETIS",
    "postal_code": "68251"
  },
  {
    "village_code": "43982",
    "village": "KUPANG",
    "postal_code": "68251"
  },
  {
    "village_code": "44184",
    "village": "LOCARE",
    "postal_code": "68251"
  },
  {
    "village_code": "45239",
    "village": "PAKUWESI",
    "postal_code": "68251"
  },
  {
    "village_code": "45574",
    "village": "PENAMBANGAN",
    "postal_code": "68251"
  },
  {
    "village_code": "45671",
    "village": "PETUNG",
    "postal_code": "68251"
  },
  {
    "village_code": "45834",
    "village": "PONCOGATI",
    "postal_code": "68251"
  },
  {
    "village_code": "46856",
    "village": "SILOLEMBU",
    "postal_code": "68251"
  },
  {
    "village_code": "47308",
    "village": "SUMBER SALAK",
    "postal_code": "68251"
  },
  {
    "village_code": "47509",
    "village": "SUMBERSUKO",
    "postal_code": "68251"
  }
]