[
  {
    "village_code": "41795",
    "village": "GAMBANGAN",
    "postal_code": "68262"
  },
  {
    "village_code": "42194",
    "village": "GUNUNG SARI",
    "postal_code": "68262"
  },
  {
    "village_code": "44247",
    "village": "MAESAN",
    "postal_code": "68262"
  },
  {
    "village_code": "45236",
    "village": "PAKUNIRAN",
    "postal_code": "68262"
  },
  {
    "village_code": "45580",
    "village": "PENANGGUNGAN",
    "postal_code": "68262"
  },
  {
    "village_code": "45961",
    "village": "PUJERBARU",
    "postal_code": "68262"
  },
  {
    "village_code": "47051",
    "village": "SUCOLOR",
    "postal_code": "68262"
  },
  {
    "village_code": "47063",
    "village": "SUGER LOR",
    "postal_code": "68262"
  },
  {
    "village_code": "47265",
    "village": "SUMBER ANYAR",
    "postal_code": "68262"
  },
  {
    "village_code": "47475",
    "village": "SUMBERPAKEM",
    "postal_code": "68262"
  },
  {
    "village_code": "47493",
    "village": "SUMBERSARI",
    "postal_code": "68262"
  },
  {
    "village_code": "47789",
    "village": "TANAHWULAN",
    "postal_code": "68262"
  }
]