[
  {
    "village_code": "514",
    "village": "BANDA MASEM",
    "postal_code": "24351"
  },
  {
    "village_code": "2015",
    "village": "HAGU BARAT LAUT",
    "postal_code": "24351"
  },
  {
    "village_code": "2016",
    "village": "HAGU SELATAN",
    "postal_code": "24351"
  },
  {
    "village_code": "2017",
    "village": "HAGU TEUNGOH",
    "postal_code": "24351"
  },
  {
    "village_code": "2273",
    "village": "KAMPUNG JAWA BARU",
    "postal_code": "24315"
  },
  {
    "village_code": "2274",
    "village": "KAMPUNG JAWA LAMA",
    "postal_code": "24351"
  },
  {
    "village_code": "2406",
    "village": "KEUDE ACEH",
    "postal_code": "24351"
  },
  {
    "village_code": "2749",
    "village": "KUTA BLANG",
    "postal_code": "24351"
  },
  {
    "village_code": "3130",
    "village": "LANCANG GARAM",
    "postal_code": "24351"
  },
  {
    "village_code": "3402",
    "village": "LHOKSEUMAWE",
    "postal_code": "24314"
  },
  {
    "village_code": "4103",
    "village": "MON GEUDONG",
    "postal_code": "24351"
  },
  {
    "village_code": "5030",
    "village": "PUSONG BARU",
    "postal_code": "24314"
  },
  {
    "village_code": "5031",
    "village": "PUSONG LAMA",
    "postal_code": "24351"
  },
  {
    "village_code": "5589",
    "village": "SIMPANG EMPAT",
    "postal_code": "24313"
  },
  {
    "village_code": "6176",
    "village": "TUMPOK TEUNGOH",
    "postal_code": "24311"
  },
  {
    "village_code": "6232",
    "village": "UJONG BLANG",
    "postal_code": "24351"
  },
  {
    "village_code": "6342",
    "village": "ULEE JALAN",
    "postal_code": "24351"
  },
  {
    "village_code": "6404",
    "village": "UTEUN BAYI",
    "postal_code": "24351"
  }
]