[
  {
    "village_code": "602",
    "village": "BATU PHAT BARAT",
    "postal_code": "24352"
  },
  {
    "village_code": "603",
    "village": "BATU PHAT TIMUR",
    "postal_code": "24352"
  },
  {
    "village_code": "906",
    "village": "BLANG NALEUNG MAMEH",
    "postal_code": "24352"
  },
  {
    "village_code": "926",
    "village": "BLANG PANYANG",
    "postal_code": "24352"
  },
  {
    "village_code": "945",
    "village": "BLANG PULO",
    "postal_code": "24352"
  },
  {
    "village_code": "1438",
    "village": "COT TRIENG",
    "postal_code": "24352"
  },
  {
    "village_code": "3907",
    "village": "MEUNASAH DAYAH",
    "postal_code": "24352"
  },
  {
    "village_code": "4076",
    "village": "MEURIA PALOH",
    "postal_code": "24352"
  },
  {
    "village_code": "4252",
    "village": "PADANG SAKTI",
    "postal_code": "24352"
  },
  {
    "village_code": "4295",
    "village": "PALOH PUNTI",
    "postal_code": "24352"
  },
  {
    "village_code": "6252",
    "village": "UJONG PACU",
    "postal_code": "24352"
  }
]