[
  {
    "village_code": "21716",
    "village": "BANGUN NEGARA",
    "postal_code": "34875"
  },
  {
    "village_code": "21830",
    "village": "BIHA",
    "postal_code": "34875"
  },
  {
    "village_code": "22641",
    "village": "MARANG",
    "postal_code": "34875"
  },
  {
    "village_code": "22850",
    "village": "NEGERI RATU TENUMBANG",
    "postal_code": "34875"
  },
  {
    "village_code": "22907",
    "village": "PAGAR ALAM",
    "postal_code": "34875"
  },
  {
    "village_code": "22929",
    "village": "PAKU NEGARA",
    "postal_code": "34875"
  },
  {
    "village_code": "23031",
    "village": "PELITA JAYA",
    "postal_code": "34875"
  },
  {
    "village_code": "23648",
    "village": "SUKARAME",
    "postal_code": "34875"
  },
  {
    "village_code": "23729",
    "village": "SUMUR JAYA",
    "postal_code": "34871"
  },
  {
    "village_code": "23838",
    "village": "TANJUNG JATI",
    "postal_code": "34875"
  },
  {
    "village_code": "23865",
    "village": "TANJUNG RAYA",
    "postal_code": "34875"
  },
  {
    "village_code": "23886",
    "village": "TANJUNG SETIA",
    "postal_code": "34875"
  },
  {
    "village_code": "24019",
    "village": "TULUNG BAMBAN",
    "postal_code": "34875"
  },
  {
    "village_code": "24037",
    "village": "ULOK MANIK",
    "postal_code": "34875"
  },
  {
    "village_code": "24097",
    "village": "WAY JAMBU",
    "postal_code": "34875"
  }
]