[
  {
    "village_code": "52460",
    "village": "DELO",
    "postal_code": "85391"
  },
  {
    "village_code": "52469",
    "village": "DEPE",
    "postal_code": "85391"
  },
  {
    "village_code": "52493",
    "village": "DJADU",
    "postal_code": "85391"
  },
  {
    "village_code": "53248",
    "village": "LEDEANA",
    "postal_code": "85391"
  },
  {
    "village_code": "53251",
    "village": "LEDEKEPAKA",
    "postal_code": "85391"
  },
  {
    "village_code": "53615",
    "village": "MEBBA",
    "postal_code": "85391"
  },
  {
    "village_code": "53625",
    "village": "MENIA",
    "postal_code": "85391"
  },
  {
    "village_code": "53686",
    "village": "NAAWAWI",
    "postal_code": "85391"
  },
  {
    "village_code": "54329",
    "village": "RAEDEWA",
    "postal_code": "85391"
  },
  {
    "village_code": "54330",
    "village": "RAELORO",
    "postal_code": "85391"
  },
  {
    "village_code": "54332",
    "village": "RAEMADIA",
    "postal_code": "85391"
  },
  {
    "village_code": "54333",
    "village": "RAEMUDE",
    "postal_code": "85391"
  },
  {
    "village_code": "54334",
    "village": "RAENALULU",
    "postal_code": "85391"
  },
  {
    "village_code": "54335",
    "village": "RAENYALE",
    "postal_code": "85391"
  },
  {
    "village_code": "54441",
    "village": "ROBOABA",
    "postal_code": "85391"
  },
  {
    "village_code": "54732",
    "village": "TERIWU",
    "postal_code": "85391"
  },
  {
    "village_code": "54759",
    "village": "TITINALEDE",
    "postal_code": "85391"
  }
]