[
  {
    "village_code": "31365",
    "village": "BANCAK",
    "postal_code": "59156"
  },
  {
    "village_code": "32674",
    "village": "GADU",
    "postal_code": "59156"
  },
  {
    "village_code": "32690",
    "village": "GAJIHAN",
    "postal_code": "59156"
  },
  {
    "village_code": "32927",
    "village": "GILING",
    "postal_code": "59156"
  },
  {
    "village_code": "33119",
    "village": "GULANGPUNGGE",
    "postal_code": "59156"
  },
  {
    "village_code": "33207",
    "village": "GUNUNGWUNGKAL",
    "postal_code": "59156"
  },
  {
    "village_code": "33465",
    "village": "JEMBULWUNUT",
    "postal_code": "59156"
  },
  {
    "village_code": "33487",
    "village": "JEPALO",
    "postal_code": "59156"
  },
  {
    "village_code": "33641",
    "village": "JRAHI",
    "postal_code": "59156"
  },
  {
    "village_code": "36285",
    "village": "NGETUK",
    "postal_code": "59156"
  },
  {
    "village_code": "36930",
    "village": "PERDOPO",
    "postal_code": "59156"
  },
  {
    "village_code": "36936",
    "village": "PESAGEN",
    "postal_code": "59156"
  },
  {
    "village_code": "37680",
    "village": "SAMPOK",
    "postal_code": "59156"
  },
  {
    "village_code": "38089",
    "village": "SIDOMULYO",
    "postal_code": "59156"
  },
  {
    "village_code": "38529",
    "village": "SUMBEREJO",
    "postal_code": "59156"
  }
]