[
  {
    "village_code": "31420",
    "village": "BANGSALREJO",
    "postal_code": "59152"
  },
  {
    "village_code": "32085",
    "village": "BUMIAYU",
    "postal_code": "59152"
  },
  {
    "village_code": "33373",
    "village": "JATIMULYO",
    "postal_code": "59152"
  },
  {
    "village_code": "33522",
    "village": "JETAK",
    "postal_code": "59152"
  },
  {
    "village_code": "33631",
    "village": "JONTRO",
    "postal_code": "59152"
  },
  {
    "village_code": "34927",
    "village": "KEPOH",
    "postal_code": "59152"
  },
  {
    "village_code": "35789",
    "village": "MARGOREJO",
    "postal_code": "59152"
  },
  {
    "village_code": "36358",
    "village": "NGURENREJO",
    "postal_code": "59152"
  },
  {
    "village_code": "36359",
    "village": "NGURENSITI",
    "postal_code": "59152"
  },
  {
    "village_code": "36456",
    "village": "PAGERHARJO",
    "postal_code": "59152"
  },
  {
    "village_code": "36608",
    "village": "PANGGUNGROYOM",
    "postal_code": "59152"
  },
  {
    "village_code": "38058",
    "village": "SIDOHARJO",
    "postal_code": "59152"
  },
  {
    "village_code": "38450",
    "village": "SUKOHARJO",
    "postal_code": "59152"
  },
  {
    "village_code": "38644",
    "village": "SUWADUK",
    "postal_code": "59152"
  },
  {
    "village_code": "38867",
    "village": "TAWANGHARJO",
    "postal_code": "59152"
  },
  {
    "village_code": "39163",
    "village": "TLOGOHARUM",
    "postal_code": "59152"
  },
  {
    "village_code": "39211",
    "village": "TLUWUK",
    "postal_code": "59152"
  },
  {
    "village_code": "39512",
    "village": "WEDARIJAKSA",
    "postal_code": "59152"
  }
]