[
  {
    "village_code": "31698",
    "village": "BENDOKATON KIDUL",
    "postal_code": "59155"
  },
  {
    "village_code": "32056",
    "village": "BULUNGAN",
    "postal_code": "59155"
  },
  {
    "village_code": "32583",
    "village": "DOROREJO",
    "postal_code": "59155"
  },
  {
    "village_code": "33493",
    "village": "JEPAT KIDUL",
    "postal_code": "59155"
  },
  {
    "village_code": "33494",
    "village": "JEPAT LOR",
    "postal_code": "59155"
  },
  {
    "village_code": "33855",
    "village": "KALIKALONG",
    "postal_code": "59155"
  },
  {
    "village_code": "34582",
    "village": "KEBOROMO",
    "postal_code": "59155"
  },
  {
    "village_code": "34665",
    "village": "KEDUNGBANG",
    "postal_code": "59155"
  },
  {
    "village_code": "34729",
    "village": "KEDUNGSARI",
    "postal_code": "59155"
  },
  {
    "village_code": "35626",
    "village": "LUWANG",
    "postal_code": "59155"
  },
  {
    "village_code": "35785",
    "village": "MARGOMULYO",
    "postal_code": "59155"
  },
  {
    "village_code": "36507",
    "village": "PAKIS",
    "postal_code": "59155"
  },
  {
    "village_code": "37146",
    "village": "PONDOWAN",
    "postal_code": "59155"
  },
  {
    "village_code": "37287",
    "village": "PUNDENREJO",
    "postal_code": "59155"
  },
  {
    "village_code": "37364",
    "village": "PURWOKERTO",
    "postal_code": "59155"
  },
  {
    "village_code": "37644",
    "village": "SAMBIROTO",
    "postal_code": "59155"
  },
  {
    "village_code": "37929",
    "village": "SENDANGREJO",
    "postal_code": "59155"
  },
  {
    "village_code": "38886",
    "village": "TAYUKULON",
    "postal_code": "59155"
  },
  {
    "village_code": "38887",
    "village": "TAYUWETAN",
    "postal_code": "59155"
  },
  {
    "village_code": "39044",
    "village": "TENDAS",
    "postal_code": "59155"
  },
  {
    "village_code": "39348",
    "village": "TUNGGULSARI",
    "postal_code": "59155"
  }
]