[
  {
    "village_code": "31793",
    "village": "BLEBER",
    "postal_code": "59157"
  },
  {
    "village_code": "32899",
    "village": "GERIT",
    "postal_code": "59157"
  },
  {
    "village_code": "32903",
    "village": "GESENGAN",
    "postal_code": "59157"
  },
  {
    "village_code": "34363",
    "village": "KARANGSARI",
    "postal_code": "59157"
  },
  {
    "village_code": "35815",
    "village": "MEDANI",
    "postal_code": "59157"
  },
  {
    "village_code": "35960",
    "village": "MOJO",
    "postal_code": "59157"
  },
  {
    "village_code": "36122",
    "village": "NGABLAK",
    "postal_code": "59157"
  },
  {
    "village_code": "36231",
    "village": "NGAWEN",
    "postal_code": "59157"
  },
  {
    "village_code": "36744",
    "village": "PAYAK",
    "postal_code": "59157"
  },
  {
    "village_code": "37032",
    "village": "PLAOSAN",
    "postal_code": "59157"
  },
  {
    "village_code": "37953",
    "village": "SENTUL",
    "postal_code": "59157"
  },
  {
    "village_code": "38216",
    "village": "SIRAHAN",
    "postal_code": "59157"
  },
  {
    "village_code": "38581",
    "village": "SUMUR",
    "postal_code": "59157"
  }
]