[
  {
    "village_code": "32139",
    "village": "CABAK",
    "postal_code": "59161"
  },
  {
    "village_code": "33196",
    "village": "GUNUNGSARI",
    "postal_code": "59161"
  },
  {
    "village_code": "33211",
    "village": "GUWO",
    "postal_code": "59161"
  },
  {
    "village_code": "35128",
    "village": "KLUMPIT",
    "postal_code": "59161"
  },
  {
    "village_code": "35415",
    "village": "LAHAR",
    "postal_code": "59161"
  },
  {
    "village_code": "37398",
    "village": "PURWOSARI",
    "postal_code": "59161"
  },
  {
    "village_code": "37475",
    "village": "REGALOH",
    "postal_code": "59161"
  },
  {
    "village_code": "37637",
    "village": "SAMBIREJO",
    "postal_code": "59161"
  },
  {
    "village_code": "38555",
    "village": "SUMBERMULYO",
    "postal_code": "59161"
  },
  {
    "village_code": "38647",
    "village": "SUWATU",
    "postal_code": "59161"
  },
  {
    "village_code": "38660",
    "village": "TAJUNGSARI",
    "postal_code": "59161"
  },
  {
    "village_code": "38688",
    "village": "TAMANSARI",
    "postal_code": "59161"
  },
  {
    "village_code": "39189",
    "village": "TLOGOREJO",
    "postal_code": "59161"
  },
  {
    "village_code": "39196",
    "village": "TLOGOSARI",
    "postal_code": "59161"
  },
  {
    "village_code": "39663",
    "village": "WONOREJO",
    "postal_code": "59161"
  }
]