[
  {
    "village_code": "13592",
    "village": "BAGAN JAYA",
    "postal_code": "29272"
  },
  {
    "village_code": "13872",
    "village": "ENOK",
    "postal_code": "29272"
  },
  {
    "village_code": "13948",
    "village": "JAYA BHAKTI",
    "postal_code": "29272"
  },
  {
    "village_code": "14416",
    "village": "PANTAI SEBERANG MAKMUR",
    "postal_code": "29272"
  },
  {
    "village_code": "14513",
    "village": "PENGALIHAN",
    "postal_code": "29272"
  },
  {
    "village_code": "14636",
    "village": "PUSARAN",
    "postal_code": "29272"
  },
  {
    "village_code": "14674",
    "village": "RANTAU PANJANG",
    "postal_code": "29272"
  },
  {
    "village_code": "14918",
    "village": "SIMPANG TIGA",
    "postal_code": "29272"
  },
  {
    "village_code": "14916",
    "village": "SIMPANG TIGA DARATAN",
    "postal_code": "29272"
  },
  {
    "village_code": "14950",
    "village": "SUHADA",
    "postal_code": "29272"
  },
  {
    "village_code": "14994",
    "village": "SUNGAI AMBAT",
    "postal_code": "29272"
  },
  {
    "village_code": "15046",
    "village": "SUNGAI LOKAN",
    "postal_code": "29272"
  },
  {
    "village_code": "15073",
    "village": "SUNGAI RUKAM",
    "postal_code": "29272"
  },
  {
    "village_code": "15284",
    "village": "TELUK MEDAN",
    "postal_code": "29272"
  }
]