[
  {
    "village_code": "13712",
    "village": "BAYAS JAYA",
    "postal_code": "29261"
  },
  {
    "village_code": "13835",
    "village": "DANAU PULAI INDAH",
    "postal_code": "29261"
  },
  {
    "village_code": "13917",
    "village": "HARAPAN TANI",
    "postal_code": "29261"
  },
  {
    "village_code": "13991",
    "village": "KARYA TANI",
    "postal_code": "29261"
  },
  {
    "village_code": "14026",
    "village": "KEMPAS JAYA",
    "postal_code": "29261"
  },
  {
    "village_code": "14052",
    "village": "KERTA JAYA",
    "postal_code": "29261"
  },
  {
    "village_code": "14145",
    "village": "KULIM JAYA",
    "postal_code": "29261"
  },
  {
    "village_code": "14479",
    "village": "PEKAN TUA",
    "postal_code": "29261"
  },
  {
    "village_code": "14719",
    "village": "RUMBAI JAYA",
    "postal_code": "29261"
  },
  {
    "village_code": "14998",
    "village": "SUNGAI ARAH",
    "postal_code": "29261"
  },
  {
    "village_code": "15021",
    "village": "SUNGAI GANTANG",
    "postal_code": "29261"
  },
  {
    "village_code": "15065",
    "village": "SUNGAI RABIT",
    "postal_code": "29261"
  }
]