[
  {
    "village_code": "13744",
    "village": "BERINGIN MULYA",
    "postal_code": "29255"
  },
  {
    "village_code": "13885",
    "village": "GEMBARAN",
    "postal_code": "29255"
  },
  {
    "village_code": "13896",
    "village": "GRIYA MUKTI JAYA",
    "postal_code": "29255"
  },
  {
    "village_code": "13920",
    "village": "HIBRIDA JAYA",
    "postal_code": "29255"
  },
  {
    "village_code": "13921",
    "village": "HIBRIDA MULYA",
    "postal_code": "29255"
  },
  {
    "village_code": "13931",
    "village": "INDRA SARI JAYA",
    "postal_code": "29255"
  },
  {
    "village_code": "14011",
    "village": "KELAPA PATIH JAYA",
    "postal_code": "29255"
  },
  {
    "village_code": "14728",
    "village": "SAKA ROTAN",
    "postal_code": "29255"
  },
  {
    "village_code": "14742",
    "village": "SAPTA MULYA JAYA",
    "postal_code": "29255"
  },
  {
    "village_code": "14985",
    "village": "SUMBER JAYA",
    "postal_code": "29255"
  },
  {
    "village_code": "14986",
    "village": "SUMBER MAKMUR JAYA",
    "postal_code": "29255"
  },
  {
    "village_code": "14988",
    "village": "SUMBER SARI JAYA",
    "postal_code": "29255"
  },
  {
    "village_code": "15360",
    "village": "TUNGGAL RAHAYU JAYA",
    "postal_code": "29255"
  }
]