[
  {
    "village_code": "58937",
    "village": "BANJAR BARU",
    "postal_code": "71252"
  },
  {
    "village_code": "58951",
    "village": "BANUA HANYAR",
    "postal_code": "71252"
  },
  {
    "village_code": "59000",
    "village": "BARUH JAYA",
    "postal_code": "71252"
  },
  {
    "village_code": "59057",
    "village": "BAYANAN",
    "postal_code": "71252"
  },
  {
    "village_code": "59275",
    "village": "HABIRAU",
    "postal_code": "71252"
  },
  {
    "village_code": "59274",
    "village": "HABIRAU TENGAH",
    "postal_code": "71252"
  },
  {
    "village_code": "59828",
    "village": "MUNING BARU",
    "postal_code": "71252"
  },
  {
    "village_code": "59829",
    "village": "MUNING DALAM",
    "postal_code": "71252"
  },
  {
    "village_code": "59830",
    "village": "MUNING TENGAH",
    "postal_code": "71252"
  },
  {
    "village_code": "59938",
    "village": "PANDAN SARI",
    "postal_code": "71252"
  },
  {
    "village_code": "59989",
    "village": "PARIGI",
    "postal_code": "71252"
  },
  {
    "village_code": "60084",
    "village": "PIHANIN RAYA",
    "postal_code": "71252"
  },
  {
    "village_code": "60214",
    "village": "SAMUDA",
    "postal_code": "71252"
  },
  {
    "village_code": "60339",
    "village": "SEI / SUNGAI PINANG",
    "postal_code": "71252"
  },
  {
    "village_code": "60570",
    "village": "TAMBANGAN",
    "postal_code": "71252"
  },
  {
    "village_code": "60734",
    "village": "TUMBUKAN BANYU",
    "postal_code": "71252"
  }
]