[
  {
    "village_code": "48694",
    "village": "ALASWANGI",
    "postal_code": "42262"
  },
  {
    "village_code": "48910",
    "village": "CIGANDENG",
    "postal_code": "42262"
  },
  {
    "village_code": "48977",
    "village": "CILABANBULAN",
    "postal_code": "42262"
  },
  {
    "village_code": "49266",
    "village": "KADUPAYUNG",
    "postal_code": "42262"
  },
  {
    "village_code": "49293",
    "village": "KANANGA",
    "postal_code": "42262"
  },
  {
    "village_code": "49591",
    "village": "MENES",
    "postal_code": "42262"
  },
  {
    "village_code": "49609",
    "village": "MURUY",
    "postal_code": "42262"
  },
  {
    "village_code": "49849",
    "village": "PURWARAJA",
    "postal_code": "42262"
  },
  {
    "village_code": "49857",
    "village": "RAMAYA",
    "postal_code": "42262"
  },
  {
    "village_code": "49972",
    "village": "SINDANGKARYA",
    "postal_code": "42262"
  },
  {
    "village_code": "50059",
    "village": "SUKAMANAH",
    "postal_code": "42262"
  },
  {
    "village_code": "50176",
    "village": "TEGALWANGI",
    "postal_code": "42262"
  }
]