[
  {
    "village_code": "48705",
    "village": "BABADSARI",
    "postal_code": "42263"
  },
  {
    "village_code": "48756",
    "village": "BANYURESMI",
    "postal_code": "42263"
  },
  {
    "village_code": "49072",
    "village": "CITAMAN",
    "postal_code": "42263"
  },
  {
    "village_code": "49198",
    "village": "JANAKA",
    "postal_code": "42263"
  },
  {
    "village_code": "49209",
    "village": "JAYAMEKAR",
    "postal_code": "42263"
  },
  {
    "village_code": "49218",
    "village": "JIPUT",
    "postal_code": "42263"
  },
  {
    "village_code": "49673",
    "village": "PAMARAYAN",
    "postal_code": "42263"
  },
  {
    "village_code": "49894",
    "village": "SALAPRAYA",
    "postal_code": "42263"
  },
  {
    "village_code": "49900",
    "village": "SAMPANGBITUNG",
    "postal_code": "42263"
  },
  {
    "village_code": "49957",
    "village": "SIKULAN",
    "postal_code": "42263"
  },
  {
    "village_code": "50031",
    "village": "SUKACAI",
    "postal_code": "42263"
  },
  {
    "village_code": "50056",
    "village": "SUKAMANAH",
    "postal_code": "42263"
  },
  {
    "village_code": "50187",
    "village": "TENJOLAHANG",
    "postal_code": "42263"
  }
]