[
  {
    "village_code": "48725",
    "village": "BAMA",
    "postal_code": "42265"
  },
  {
    "village_code": "48829",
    "village": "BULAGOR",
    "postal_code": "42265"
  },
  {
    "village_code": "49181",
    "village": "HARAPANKARYA",
    "postal_code": "42265"
  },
  {
    "village_code": "49323",
    "village": "KARTASANA",
    "postal_code": "42265"
  },
  {
    "village_code": "49535",
    "village": "MARGAGIRI",
    "postal_code": "42265"
  },
  {
    "village_code": "49541",
    "village": "MARGASANA",
    "postal_code": "42265"
  },
  {
    "village_code": "49596",
    "village": "MONTOR",
    "postal_code": "42265"
  },
  {
    "village_code": "22922",
    "village": "PAGELARAN",
    "postal_code": "42265"
  },
  {
    "village_code": "49936",
    "village": "SENANGSARI",
    "postal_code": "42265"
  },
  {
    "village_code": "49976",
    "village": "SINDANGLAYA",
    "postal_code": "42265"
  },
  {
    "village_code": "50033",
    "village": "SUKADAME",
    "postal_code": "42265"
  },
  {
    "village_code": "50114",
    "village": "SURAKARTA",
    "postal_code": "42265"
  },
  {
    "village_code": "50172",
    "village": "TEGALPAPAK",
    "postal_code": "42265"
  }
]