[
  {
    "village_code": "48768",
    "village": "BATUHIDEUNG",
    "postal_code": "42284"
  },
  {
    "village_code": "48875",
    "village": "CIBADAK",
    "postal_code": "42284"
  },
  {
    "village_code": "48901",
    "village": "CIBURIAL",
    "postal_code": "42284"
  },
  {
    "village_code": "48933",
    "village": "CIJARALANG",
    "postal_code": "42284"
  },
  {
    "village_code": "26484",
    "village": "CIMANGGU",
    "postal_code": "42284"
  },
  {
    "village_code": "49419",
    "village": "KRAMATJAYA",
    "postal_code": "42284"
  },
  {
    "village_code": "49524",
    "village": "MANGKUALAM",
    "postal_code": "42284"
  },
  {
    "village_code": "49641",
    "village": "PADASUKA",
    "postal_code": "42284"
  },
  {
    "village_code": "49868",
    "village": "RANCAPINANG",
    "postal_code": "42284"
  },
  {
    "village_code": "50149",
    "village": "TANGKILSARI",
    "postal_code": "42284"
  },
  {
    "village_code": "50202",
    "village": "TUGU",
    "postal_code": "42284"
  },
  {
    "village_code": "50231",
    "village": "WARINGINKURUNG",
    "postal_code": "42284"
  }
]