[
  {
    "village_code": "48841",
    "village": "CADASARI",
    "postal_code": "42251"
  },
  {
    "village_code": "48929",
    "village": "CIINJUK",
    "postal_code": "42251"
  },
  {
    "village_code": "48960",
    "village": "CIKENTRUNG",
    "postal_code": "42251"
  },
  {
    "village_code": "49251",
    "village": "KADUELA",
    "postal_code": "42251"
  },
  {
    "village_code": "49252",
    "village": "KADUENGANG",
    "postal_code": "42251"
  },
  {
    "village_code": "49336",
    "village": "KAUNGCAANG",
    "postal_code": "42251"
  },
  {
    "village_code": "49404",
    "village": "KORANJI",
    "postal_code": "42251"
  },
  {
    "village_code": "49444",
    "village": "KURUNGDAHU",
    "postal_code": "42251"
  },
  {
    "village_code": "49776",
    "village": "PASIRPEUTEUY",
    "postal_code": "42251"
  },
  {
    "village_code": "50145",
    "village": "TANAGARA",
    "postal_code": "42251"
  },
  {
    "village_code": "50162",
    "village": "TAPOS",
    "postal_code": "42251"
  }
]