[
  {
    "village_code": "64183",
    "village": "BANCEA",
    "postal_code": "94664"
  },
  {
    "village_code": "64189",
    "village": "BANGUN JAYA",
    "postal_code": "94664"
  },
  {
    "village_code": "64268",
    "village": "BOE",
    "postal_code": "94664"
  },
  {
    "village_code": "65018",
    "village": "MAYA JAYA",
    "postal_code": "94664"
  },
  {
    "village_code": "65019",
    "village": "MAYA SARI",
    "postal_code": "94664"
  },
  {
    "village_code": "65022",
    "village": "MAYOA",
    "postal_code": "94664"
  },
  {
    "village_code": "65233",
    "village": "PANDA JAYA",
    "postal_code": "94664"
  },
  {
    "village_code": "65238",
    "village": "PANDAYORA",
    "postal_code": "94664"
  },
  {
    "village_code": "65252",
    "village": "PANJO",
    "postal_code": "94664"
  },
  {
    "village_code": "65269",
    "village": "PASIR PUTIH",
    "postal_code": "94664"
  },
  {
    "village_code": "65288",
    "village": "PENDOLO",
    "postal_code": "94664"
  },
  {
    "village_code": "65905",
    "village": "UELENE",
    "postal_code": "94664"
  }
]