[
  {
    "village_code": "64206",
    "village": "BATEGENCU",
    "postal_code": "94661"
  },
  {
    "village_code": "64725",
    "village": "LABUAN",
    "postal_code": "94661"
  },
  {
    "village_code": "64934",
    "village": "MALEI",
    "postal_code": "94661"
  },
  {
    "village_code": "64949",
    "village": "MALIWUKO",
    "postal_code": "94661"
  },
  {
    "village_code": "65242",
    "village": "PANDIRI",
    "postal_code": "94661"
  },
  {
    "village_code": "65490",
    "village": "SEPE",
    "postal_code": "94661"
  },
  {
    "village_code": "65536",
    "village": "SILANCA",
    "postal_code": "94661"
  },
  {
    "village_code": "65564",
    "village": "SINTUWULEMBA",
    "postal_code": "94661"
  },
  {
    "village_code": "65629",
    "village": "TAGOLU",
    "postal_code": "94661"
  },
  {
    "village_code": "65651",
    "village": "TAMBARO",
    "postal_code": "94661"
  },
  {
    "village_code": "65662",
    "village": "TAMPEMADORO",
    "postal_code": "94661"
  },
  {
    "village_code": "65771",
    "village": "TIYADO (TOYADO)",
    "postal_code": "94661"
  },
  {
    "village_code": "65851",
    "village": "TONGKO",
    "postal_code": "94661"
  },
  {
    "village_code": "65969",
    "village": "WATUAWU",
    "postal_code": "94661"
  }
]