[
  {
    "village_code": "64219",
    "village": "BEGA",
    "postal_code": "94652"
  },
  {
    "village_code": "64235",
    "village": "BETANIA",
    "postal_code": "94652"
  },
  {
    "village_code": "64598",
    "village": "KASIGUNCU",
    "postal_code": "94652"
  },
  {
    "village_code": "64772",
    "village": "LANTO JAYA",
    "postal_code": "94652"
  },
  {
    "village_code": "64776",
    "village": "LAPE",
    "postal_code": "94652"
  },
  {
    "village_code": "64985",
    "village": "MAPANE",
    "postal_code": "94652"
  },
  {
    "village_code": "64997",
    "village": "MASAMBA",
    "postal_code": "94652"
  },
  {
    "village_code": "64998",
    "village": "MASANI",
    "postal_code": "94652"
  },
  {
    "village_code": "65309",
    "village": "PINEDAPA I",
    "postal_code": "94652"
  },
  {
    "village_code": "65398",
    "village": "SAATU",
    "postal_code": "94652"
  },
  {
    "village_code": "65770",
    "village": "TIWAA",
    "postal_code": "94652"
  },
  {
    "village_code": "65795",
    "village": "TOINI",
    "postal_code": "94652"
  },
  {
    "village_code": "65801",
    "village": "TOKORONDO",
    "postal_code": "94652"
  },
  {
    "village_code": "65880",
    "village": "TOWU (TOWO)",
    "postal_code": "94652"
  }
]