[
  {
    "village_code": "309",
    "village": "ANGKEO",
    "postal_code": "23892"
  },
  {
    "village_code": "404",
    "village": "AWE KECIL",
    "postal_code": "23892"
  },
  {
    "village_code": "405",
    "village": "AWE SEUBAL",
    "postal_code": "23892"
  },
  {
    "village_code": "1163",
    "village": "BUNON",
    "postal_code": "23892"
  },
  {
    "village_code": "2078",
    "village": "INOR",
    "postal_code": "23892"
  },
  {
    "village_code": "2846",
    "village": "LAAYON",
    "postal_code": "23892"
  },
  {
    "village_code": "3153",
    "village": "LANTIK",
    "postal_code": "23892"
  },
  {
    "village_code": "3167",
    "village": "LAUBANG (LEUBANG)",
    "postal_code": "23892"
  },
  {
    "village_code": "3267",
    "village": "LEUBANG HULU",
    "postal_code": "23892"
  },
  {
    "village_code": "3697",
    "village": "MAUDIL",
    "postal_code": "23892"
  },
  {
    "village_code": "4170",
    "village": "NAIBOS",
    "postal_code": "23892"
  },
  {
    "village_code": "4179",
    "village": "NANCALA",
    "postal_code": "23892"
  },
  {
    "village_code": "4873",
    "village": "PULAU TEUPAH",
    "postal_code": "23892"
  },
  {
    "village_code": "5262",
    "village": "SALUR",
    "postal_code": "23892"
  },
  {
    "village_code": "5260",
    "village": "SALUR LASENGALU",
    "postal_code": "23892"
  },
  {
    "village_code": "5261",
    "village": "SALUR LATUN",
    "postal_code": "23892"
  },
  {
    "village_code": "5579",
    "village": "SILENGAS",
    "postal_code": "23892"
  },
  {
    "village_code": "5654",
    "village": "SITAL",
    "postal_code": "23892"
  }
]