[
  {
    "village_code": "72566",
    "village": "BALATAN",
    "postal_code": "97665"
  },
  {
    "village_code": "72575",
    "village": "BASADA",
    "postal_code": "97665"
  },
  {
    "village_code": "72639",
    "village": "DOSINAMALAU",
    "postal_code": "97665"
  },
  {
    "village_code": "72814",
    "village": "KAIWABAR",
    "postal_code": "97665"
  },
  {
    "village_code": "72840",
    "village": "KARAWAI (KARAWAIN)",
    "postal_code": "97665"
  },
  {
    "village_code": "72898",
    "village": "KOBROR",
    "postal_code": "97665"
  },
  {
    "village_code": "72899",
    "village": "KOIJABI",
    "postal_code": "97665"
  },
  {
    "village_code": "73003",
    "village": "LOLA",
    "postal_code": "97665"
  },
  {
    "village_code": "73053",
    "village": "MARIRI",
    "postal_code": "97665"
  },
  {
    "village_code": "73221",
    "village": "PONOM",
    "postal_code": "97665"
  },
  {
    "village_code": "73541",
    "village": "WAILAY",
    "postal_code": "97665"
  },
  {
    "village_code": "73596",
    "village": "WARJUKUR",
    "postal_code": "97665"
  },
  {
    "village_code": "73598",
    "village": "WARLOY",
    "postal_code": "97665"
  }
]