[
  {
    "village_code": "52147",
    "village": "BALI LEDO",
    "postal_code": "87284"
  },
  {
    "village_code": "52273",
    "village": "BERA DOLU",
    "postal_code": "87284"
  },
  {
    "village_code": "52457",
    "village": "DEDE KADU",
    "postal_code": "87284"
  },
  {
    "village_code": "52489",
    "village": "DIRA TANA",
    "postal_code": "87284"
  },
  {
    "village_code": "52497",
    "village": "DOKA KAKA",
    "postal_code": "87284"
  },
  {
    "village_code": "53400",
    "village": "LODA PARE",
    "postal_code": "87284"
  },
  {
    "village_code": "53494",
    "village": "MANOLA",
    "postal_code": "87284"
  },
  {
    "village_code": "54568",
    "village": "SOBA WAWI",
    "postal_code": "87284"
  },
  {
    "village_code": "54641",
    "village": "TANA RARA",
    "postal_code": "87284"
  },
  {
    "village_code": "54710",
    "village": "TEMA TANA",
    "postal_code": "87284"
  },
  {
    "village_code": "54873",
    "village": "UBU PEDE",
    "postal_code": "87284"
  },
  {
    "village_code": "54874",
    "village": "UBU RAYA",
    "postal_code": "87284"
  },
  {
    "village_code": "55091",
    "village": "WEE DABO",
    "postal_code": "87284"
  },
  {
    "village_code": "55093",
    "village": "WEE KAROU",
    "postal_code": "87284"
  }
]