[
  {
    "village_code": "66423",
    "village": "BONTO ATU",
    "postal_code": "92451"
  },
  {
    "village_code": "66435",
    "village": "BONTO CINDE",
    "postal_code": "92451"
  },
  {
    "village_code": "66438",
    "village": "BONTO JAI",
    "postal_code": "92451"
  },
  {
    "village_code": "66439",
    "village": "BONTO JAYA",
    "postal_code": "92451"
  },
  {
    "village_code": "66444",
    "village": "BONTO LANGKASA",
    "postal_code": "92451"
  },
  {
    "village_code": "66447",
    "village": "BONTO LEBANG",
    "postal_code": "92451"
  },
  {
    "village_code": "66451",
    "village": "BONTO LOE",
    "postal_code": "92451"
  },
  {
    "village_code": "66458",
    "village": "BONTO MANAI",
    "postal_code": "92451"
  },
  {
    "village_code": "66478",
    "village": "BONTO RITA",
    "postal_code": "92451"
  },
  {
    "village_code": "66480",
    "village": "BONTO SALLUANG",
    "postal_code": "92451"
  },
  {
    "village_code": "66483",
    "village": "BONTO SUNGGU",
    "postal_code": "92451"
  }
]