[
  {
    "village_code": "31372",
    "village": "BANDARJO",
    "postal_code": "50517"
  },
  {
    "village_code": "31960",
    "village": "BRANJANG",
    "postal_code": "50519"
  },
  {
    "village_code": "32189",
    "village": "CANDIREJO",
    "postal_code": "50513"
  },
  {
    "village_code": "32890",
    "village": "GENUK",
    "postal_code": "50512"
  },
  {
    "village_code": "33013",
    "village": "GOGIK",
    "postal_code": "50551"
  },
  {
    "village_code": "33968",
    "village": "KALISIDI",
    "postal_code": "50519"
  },
  {
    "village_code": "34778",
    "village": "KEJI",
    "postal_code": "50519"
  },
  {
    "village_code": "35442",
    "village": "LANGENSARI",
    "postal_code": "50518"
  },
  {
    "village_code": "35543",
    "village": "LEREP",
    "postal_code": "50519"
  },
  {
    "village_code": "36382",
    "village": "NYATNYONO",
    "postal_code": "50551"
  },
  {
    "village_code": "39398",
    "village": "UNGARAN",
    "postal_code": "50511"
  }
]