[
  {
    "village_code": "31654",
    "village": "BEJATEN",
    "postal_code": "50771"
  },
  {
    "village_code": "31709",
    "village": "BENDUNGAN",
    "postal_code": "50771"
  },
  {
    "village_code": "32928",
    "village": "GILING",
    "postal_code": "50771"
  },
  {
    "village_code": "32993",
    "village": "GLAWAN",
    "postal_code": "50771"
  },
  {
    "village_code": "33464",
    "village": "JEMBRAK",
    "postal_code": "50771"
  },
  {
    "village_code": "33710",
    "village": "KADIREJO",
    "postal_code": "50771"
  },
  {
    "village_code": "34211",
    "village": "KARANGGONDANG",
    "postal_code": "50771"
  },
  {
    "village_code": "34473",
    "village": "KAUMAN LOR",
    "postal_code": "50771"
  },
  {
    "village_code": "36389",
    "village": "PABELAN",
    "postal_code": "50771"
  },
  {
    "village_code": "36405",
    "village": "PADAAN",
    "postal_code": "50771"
  },
  {
    "village_code": "37782",
    "village": "SEGIRI",
    "postal_code": "50771"
  },
  {
    "village_code": "37881",
    "village": "SEMOWO",
    "postal_code": "50771"
  },
  {
    "village_code": "38445",
    "village": "SUKOHARJO",
    "postal_code": "50771"
  },
  {
    "village_code": "38540",
    "village": "SUMBEREJO",
    "postal_code": "50771"
  },
  {
    "village_code": "39069",
    "village": "TERBAN",
    "postal_code": "50771"
  },
  {
    "village_code": "39312",
    "village": "TUKANG",
    "postal_code": "50771"
  },
  {
    "village_code": "39378",
    "village": "UJUNG-UJUNG",
    "postal_code": "50771"
  }
]