[
  {
    "village_code": "32078",
    "village": "BUMEN",
    "postal_code": "50662"
  },
  {
    "village_code": "32173",
    "village": "CANDIGARON",
    "postal_code": "50662"
  },
  {
    "village_code": "32645",
    "village": "DUREN",
    "postal_code": "50662"
  },
  {
    "village_code": "33648",
    "village": "JUBELAN",
    "postal_code": "50662"
  },
  {
    "village_code": "34544",
    "village": "KEBONAGUNG",
    "postal_code": "50123"
  },
  {
    "village_code": "34803",
    "village": "KEMAWI",
    "postal_code": "50662"
  },
  {
    "village_code": "34851",
    "village": "KEMITIR",
    "postal_code": "50662"
  },
  {
    "village_code": "34991",
    "village": "KESENENG",
    "postal_code": "50662"
  },
  {
    "village_code": "35457",
    "village": "LANJAN",
    "postal_code": "50662"
  },
  {
    "village_code": "35601",
    "village": "LOSARI",
    "postal_code": "50611"
  },
  {
    "village_code": "35858",
    "village": "MENDONGAN",
    "postal_code": "50662"
  },
  {
    "village_code": "36130",
    "village": "NGADIKERSO",
    "postal_code": "50662"
  },
  {
    "village_code": "37017",
    "village": "PIYANGGANG",
    "postal_code": "50662"
  },
  {
    "village_code": "37039",
    "village": "PLEDOKAN",
    "postal_code": "50662"
  },
  {
    "village_code": "38574",
    "village": "SUMOWONO",
    "postal_code": "50662"
  },
  {
    "village_code": "39251",
    "village": "TRAYU",
    "postal_code": "50662"
  }
]