[
  {
    "village_code": "67049",
    "village": "KARASSIK",
    "postal_code": "91835"
  },
  {
    "village_code": "67126",
    "village": "LAANG TANDUK",
    "postal_code": "91834"
  },
  {
    "village_code": "67368",
    "village": "LIMBONG",
    "postal_code": "91835"
  },
  {
    "village_code": "67465",
    "village": "MALANGO",
    "postal_code": "91831"
  },
  {
    "village_code": "67716",
    "village": "MENTIRO TIKU",
    "postal_code": "91834"
  },
  {
    "village_code": "68004",
    "village": "PASELE",
    "postal_code": "91831"
  },
  {
    "village_code": "68082",
    "village": "PENANIAN",
    "postal_code": "91835"
  },
  {
    "village_code": "68221",
    "village": "RANTE PASELE",
    "postal_code": "91835"
  },
  {
    "village_code": "68232",
    "village": "RANTEPAO",
    "postal_code": "91831"
  },
  {
    "village_code": "68316",
    "village": "SALOSO",
    "postal_code": "91835"
  },
  {
    "village_code": "68472",
    "village": "SINGKI",
    "postal_code": "91835"
  }
]