[
  {
    "village_code": "68410",
    "village": "SA\\ DAN ANDULAN",
    "postal_code": "91853"
  },
  {
    "village_code": "68411",
    "village": "SA\\ DAN BALLOPASANGE",
    "postal_code": "91853"
  },
  {
    "village_code": "68412",
    "village": "SA\\ DAN LIKU LAMBE",
    "postal_code": "91853"
  },
  {
    "village_code": "68413",
    "village": "SA\\ DAN MALIMBONG",
    "postal_code": "91853"
  },
  {
    "village_code": "68414",
    "village": "SA\\ DAN MATALLO",
    "postal_code": "91853"
  },
  {
    "village_code": "68415",
    "village": "SA\\ DAN PEBULIAN",
    "postal_code": "91853"
  },
  {
    "village_code": "68416",
    "village": "SA\\ DAN PESONDONGAN",
    "postal_code": "91853"
  },
  {
    "village_code": "68417",
    "village": "SA\\ DAN SANGKAROPI",
    "postal_code": "91853"
  },
  {
    "village_code": "68418",
    "village": "SA\\ DAN TIROALLO",
    "postal_code": "91853"
  },
  {
    "village_code": "68419",
    "village": "SA\\ DAN ULUSALU",
    "postal_code": "91853"
  }
]