[
  {
    "village_code": "492",
    "village": "BALEE GANTUNG",
    "postal_code": "24183"
  },
  {
    "village_code": "760",
    "village": "BLANG BAROH",
    "postal_code": "24183"
  },
  {
    "village_code": "1157",
    "village": "BUNGONG",
    "postal_code": "24183"
  },
  {
    "village_code": "1478",
    "village": "DABOIH",
    "postal_code": "24183"
  },
  {
    "village_code": "1902",
    "village": "GEUNTENG",
    "postal_code": "24183"
  },
  {
    "village_code": "1930",
    "village": "GLUMPANG BUNGKOK",
    "postal_code": "24183"
  },
  {
    "village_code": "2207",
    "village": "JURONG BARO",
    "postal_code": "24183"
  },
  {
    "village_code": "2712",
    "village": "KUMBANG TRUEUNG CAMPLI",
    "postal_code": "24183"
  },
  {
    "village_code": "2713",
    "village": "KUMBANG UNOE",
    "postal_code": "24183"
  },
  {
    "village_code": "3564",
    "village": "MANYANG",
    "postal_code": "24183"
  },
  {
    "village_code": "3719",
    "village": "MEE TEUMPEN (MEU TEUMPEUN)",
    "postal_code": "24183"
  },
  {
    "village_code": "4309",
    "village": "PALONG",
    "postal_code": "24183"
  },
  {
    "village_code": "4918",
    "village": "PULO IBOIH",
    "postal_code": "24183"
  },
  {
    "village_code": "4952",
    "village": "PULO PANJOE",
    "postal_code": "24183"
  },
  {
    "village_code": "5245",
    "village": "SAGOE",
    "postal_code": "24183"
  },
  {
    "village_code": "5278",
    "village": "SANGGET (SANGET)",
    "postal_code": "24183"
  },
  {
    "village_code": "5386",
    "village": "SEUKEE",
    "postal_code": "24183"
  },
  {
    "village_code": "5539",
    "village": "SEUREUKUI CEBREK",
    "postal_code": "24183"
  },
  {
    "village_code": "5765",
    "village": "SUKON PAKU",
    "postal_code": "24183"
  },
  {
    "village_code": "6219",
    "village": "U BUNGKOK (U BANGKOK)",
    "postal_code": "24183"
  },
  {
    "village_code": "6308",
    "village": "UKEE",
    "postal_code": "24183"
  }
]