[
  {
    "village_code": "66049",
    "village": "ANDULAN",
    "postal_code": "91992"
  },
  {
    "village_code": "66398",
    "village": "BOLU",
    "postal_code": "91992"
  },
  {
    "village_code": "66683",
    "village": "BUNTU BATU",
    "postal_code": "91992"
  },
  {
    "village_code": "67032",
    "village": "KANNA",
    "postal_code": "91992"
  },
  {
    "village_code": "67031",
    "village": "KANNA UTARA",
    "postal_code": "91992"
  },
  {
    "village_code": "67221",
    "village": "LANGE",
    "postal_code": "91992"
  },
  {
    "village_code": "67294",
    "village": "LEDAN",
    "postal_code": "91992"
  },
  {
    "village_code": "67383",
    "village": "LISSAGA",
    "postal_code": "91992"
  },
  {
    "village_code": "67567",
    "village": "MAPPETAJANG",
    "postal_code": "91992"
  },
  {
    "village_code": "68468",
    "village": "SINAJI",
    "postal_code": "91992"
  },
  {
    "village_code": "68548",
    "village": "TABI",
    "postal_code": "91992"
  },
  {
    "village_code": "68790",
    "village": "TO LONG",
    "postal_code": "91992"
  }
]