[
  {
    "village_code": "66104",
    "village": "BAJO",
    "postal_code": "91995"
  },
  {
    "village_code": "66135",
    "village": "BALLA",
    "postal_code": "91995"
  },
  {
    "village_code": "66679",
    "village": "BUNTU BABANG",
    "postal_code": "91995"
  },
  {
    "village_code": "66904",
    "village": "JAMBU",
    "postal_code": "91995"
  },
  {
    "village_code": "67224",
    "village": "LANGKIDDI",
    "postal_code": "91995"
  },
  {
    "village_code": "67929",
    "village": "PANGI",
    "postal_code": "91995"
  },
  {
    "village_code": "68272",
    "village": "RUMAJU",
    "postal_code": "91995"
  },
  {
    "village_code": "68287",
    "village": "SAGA",
    "postal_code": "91995"
  },
  {
    "village_code": "68359",
    "village": "SAMPA",
    "postal_code": "91995"
  },
  {
    "village_code": "68364",
    "village": "SAMULANG",
    "postal_code": "91995"
  },
  {
    "village_code": "68514",
    "village": "SUMABU",
    "postal_code": "91995"
  },
  {
    "village_code": "68577",
    "village": "TALLANG BULAWANG",
    "postal_code": "91995"
  }
]