[
  {
    "village_code": "66193",
    "village": "BARANA",
    "postal_code": "91992"
  },
  {
    "village_code": "66422",
    "village": "BONGLO",
    "postal_code": "91992"
  },
  {
    "village_code": "66710",
    "village": "BUNTU TALLANG",
    "postal_code": "91992"
  },
  {
    "village_code": "66798",
    "village": "DAMPAN",
    "postal_code": "91992"
  },
  {
    "village_code": "67051",
    "village": "KARATUAN",
    "postal_code": "91992"
  },
  {
    "village_code": "67448",
    "village": "MAINDO",
    "postal_code": "91992"
  },
  {
    "village_code": "67945",
    "village": "PANTILANG",
    "postal_code": "91992"
  },
  {
    "village_code": "68331",
    "village": "SALUBUA",
    "postal_code": "91992"
  },
  {
    "village_code": "68711",
    "village": "TA\\BA",
    "postal_code": "91992"
  },
  {
    "village_code": "68701",
    "village": "TASANGTONGKONAN",
    "postal_code": "91992"
  },
  {
    "village_code": "68716",
    "village": "TEDE",
    "postal_code": "91992"
  },
  {
    "village_code": "68951",
    "village": "URASU (URASO)",
    "postal_code": "91992"
  }
]