[
  {
    "village_code": "66362",
    "village": "BILANTE",
    "postal_code": "91997"
  },
  {
    "village_code": "66368",
    "village": "BINTURU",
    "postal_code": "91997"
  },
  {
    "village_code": "66625",
    "village": "BUKIT SUTTA (SUTERA)",
    "postal_code": "91997"
  },
  {
    "village_code": "66700",
    "village": "BUNTU MATABBING (MATABING)",
    "postal_code": "91997"
  },
  {
    "village_code": "66703",
    "village": "BUNTU PASIK",
    "postal_code": "91997"
  },
  {
    "village_code": "67111",
    "village": "KOMBA",
    "postal_code": "91997"
  },
  {
    "village_code": "67110",
    "village": "KOMBA SELATAN",
    "postal_code": "91997"
  },
  {
    "village_code": "67253",
    "village": "LAROMPONG",
    "postal_code": "91997"
  },
  {
    "village_code": "67407",
    "village": "LUMARING",
    "postal_code": "91997"
  },
  {
    "village_code": "68212",
    "village": "RANTE ALANG",
    "postal_code": "91997"
  },
  {
    "village_code": "68226",
    "village": "RANTEBELU",
    "postal_code": "91997"
  },
  {
    "village_code": "68262",
    "village": "RIWANG",
    "postal_code": "91997"
  },
  {
    "village_code": "68261",
    "village": "RIWANG SELATAN",
    "postal_code": "91997"
  }
]