[
  {
    "village_code": "66333",
    "village": "BENTENG",
    "postal_code": "91252"
  },
  {
    "village_code": "67334",
    "village": "LEPPANGANG",
    "postal_code": "91252"
  },
  {
    "village_code": "67429",
    "village": "MACCIRINNA",
    "postal_code": "91252"
  },
  {
    "village_code": "67480",
    "village": "MALIMPUNG",
    "postal_code": "91252"
  },
  {
    "village_code": "67624",
    "village": "MASOLO",
    "postal_code": "91252"
  },
  {
    "village_code": "67658",
    "village": "MATTIRO ADE",
    "postal_code": "91252"
  },
  {
    "village_code": "67832",
    "village": "PADANGLOANG",
    "postal_code": "91252"
  },
  {
    "village_code": "68104",
    "village": "PINCARA",
    "postal_code": "91252"
  },
  {
    "village_code": "68477",
    "village": "SIPATUO",
    "postal_code": "91252"
  },
  {
    "village_code": "68746",
    "village": "TEPPO",
    "postal_code": "91252"
  },
  {
    "village_code": "68863",
    "village": "TONYAMANG",
    "postal_code": "91252"
  }
]