[
  {
    "village_code": "75077",
    "village": "ARSO KOTA",
    "postal_code": "99468"
  },
  {
    "village_code": "75078",
    "village": "ARSO SWAKARSA (ASIAMAN)",
    "postal_code": "99468"
  },
  {
    "village_code": "75187",
    "village": "BAGIA (PIR 3)",
    "postal_code": "99468"
  },
  {
    "village_code": "75720",
    "village": "DUKWIA (ARSO 8)",
    "postal_code": "99468"
  },
  {
    "village_code": "76221",
    "village": "IFIA-FIA (ARSO 11)",
    "postal_code": "99468"
  },
  {
    "village_code": "76927",
    "village": "KWIMI (KWIME)",
    "postal_code": "99468"
  },
  {
    "village_code": "77526",
    "village": "NAWA (SAWANAWA)",
    "postal_code": "99468"
  },
  {
    "village_code": "78169",
    "village": "SANGGARIA (ARSO 1)",
    "postal_code": "99468"
  },
  {
    "village_code": "78224",
    "village": "SAWIATAMI (SAWYATAMI)",
    "postal_code": "99468"
  },
  {
    "village_code": "78809",
    "village": "UBIYAU",
    "postal_code": "99468"
  },
  {
    "village_code": "79079",
    "village": "WARBO (ARSO 7)",
    "postal_code": "99468"
  },
  {
    "village_code": "79306",
    "village": "WORKWANA",
    "postal_code": "99468"
  },
  {
    "village_code": "79448",
    "village": "YAMMUA (YAMUA / ARSO 6)",
    "postal_code": "99468"
  },
  {
    "village_code": "79453",
    "village": "YAMTA (PIR 2)",
    "postal_code": "99468"
  },
  {
    "village_code": "79456",
    "village": "YANAMA (PIR 1)",
    "postal_code": "99468"
  },
  {
    "village_code": "79492",
    "village": "YATURAHARJA (ARSO 10)",
    "postal_code": "99468"
  },
  {
    "village_code": "79663",
    "village": "YUWANAIM (ARSO 2)",
    "postal_code": "99468"
  }
]