[
  {
    "village_code": "76630",
    "village": "KIBAY",
    "postal_code": "99468"
  },
  {
    "village_code": "76814",
    "village": "KRIKU",
    "postal_code": "99468"
  },
  {
    "village_code": "78049",
    "village": "PYAWI (WEMBI LUAR)",
    "postal_code": "99468"
  },
  {
    "village_code": "78171",
    "village": "SANGKE",
    "postal_code": "99468"
  },
  {
    "village_code": "78377",
    "village": "SKOFRO",
    "postal_code": "99468"
  },
  {
    "village_code": "78504",
    "village": "SUSKUN (WAMBES DALAM)",
    "postal_code": "99468"
  },
  {
    "village_code": "78996",
    "village": "WAMBES LUAR",
    "postal_code": "99468"
  },
  {
    "village_code": "79154",
    "village": "WEMBI DALAM",
    "postal_code": "99468"
  },
  {
    "village_code": "79296",
    "village": "WONOREJO (PIR 4)",
    "postal_code": "99468"
  },
  {
    "village_code": "79434",
    "village": "YAMARA (PIR 5)",
    "postal_code": "99468"
  },
  {
    "village_code": "79562",
    "village": "YETTY",
    "postal_code": "99468"
  }
]