[
  {
    "village_code": "71169",
    "village": "AYUHULALO",
    "postal_code": "96263"
  },
  {
    "village_code": "71177",
    "village": "BAJO",
    "postal_code": "96263"
  },
  {
    "village_code": "71385",
    "village": "HUNGAYONAA",
    "postal_code": "96263"
  },
  {
    "village_code": "71466",
    "village": "LAHUMBO",
    "postal_code": "96263"
  },
  {
    "village_code": "71471",
    "village": "LAMU",
    "postal_code": "96263"
  },
  {
    "village_code": "71496",
    "village": "LIMBATO",
    "postal_code": "96263"
  },
  {
    "village_code": "71551",
    "village": "MODELOMO",
    "postal_code": "96263"
  },
  {
    "village_code": "71553",
    "village": "MOHUNGO",
    "postal_code": "96263"
  },
  {
    "village_code": "71667",
    "village": "PENTADU BARAT",
    "postal_code": "96263"
  },
  {
    "village_code": "71668",
    "village": "PENTADU TIMUR",
    "postal_code": "96263"
  },
  {
    "village_code": "71680",
    "village": "PILOLIYANGA",
    "postal_code": "96263"
  },
  {
    "village_code": "71801",
    "village": "TENILO",
    "postal_code": "96263"
  }
]