[
  {
    "village_code": "31351",
    "village": "BAMBAN",
    "postal_code": "59261"
  },
  {
    "village_code": "31431",
    "village": "BANGUNREJO",
    "postal_code": "59261"
  },
  {
    "village_code": "32701",
    "village": "GAMBIRAN",
    "postal_code": "59261"
  },
  {
    "village_code": "32804",
    "village": "GEGERSIMO",
    "postal_code": "59261"
  },
  {
    "village_code": "33318",
    "village": "JAPEREJO",
    "postal_code": "59261"
  },
  {
    "village_code": "33597",
    "village": "JOHO",
    "postal_code": "59261"
  },
  {
    "village_code": "34928",
    "village": "KEPOHAGUNG",
    "postal_code": "59261"
  },
  {
    "village_code": "35014",
    "village": "KETANGI",
    "postal_code": "59261"
  },
  {
    "village_code": "35827",
    "village": "MEGAL",
    "postal_code": "59261"
  },
  {
    "village_code": "35927",
    "village": "MLAGEN",
    "postal_code": "59261"
  },
  {
    "village_code": "35941",
    "village": "MLAWAT",
    "postal_code": "59261"
  },
  {
    "village_code": "36267",
    "village": "NGEMPLAKREJO",
    "postal_code": "59261"
  },
  {
    "village_code": "36538",
    "village": "PAMOTAN",
    "postal_code": "59261"
  },
  {
    "village_code": "37161",
    "village": "PRAGEN",
    "postal_code": "59261"
  },
  {
    "village_code": "37534",
    "village": "RINGIN",
    "postal_code": "59261"
  },
  {
    "village_code": "37610",
    "village": "SAMARAN",
    "postal_code": "59261"
  },
  {
    "village_code": "37784",
    "village": "SEGOROMULYO",
    "postal_code": "59261"
  },
  {
    "village_code": "37904",
    "village": "SENDANGAGUNG",
    "postal_code": "59261"
  },
  {
    "village_code": "38114",
    "village": "SIDOREJO",
    "postal_code": "59261"
  },
  {
    "village_code": "38497",
    "village": "SUMBANGREJO",
    "postal_code": "59261"
  },
  {
    "village_code": "38549",
    "village": "SUMBERJO",
    "postal_code": "59261"
  },
  {
    "village_code": "39011",
    "village": "TEMPALING",
    "postal_code": "59261"
  },
  {
    "village_code": "39321",
    "village": "TULUNG",
    "postal_code": "59261"
  }
]