[
  {
    "village_code": "31854",
    "village": "BOGOREJO",
    "postal_code": "59253"
  },
  {
    "village_code": "33081",
    "village": "GRAWAN",
    "postal_code": "59253"
  },
  {
    "village_code": "33257",
    "village": "JADI",
    "postal_code": "59253"
  },
  {
    "village_code": "33344",
    "village": "JATIHADI",
    "postal_code": "59253"
  },
  {
    "village_code": "34662",
    "village": "KEDUNGASEM",
    "postal_code": "59253"
  },
  {
    "village_code": "34740",
    "village": "KEDUNGTULUP",
    "postal_code": "59253"
  },
  {
    "village_code": "35255",
    "village": "KRIKILAN",
    "postal_code": "59253"
  },
  {
    "village_code": "35581",
    "village": "LOGEDE",
    "postal_code": "59253"
  },
  {
    "village_code": "35582",
    "village": "LOGUNG",
    "postal_code": "59253"
  },
  {
    "village_code": "35834",
    "village": "MEGULUNG",
    "postal_code": "59253"
  },
  {
    "village_code": "36839",
    "village": "PELEMSARI",
    "postal_code": "59253"
  },
  {
    "village_code": "37123",
    "village": "POLBAYEM",
    "postal_code": "59253"
  },
  {
    "village_code": "37439",
    "village": "RANDUAGUNG",
    "postal_code": "59253"
  },
  {
    "village_code": "37552",
    "village": "RONGGOMULYO",
    "postal_code": "59253"
  },
  {
    "village_code": "37790",
    "village": "SEKARSARI",
    "postal_code": "59253"
  },
  {
    "village_code": "38474",
    "village": "SUKOREJO",
    "postal_code": "59253"
  },
  {
    "village_code": "30632",
    "village": "SUMBER",
    "postal_code": "59253"
  },
  {
    "village_code": "39200",
    "village": "TLOGOTUNGGAL",
    "postal_code": "59253"
  }
]