[
  {
    "village_code": "39792",
    "village": "BOJONG",
    "postal_code": "55655"
  },
  {
    "village_code": "39797",
    "village": "BUGEL",
    "postal_code": "55655"
  },
  {
    "village_code": "39809",
    "village": "CERME",
    "postal_code": "55655"
  },
  {
    "village_code": "39817",
    "village": "DEPOK",
    "postal_code": "55655"
  },
  {
    "village_code": "39828",
    "village": "GARONGAN",
    "postal_code": "55655"
  },
  {
    "village_code": "39857",
    "village": "GOTAKAN",
    "postal_code": "55655"
  },
  {
    "village_code": "39895",
    "village": "KANOMAN",
    "postal_code": "55655"
  },
  {
    "village_code": "39934",
    "village": "KREMBANGAN",
    "postal_code": "55655"
  },
  {
    "village_code": "40000",
    "village": "PANJATAN",
    "postal_code": "55655"
  },
  {
    "village_code": "40017",
    "village": "PLERET",
    "postal_code": "55655"
  },
  {
    "village_code": "40129",
    "village": "TAYUBAN",
    "postal_code": "55655"
  }
]