[
  {
    "village_code": "16994",
    "village": "AIR ITAM",
    "postal_code": "30652"
  },
  {
    "village_code": "17256",
    "village": "BUBUSAN",
    "postal_code": "30652"
  },
  {
    "village_code": "17584",
    "village": "JEJAWI",
    "postal_code": "30652"
  },
  {
    "village_code": "17627",
    "village": "KARANG AGUNG",
    "postal_code": "30652"
  },
  {
    "village_code": "17973",
    "village": "LINGKIS",
    "postal_code": "30652"
  },
  {
    "village_code": "18014",
    "village": "LUBUK KETEPENG",
    "postal_code": "30652"
  },
  {
    "village_code": "18237",
    "village": "MUARA BATUN",
    "postal_code": "30652"
  },
  {
    "village_code": "18596",
    "village": "PEDU",
    "postal_code": "30652"
  },
  {
    "village_code": "18620",
    "village": "PEMATANG KIJANG",
    "postal_code": "30652"
  },
  {
    "village_code": "19053",
    "village": "SIMPANG EMPAT",
    "postal_code": "30652"
  },
  {
    "village_code": "19248",
    "village": "SUKADARMA",
    "postal_code": "30652"
  },
  {
    "village_code": "19523",
    "village": "TALANG CEMPEDAK",
    "postal_code": "30652"
  },
  {
    "village_code": "19626",
    "village": "TANJUNG ALAI",
    "postal_code": "30652"
  },
  {
    "village_code": "19636",
    "village": "TANJUNG AUR",
    "postal_code": "30652"
  },
  {
    "village_code": "19918",
    "village": "TERUSAN JAWA",
    "postal_code": "30652"
  },
  {
    "village_code": "20032",
    "village": "ULAK TEMBAGA",
    "postal_code": "30652"
  }
]