[
  {
    "village_code": "17215",
    "village": "BERINGIN JAYA",
    "postal_code": "30681"
  },
  {
    "village_code": "17244",
    "village": "BINAKARSA (BHINA KARSA)",
    "postal_code": "30681"
  },
  {
    "village_code": "17314",
    "village": "CAHAYA MAS",
    "postal_code": "30681"
  },
  {
    "village_code": "17315",
    "village": "CAHAYA MULYA",
    "postal_code": "30681"
  },
  {
    "village_code": "17328",
    "village": "CATUR TUNGGAL",
    "postal_code": "30681"
  },
  {
    "village_code": "17422",
    "village": "GADING SARI",
    "postal_code": "30681"
  },
  {
    "village_code": "17616",
    "village": "KAMPUNG BARU",
    "postal_code": "30681"
  },
  {
    "village_code": "17719",
    "village": "KARYA JAYA",
    "postal_code": "30681"
  },
  {
    "village_code": "17736",
    "village": "KARYA USAHA",
    "postal_code": "30681"
  },
  {
    "village_code": "17920",
    "village": "LABUHAN JAYA",
    "postal_code": "30681"
  },
  {
    "village_code": "18223",
    "village": "MESUJI JAYA",
    "postal_code": "30681"
  },
  {
    "village_code": "18333",
    "village": "MUKTI KARYA",
    "postal_code": "30681"
  },
  {
    "village_code": "18615",
    "village": "PEMATANG BINA TANI",
    "postal_code": "30681"
  },
  {
    "village_code": "18619",
    "village": "PEMATANG JAYA",
    "postal_code": "30681"
  },
  {
    "village_code": "18624",
    "village": "PEMATANG SARI",
    "postal_code": "30681"
  },
  {
    "village_code": "18625",
    "village": "PEMATANG SUKARAMAH",
    "postal_code": "30681"
  },
  {
    "village_code": "18626",
    "village": "PEMATANG SUKATANI",
    "postal_code": "30681"
  },
  {
    "village_code": "19377",
    "village": "SUMBER MULYA",
    "postal_code": "30681"
  },
  {
    "village_code": "19485",
    "village": "SURYA KARTA",
    "postal_code": "30681"
  },
  {
    "village_code": "19870",
    "village": "TEGAL SARI",
    "postal_code": "30681"
  }
]