[
  {
    "village_code": "17277",
    "village": "BUMI AGUNG",
    "postal_code": "30657"
  },
  {
    "village_code": "17281",
    "village": "BUMI ARJO",
    "postal_code": "30657"
  },
  {
    "village_code": "17317",
    "village": "CAHYA BUMI",
    "postal_code": "30657"
  },
  {
    "village_code": "17318",
    "village": "CAHYA MAJU",
    "postal_code": "30657"
  },
  {
    "village_code": "17354",
    "village": "DABUK REJO",
    "postal_code": "30657"
  },
  {
    "village_code": "17816",
    "village": "KEPAHYANG",
    "postal_code": "30657"
  },
  {
    "village_code": "17916",
    "village": "KUTA PANDAN",
    "postal_code": "30657"
  },
  {
    "village_code": "18172",
    "village": "MEKAR JAYA",
    "postal_code": "30657"
  },
  {
    "village_code": "19099",
    "village": "SINDANG SARI",
    "postal_code": "30657"
  },
  {
    "village_code": "19279",
    "village": "SUKAMULYA",
    "postal_code": "30657"
  },
  {
    "village_code": "19350",
    "village": "SUMBER AGUNG",
    "postal_code": "30657"
  },
  {
    "village_code": "19860",
    "village": "TEBING SULUH",
    "postal_code": "30657"
  },
  {
    "village_code": "19959",
    "village": "TUGU AGUNG",
    "postal_code": "30657"
  },
  {
    "village_code": "19961",
    "village": "TUGU JAYA",
    "postal_code": "30657"
  },
  {
    "village_code": "19965",
    "village": "TUGUMULYO",
    "postal_code": "30657"
  },
  {
    "village_code": "19967",
    "village": "TULUNG HARAPAN",
    "postal_code": "30657"
  }
]