[
  {
    "village_code": "17310",
    "village": "BURNAI TIMUR",
    "postal_code": "30672"
  },
  {
    "village_code": "17338",
    "village": "CINTA JAYA",
    "postal_code": "30672"
  },
  {
    "village_code": "18196",
    "village": "MENANG RAYA",
    "postal_code": "30672"
  },
  {
    "village_code": "18587",
    "village": "PEDAMARAN I",
    "postal_code": "30672"
  },
  {
    "village_code": "18588",
    "village": "PEDAMARAN II",
    "postal_code": "30672"
  },
  {
    "village_code": "18589",
    "village": "PEDAMARAN III",
    "postal_code": "30672"
  },
  {
    "village_code": "18590",
    "village": "PEDAMARAN IV",
    "postal_code": "30672"
  },
  {
    "village_code": "18591",
    "village": "PEDAMARAN V",
    "postal_code": "30672"
  },
  {
    "village_code": "18592",
    "village": "PEDAMARAN VI",
    "postal_code": "30672"
  },
  {
    "village_code": "19004",
    "village": "SERINANTI",
    "postal_code": "30672"
  },
  {
    "village_code": "19233",
    "village": "SUKA PULIH",
    "postal_code": "30672"
  },
  {
    "village_code": "19246",
    "village": "SUKADAMAI",
    "postal_code": "30672"
  },
  {
    "village_code": "19306",
    "village": "SUKARAJA",
    "postal_code": "30672"
  }
]