[
  {
    "village_code": "17335",
    "village": "CENGAL",
    "postal_code": "30658"
  },
  {
    "village_code": "17887",
    "village": "KUALA SUNGAI JERUJU",
    "postal_code": "30658"
  },
  {
    "village_code": "17888",
    "village": "KUALA SUNGAI PASIR",
    "postal_code": "30658"
  },
  {
    "village_code": "18610",
    "village": "PELIMBANGAN",
    "postal_code": "30658"
  },
  {
    "village_code": "19422",
    "village": "SUNGAI JERUJU",
    "postal_code": "30658"
  },
  {
    "village_code": "19425",
    "village": "SUNGAI KETUPAK",
    "postal_code": "30658"
  },
  {
    "village_code": "19435",
    "village": "SUNGAI LUMPUR",
    "postal_code": "30658"
  },
  {
    "village_code": "19442",
    "village": "SUNGAI PASIR",
    "postal_code": "30658"
  },
  {
    "village_code": "19460",
    "village": "SUNGAI SOMOR",
    "postal_code": "30658"
  },
  {
    "village_code": "19558",
    "village": "TALANG RIMBA",
    "postal_code": "30658"
  },
  {
    "village_code": "20006",
    "village": "ULAK KEDONDONG",
    "postal_code": "30658"
  }
]