[
  {
    "village_code": "17579",
    "village": "JAYA BHAKTI",
    "postal_code": "30681"
  },
  {
    "village_code": "17610",
    "village": "KALI DERAS",
    "postal_code": "30681"
  },
  {
    "village_code": "17727",
    "village": "KARYA MUKTI",
    "postal_code": "30681"
  },
  {
    "village_code": "17802",
    "village": "KEMBANG JAJAR",
    "postal_code": "30681"
  },
  {
    "village_code": "17864",
    "village": "KOTA BARU",
    "postal_code": "30681"
  },
  {
    "village_code": "18087",
    "village": "MAKARTI MULYA",
    "postal_code": "30681"
  },
  {
    "village_code": "18114",
    "village": "MARGA BAKTI (MARGO BHAKTI)",
    "postal_code": "30681"
  },
  {
    "village_code": "18184",
    "village": "MEKAR WANGI",
    "postal_code": "30681"
  },
  {
    "village_code": "18465",
    "village": "PAGAR DEWA",
    "postal_code": "30681"
  },
  {
    "village_code": "18623",
    "village": "PEMATANG PANGGANG",
    "postal_code": "30681"
  },
  {
    "village_code": "19221",
    "village": "SUKA MUKTI",
    "postal_code": "30681"
  },
  {
    "village_code": "19356",
    "village": "SUMBER DERAS",
    "postal_code": "30681"
  },
  {
    "village_code": "19459",
    "village": "SUNGAI SODONG",
    "postal_code": "30681"
  },
  {
    "village_code": "19484",
    "village": "SURYA ADI",
    "postal_code": "30681"
  }
]