[
  {
    "village_code": "17956",
    "village": "LEMPUING INDAH",
    "postal_code": "30657"
  },
  {
    "village_code": "18028",
    "village": "LUBUK MAKMUR",
    "postal_code": "30657"
  },
  {
    "village_code": "18051",
    "village": "LUBUK SEBERUK",
    "postal_code": "30657"
  },
  {
    "village_code": "18240",
    "village": "MUARA BURNAI I",
    "postal_code": "30657"
  },
  {
    "village_code": "18241",
    "village": "MUARA BURNAI II",
    "postal_code": "30657"
  },
  {
    "village_code": "18335",
    "village": "MUKTI SARI",
    "postal_code": "30657"
  },
  {
    "village_code": "18780",
    "village": "PURWO ASRI",
    "postal_code": "30657"
  },
  {
    "village_code": "18814",
    "village": "RANTAU DURIAN I",
    "postal_code": "30657"
  },
  {
    "village_code": "18815",
    "village": "RANTAU DURIAN II",
    "postal_code": "30657"
  },
  {
    "village_code": "19199",
    "village": "SUKA JAYA",
    "postal_code": "30657"
  },
  {
    "village_code": "19206",
    "village": "SUKA MAJU",
    "postal_code": "30657"
  },
  {
    "village_code": "19409",
    "village": "SUNGAI BELIDA",
    "postal_code": "30657"
  },
  {
    "village_code": "19608",
    "village": "TANIA MAKMUR",
    "postal_code": "30657"
  },
  {
    "village_code": "19807",
    "village": "TANJUNG SARI I",
    "postal_code": "30657"
  },
  {
    "village_code": "19808",
    "village": "TANJUNG SARI II",
    "postal_code": "30657"
  }
]