[
  {
    "village_code": "64147",
    "village": "BALANGGALA",
    "postal_code": "94684"
  },
  {
    "village_code": "64158",
    "village": "BALINGARA",
    "postal_code": "94684"
  },
  {
    "village_code": "64194",
    "village": "BANTUGA",
    "postal_code": "94684"
  },
  {
    "village_code": "64319",
    "village": "BORONE",
    "postal_code": "94684"
  },
  {
    "village_code": "64354",
    "village": "BULAN JAYA",
    "postal_code": "94684"
  },
  {
    "village_code": "64483",
    "village": "GIRI MULYO",
    "postal_code": "94684"
  },
  {
    "village_code": "64539",
    "village": "KAJULANGKO",
    "postal_code": "94684"
  },
  {
    "village_code": "64883",
    "village": "LONGGE",
    "postal_code": "94684"
  },
  {
    "village_code": "64978",
    "village": "MANTANGISI",
    "postal_code": "94684"
  },
  {
    "village_code": "65091",
    "village": "MPOA",
    "postal_code": "94684"
  },
  {
    "village_code": "65373",
    "village": "PUSUNGI",
    "postal_code": "94684"
  },
  {
    "village_code": "65403",
    "village": "SABO",
    "postal_code": "94684"
  },
  {
    "village_code": "65597",
    "village": "SUKAMAJU",
    "postal_code": "94684"
  },
  {
    "village_code": "65659",
    "village": "TAMPABATU",
    "postal_code": "94684"
  },
  {
    "village_code": "65725",
    "village": "TETE ATAS",
    "postal_code": "94684"
  },
  {
    "village_code": "65726",
    "village": "TETE BAWAH",
    "postal_code": "94684"
  },
  {
    "village_code": "65900",
    "village": "UEBONE",
    "postal_code": "94684"
  },
  {
    "village_code": "65907",
    "village": "UEMAKUNI",
    "postal_code": "94684"
  },
  {
    "village_code": "65941",
    "village": "URUNDAKA",
    "postal_code": "94684"
  },
  {
    "village_code": "65958",
    "village": "WANASARI",
    "postal_code": "94684"
  }
]