[
  {
    "village_code": "64301",
    "village": "BONEBAE I",
    "postal_code": "94682"
  },
  {
    "village_code": "64302",
    "village": "BONEBAE II",
    "postal_code": "94682"
  },
  {
    "village_code": "64309",
    "village": "BONEVETO (BONEVOTO)",
    "postal_code": "94682"
  },
  {
    "village_code": "64311",
    "village": "BONGKA KOY (KOI)",
    "postal_code": "94682"
  },
  {
    "village_code": "64312",
    "village": "BONGKA MAKMUR",
    "postal_code": "94682"
  },
  {
    "village_code": "64318",
    "village": "BORNEANG",
    "postal_code": "94682"
  },
  {
    "village_code": "64399",
    "village": "CEMPA",
    "postal_code": "94682"
  },
  {
    "village_code": "64597",
    "village": "KASIALA",
    "postal_code": "94682"
  },
  {
    "village_code": "64993",
    "village": "MAROWO",
    "postal_code": "94682"
  },
  {
    "village_code": "65055",
    "village": "MIRE",
    "postal_code": "94682"
  },
  {
    "village_code": "65260",
    "village": "PARANONGE",
    "postal_code": "94682"
  },
  {
    "village_code": "65392",
    "village": "ROMPI",
    "postal_code": "94682"
  },
  {
    "village_code": "65634",
    "village": "TAKIBANGKE",
    "postal_code": "94682"
  },
  {
    "village_code": "65660",
    "village": "TAMPANOMBO",
    "postal_code": "94682"
  },
  {
    "village_code": "65774",
    "village": "TOBAMAWU",
    "postal_code": "94682"
  },
  {
    "village_code": "65903",
    "village": "UEKAMBUNO",
    "postal_code": "94682"
  },
  {
    "village_code": "65909",
    "village": "UEMATOPA",
    "postal_code": "94682"
  },
  {
    "village_code": "65976",
    "village": "WATUSONGU",
    "postal_code": "94682"
  }
]