[
  {
    "village_code": "52040",
    "village": "ADOBALA",
    "postal_code": "86262"
  },
  {
    "village_code": "52777",
    "village": "HINGA",
    "postal_code": "86262"
  },
  {
    "village_code": "52797",
    "village": "HORINARA",
    "postal_code": "86262"
  },
  {
    "village_code": "52985",
    "village": "KELUWAIN",
    "postal_code": "86262"
  },
  {
    "village_code": "53175",
    "village": "LAMABUNGA",
    "postal_code": "86262"
  },
  {
    "village_code": "53188",
    "village": "LAMAPAHA",
    "postal_code": "86262"
  },
  {
    "village_code": "53488",
    "village": "MANGAALENG",
    "postal_code": "86262"
  },
  {
    "village_code": "53666",
    "village": "MUDA",
    "postal_code": "86262"
  },
  {
    "village_code": "53888",
    "village": "NISAKARANG",
    "postal_code": "86262"
  },
  {
    "village_code": "54211",
    "village": "PEPAK KELU",
    "postal_code": "86262"
  },
  {
    "village_code": "54393",
    "village": "REDONTENA",
    "postal_code": "86262"
  },
  {
    "village_code": "54591",
    "village": "SUKUTOKAN",
    "postal_code": "86262"
  }
]