[
  {
    "village_code": "52101",
    "village": "ARANSINA",
    "postal_code": "86252"
  },
  {
    "village_code": "52130",
    "village": "BAHINGA",
    "postal_code": "86252"
  },
  {
    "village_code": "52161",
    "village": "BANDONA",
    "postal_code": "86252"
  },
  {
    "village_code": "52627",
    "village": "GEKENGDERAN",
    "postal_code": "86252"
  },
  {
    "village_code": "53036",
    "village": "KOLAKA",
    "postal_code": "86252"
  },
  {
    "village_code": "53186",
    "village": "LAMANABI",
    "postal_code": "86252"
  },
  {
    "village_code": "53192",
    "village": "LAMATUTU",
    "postal_code": "86252"
  },
  {
    "village_code": "53232",
    "village": "LATON LIWO",
    "postal_code": "86252"
  },
  {
    "village_code": "53233",
    "village": "LATONLIWO DUA",
    "postal_code": "86252"
  },
  {
    "village_code": "53327",
    "village": "LEWOBUNGA",
    "postal_code": "86252"
  },
  {
    "village_code": "53975",
    "village": "NUSANIPA",
    "postal_code": "86252"
  },
  {
    "village_code": "54189",
    "village": "PATISIRAWALANG",
    "postal_code": "86252"
  },
  {
    "village_code": "54389",
    "village": "RATU LODONG",
    "postal_code": "86252"
  },
  {
    "village_code": "54553",
    "village": "SINA HADIGALA",
    "postal_code": "86252"
  },
  {
    "village_code": "54554",
    "village": "SINAMALAKA",
    "postal_code": "86252"
  },
  {
    "village_code": "54961",
    "village": "WAIBAO",
    "postal_code": "86252"
  }
]