[
  {
    "village_code": "52223",
    "village": "BAYUNTAA",
    "postal_code": "86253"
  },
  {
    "village_code": "52369",
    "village": "BORU",
    "postal_code": "86253"
  },
  {
    "village_code": "52368",
    "village": "BORU KEDANG",
    "postal_code": "86253"
  },
  {
    "village_code": "52499",
    "village": "DOKENG",
    "postal_code": "86253"
  },
  {
    "village_code": "52772",
    "village": "HEWA",
    "postal_code": "86253"
  },
  {
    "village_code": "52787",
    "village": "HOKENG JAYA",
    "postal_code": "86253"
  },
  {
    "village_code": "53015",
    "village": "KLATANLO",
    "postal_code": "86253"
  },
  {
    "village_code": "53321",
    "village": "LEWAT",
    "postal_code": "86253"
  },
  {
    "village_code": "53777",
    "village": "NAWOKOTE",
    "postal_code": "86253"
  },
  {
    "village_code": "53877",
    "village": "NILEKNOHENG",
    "postal_code": "86253"
  },
  {
    "village_code": "53900",
    "village": "NOBO",
    "postal_code": "86253"
  },
  {
    "village_code": "54100",
    "village": "OJANDETUN",
    "postal_code": "86253"
  },
  {
    "village_code": "54166",
    "village": "PANTAI OA",
    "postal_code": "86253"
  },
  {
    "village_code": "54299",
    "village": "PULULERA",
    "postal_code": "86253"
  },
  {
    "village_code": "55002",
    "village": "WAIULA",
    "postal_code": "86253"
  }
]