[
  {
    "village_code": "52244",
    "village": "BELIKO (BLIKO)",
    "postal_code": "86261"
  },
  {
    "village_code": "52951",
    "village": "KAWELA",
    "postal_code": "86261"
  },
  {
    "village_code": "53019",
    "village": "KLUKENGNUKING",
    "postal_code": "86261"
  },
  {
    "village_code": "53778",
    "village": "NAYUBAYA",
    "postal_code": "86261"
  },
  {
    "village_code": "54128",
    "village": "OYANGBARANG",
    "postal_code": "86261"
  },
  {
    "village_code": "54158",
    "village": "PANDAI",
    "postal_code": "86261"
  },
  {
    "village_code": "54484",
    "village": "SAMASOGE",
    "postal_code": "86261"
  },
  {
    "village_code": "54647",
    "village": "TANAH TUKAN",
    "postal_code": "86261"
  },
  {
    "village_code": "54774",
    "village": "TOBILOTA",
    "postal_code": "86261"
  },
  {
    "village_code": "54979",
    "village": "WAILEBE",
    "postal_code": "86261"
  },
  {
    "village_code": "55210",
    "village": "WOTANULUMADO",
    "postal_code": "86261"
  }
]