[
  {
    "village_code": "16974",
    "village": "ACEH",
    "postal_code": "31356"
  },
  {
    "village_code": "17126",
    "village": "BANTUNAN",
    "postal_code": "31356"
  },
  {
    "village_code": "17209",
    "village": "BENUA RAJA",
    "postal_code": "31356"
  },
  {
    "village_code": "17456",
    "village": "GELUNG SAKTI",
    "postal_code": "31356"
  },
  {
    "village_code": "17588",
    "village": "JENTIAN",
    "postal_code": "31356"
  },
  {
    "village_code": "17878",
    "village": "KOTA RAYA DARAT",
    "postal_code": "31356"
  },
  {
    "village_code": "17879",
    "village": "KOTA RAYA LEMBAK",
    "postal_code": "31356"
  },
  {
    "village_code": "18490",
    "village": "PAJAR BULAN",
    "postal_code": "31356"
  },
  {
    "village_code": "18494",
    "village": "PAJAR TINGGI",
    "postal_code": "31356"
  },
  {
    "village_code": "18768",
    "village": "PULAU",
    "postal_code": "31356"
  },
  {
    "village_code": "18760",
    "village": "PULAU PANGGUNG",
    "postal_code": "31356"
  },
  {
    "village_code": "19242",
    "village": "SUKABUMI",
    "postal_code": "31356"
  },
  {
    "village_code": "19402",
    "village": "SUMUR",
    "postal_code": "31356"
  },
  {
    "village_code": "19514",
    "village": "TALANG BARU",
    "postal_code": "31356"
  },
  {
    "village_code": "19542",
    "village": "TALANG MENGKENANG",
    "postal_code": "31356"
  },
  {
    "village_code": "19545",
    "village": "TALANG PADANG TINGGI",
    "postal_code": "31356"
  },
  {
    "village_code": "19551",
    "village": "TALANG PAGAR AGUNG",
    "postal_code": "31356"
  },
  {
    "village_code": "19566",
    "village": "TALANG TANGSI",
    "postal_code": "31356"
  },
  {
    "village_code": "19941",
    "village": "TONGKOK",
    "postal_code": "31356"
  },
  {
    "village_code": "19997",
    "village": "ULAK BANDUNG",
    "postal_code": "31356"
  }
]