[
  {
    "village_code": "17031",
    "village": "ARAHAN",
    "postal_code": "31471"
  },
  {
    "village_code": "17120",
    "village": "BANJAR SARI",
    "postal_code": "31471"
  },
  {
    "village_code": "17332",
    "village": "CEMPAKA WANGI",
    "postal_code": "31471"
  },
  {
    "village_code": "17443",
    "village": "GEDUNG AGUNG",
    "postal_code": "31471"
  },
  {
    "village_code": "17493",
    "village": "GUNUNG KEMBANG",
    "postal_code": "31471"
  },
  {
    "village_code": "17945",
    "village": "LEBUAY BANDUNG",
    "postal_code": "31471"
  },
  {
    "village_code": "17954",
    "village": "LEMATANG JAYA",
    "postal_code": "31471"
  },
  {
    "village_code": "18278",
    "village": "MUARA LAWAI",
    "postal_code": "31471"
  },
  {
    "village_code": "18361",
    "village": "NANJUNGAN",
    "postal_code": "31471"
  },
  {
    "village_code": "18727",
    "village": "PRABU MENANG",
    "postal_code": "31471"
  },
  {
    "village_code": "18969",
    "village": "SENGKUANG",
    "postal_code": "31471"
  },
  {
    "village_code": "19112",
    "village": "SIRAH PULAU",
    "postal_code": "31471"
  },
  {
    "village_code": "19698",
    "village": "TANJUNG JAMBU",
    "postal_code": "31471"
  },
  {
    "village_code": "19738",
    "village": "TANJUNG LONTAR",
    "postal_code": "31471"
  }
]