[
  {
    "village_code": "17053",
    "village": "BABAT LAMA",
    "postal_code": "31452"
  },
  {
    "village_code": "17168",
    "village": "BATU URIP",
    "postal_code": "31452"
  },
  {
    "village_code": "17249",
    "village": "BINJAI",
    "postal_code": "31452"
  },
  {
    "village_code": "17299",
    "village": "BUNGA MAS",
    "postal_code": "31452"
  },
  {
    "village_code": "17329",
    "village": "CECAR",
    "postal_code": "31452"
  },
  {
    "village_code": "17331",
    "village": "CEMPAKA SAKTI",
    "postal_code": "31452"
  },
  {
    "village_code": "17377",
    "village": "DATAR SERDANG",
    "postal_code": "31452"
  },
  {
    "village_code": "17441",
    "village": "GEDUNG AGUNG",
    "postal_code": "31452"
  },
  {
    "village_code": "17455",
    "village": "GELUMBANG",
    "postal_code": "31452"
  },
  {
    "village_code": "17475",
    "village": "GUNUNG AJI",
    "postal_code": "31452"
  },
  {
    "village_code": "17487",
    "village": "GUNUNG KARTO",
    "postal_code": "31452"
  },
  {
    "village_code": "17492",
    "village": "GUNUNG KEMBANG",
    "postal_code": "31452"
  },
  {
    "village_code": "17662",
    "village": "KARANG ENDAH",
    "postal_code": "31452"
  },
  {
    "village_code": "17813",
    "village": "KENCANA SARI",
    "postal_code": "31452"
  },
  {
    "village_code": "17970",
    "village": "LINGGAR JAYA",
    "postal_code": "31452"
  },
  {
    "village_code": "18017",
    "village": "LUBUK KUTA",
    "postal_code": "31452"
  },
  {
    "village_code": "18019",
    "village": "LUBUK LAYANG ILIR",
    "postal_code": "31452"
  },
  {
    "village_code": "18020",
    "village": "LUBUK LAYANG ULU",
    "postal_code": "31452"
  },
  {
    "village_code": "18032",
    "village": "LUBUK NAMBULAN",
    "postal_code": "31452"
  },
  {
    "village_code": "18058",
    "village": "LUBUK TAMPANG",
    "postal_code": "31452"
  },
  {
    "village_code": "18119",
    "village": "MARGA MULIA",
    "postal_code": "31452"
  },
  {
    "village_code": "18246",
    "village": "MUARA DANAU",
    "postal_code": "31452"
  },
  {
    "village_code": "18257",
    "village": "MUARA EMPAYANG",
    "postal_code": "31452"
  },
  {
    "village_code": "18444",
    "village": "PADURAKSA",
    "postal_code": "31452"
  },
  {
    "village_code": "18704",
    "village": "PETIKAL BARU",
    "postal_code": "31452"
  },
  {
    "village_code": "18705",
    "village": "PETIKAL LAMA",
    "postal_code": "31452"
  },
  {
    "village_code": "18778",
    "village": "PURWA RAJA",
    "postal_code": "31452"
  },
  {
    "village_code": "18968",
    "village": "SENDAWAR",
    "postal_code": "31452"
  },
  {
    "village_code": "19006",
    "village": "SERONGGO",
    "postal_code": "31452"
  },
  {
    "village_code": "19339",
    "village": "SUKOHARJO",
    "postal_code": "31452"
  },
  {
    "village_code": "19600",
    "village": "TANDA RAJA",
    "postal_code": "31452"
  },
  {
    "village_code": "19671",
    "village": "TANJUNG BINDU",
    "postal_code": "31452"
  }
]