[
  {
    "village_code": "17074",
    "village": "BANDAR AGUNG",
    "postal_code": "31414"
  },
  {
    "village_code": "17084",
    "village": "BANDAR JAYA",
    "postal_code": "31419"
  },
  {
    "village_code": "17118",
    "village": "BANJAR NEGARA",
    "postal_code": "31419"
  },
  {
    "village_code": "17183",
    "village": "BD PJKA LAHAT",
    "postal_code": "31419"
  },
  {
    "village_code": "17465",
    "village": "GIRIMULIYA",
    "postal_code": "31419"
  },
  {
    "village_code": "17482",
    "village": "GUNUNG GAJAH",
    "postal_code": "31418"
  },
  {
    "village_code": "17635",
    "village": "KARANG ANYAR",
    "postal_code": "31419"
  },
  {
    "village_code": "17645",
    "village": "KARANG BARU",
    "postal_code": "31419"
  },
  {
    "village_code": "17760",
    "village": "KEBAN",
    "postal_code": "31419"
  },
  {
    "village_code": "17860",
    "village": "KOTA BARU",
    "postal_code": "31415"
  },
  {
    "village_code": "17871",
    "village": "KOTA JAYA",
    "postal_code": "31412"
  },
  {
    "village_code": "17874",
    "village": "KOTA NEGARA",
    "postal_code": "31414"
  },
  {
    "village_code": "17881",
    "village": "KOTA RAYA",
    "postal_code": "31419"
  },
  {
    "village_code": "17921",
    "village": "LAHAT TENGAH",
    "postal_code": "31419"
  },
  {
    "village_code": "18089",
    "village": "MAKARTITAMA",
    "postal_code": "31419"
  },
  {
    "village_code": "18102",
    "village": "MANGGUL",
    "postal_code": "31419"
  },
  {
    "village_code": "18364",
    "village": "NANTAL",
    "postal_code": "31419"
  },
  {
    "village_code": "18433",
    "village": "PADANG LENGKUAS",
    "postal_code": "31419"
  },
  {
    "village_code": "18448",
    "village": "PAGAR AGUNG",
    "postal_code": "31417"
  },
  {
    "village_code": "18479",
    "village": "PAGAR NEGARA",
    "postal_code": "31419"
  },
  {
    "village_code": "18481",
    "village": "PAGAR SARI",
    "postal_code": "31419"
  },
  {
    "village_code": "18554",
    "village": "PASAR BARU",
    "postal_code": "31411"
  },
  {
    "village_code": "18555",
    "village": "PASAR BAWAH",
    "postal_code": "31412"
  },
  {
    "village_code": "18560",
    "village": "PASAR LAMA",
    "postal_code": "31413"
  },
  {
    "village_code": "18844",
    "village": "RD PJKA BANDAR AGUNG",
    "postal_code": "31419"
  },
  {
    "village_code": "18912",
    "village": "SARI BUNGA MAS",
    "postal_code": "31419"
  },
  {
    "village_code": "18950",
    "village": "SELAWI",
    "postal_code": "31419"
  },
  {
    "village_code": "18964",
    "village": "SENABING",
    "postal_code": "31419"
  },
  {
    "village_code": "19291",
    "village": "SUKANEGARA",
    "postal_code": "31419"
  },
  {
    "village_code": "19529",
    "village": "TALANG JAWA INDUK",
    "postal_code": "31416"
  },
  {
    "village_code": "19530",
    "village": "TALANG JAWA SELATAN",
    "postal_code": "31416"
  },
  {
    "village_code": "19531",
    "village": "TALANG JAWA UTARA",
    "postal_code": "31416"
  },
  {
    "village_code": "19773",
    "village": "TANJUNG PAYANG",
    "postal_code": "31419"
  },
  {
    "village_code": "19822",
    "village": "TANJUNG TEBAT",
    "postal_code": "31419"
  },
  {
    "village_code": "20015",
    "village": "ULAK LEBAR",
    "postal_code": "31419"
  },
  {
    "village_code": "20019",
    "village": "ULAK MAS",
    "postal_code": "31419"
  }
]