[
  {
    "village_code": "17208",
    "village": "BENTENG",
    "postal_code": "31581"
  },
  {
    "village_code": "17474",
    "village": "GUNUNG AGUNG",
    "postal_code": "31581"
  },
  {
    "village_code": "17494",
    "village": "GUNUNG KEMBANG",
    "postal_code": "31581"
  },
  {
    "village_code": "17495",
    "village": "GUNUNG KERTO",
    "postal_code": "31581"
  },
  {
    "village_code": "18000",
    "village": "LUBUK DALAM",
    "postal_code": "31581"
  },
  {
    "village_code": "18057",
    "village": "LUBUK TABUN",
    "postal_code": "31581"
  },
  {
    "village_code": "18150",
    "village": "MASAM BULAN",
    "postal_code": "31581"
  },
  {
    "village_code": "18379",
    "village": "NEGERI KAYA",
    "postal_code": "31581"
  },
  {
    "village_code": "18453",
    "village": "PAGAR AGUNG",
    "postal_code": "31581"
  },
  {
    "village_code": "18476",
    "village": "PAGAR JATI",
    "postal_code": "31581"
  },
  {
    "village_code": "18492",
    "village": "PAJAR BULAN",
    "postal_code": "31581"
  },
  {
    "village_code": "18634",
    "village": "PENANDINGAN",
    "postal_code": "31581"
  },
  {
    "village_code": "18757",
    "village": "PULAU PANAS",
    "postal_code": "31581"
  },
  {
    "village_code": "18763",
    "village": "PULAU PANGGUNG",
    "postal_code": "31581"
  },
  {
    "village_code": "19098",
    "village": "SINDANG PANJANG",
    "postal_code": "31581"
  },
  {
    "village_code": "19678",
    "village": "TANJUNG BULAN",
    "postal_code": "31581"
  },
  {
    "village_code": "19806",
    "village": "TANJUNG SAKTI",
    "postal_code": "31581"
  },
  {
    "village_code": "20017",
    "village": "ULAK LEBAR",
    "postal_code": "31581"
  }
]