[
  {
    "village_code": "17472",
    "village": "GUNUNG AGUNG",
    "postal_code": "31471"
  },
  {
    "village_code": "17665",
    "village": "KARANG ENDAH",
    "postal_code": "31471"
  },
  {
    "village_code": "17695",
    "village": "KARANG REJO",
    "postal_code": "31471"
  },
  {
    "village_code": "17768",
    "village": "KEBUR",
    "postal_code": "31471"
  },
  {
    "village_code": "17940",
    "village": "LEBAK BUDI",
    "postal_code": "31471"
  },
  {
    "village_code": "18013",
    "village": "LUBUK KEPAYANG",
    "postal_code": "31471"
  },
  {
    "village_code": "18217",
    "village": "MERAPI",
    "postal_code": "31471"
  },
  {
    "village_code": "18284",
    "village": "MUARA MAUNG",
    "postal_code": "31471"
  },
  {
    "village_code": "18321",
    "village": "MUARA TEMIANG",
    "postal_code": "31471"
  },
  {
    "village_code": "18374",
    "village": "NEGERI AGUNG",
    "postal_code": "31471"
  },
  {
    "village_code": "18584",
    "village": "PAYO",
    "postal_code": "31471"
  },
  {
    "village_code": "18788",
    "village": "PURWOSARI (PURWA SARI)",
    "postal_code": "31471"
  },
  {
    "village_code": "19186",
    "village": "SUKA CINTA",
    "postal_code": "31471"
  },
  {
    "village_code": "19213",
    "village": "SUKA MARGA",
    "postal_code": "31471"
  },
  {
    "village_code": "19646",
    "village": "TANJUNG BARU",
    "postal_code": "31471"
  },
  {
    "village_code": "19779",
    "village": "TANJUNG PINANG",
    "postal_code": "31471"
  },
  {
    "village_code": "19825",
    "village": "TANJUNG TELANG",
    "postal_code": "31471"
  },
  {
    "village_code": "19881",
    "village": "TELATANG",
    "postal_code": "31471"
  },
  {
    "village_code": "20024",
    "village": "ULAK PANDAN",
    "postal_code": "31471"
  }
]