[
  {
    "village_code": "17571",
    "village": "JATI",
    "postal_code": "31461"
  },
  {
    "village_code": "17652",
    "village": "KARANG DALAM",
    "postal_code": "31461"
  },
  {
    "village_code": "17842",
    "village": "KERUNG",
    "postal_code": "31461"
  },
  {
    "village_code": "17893",
    "village": "KUBA",
    "postal_code": "31461"
  },
  {
    "village_code": "18056",
    "village": "LUBUK SEPANG",
    "postal_code": "31461"
  },
  {
    "village_code": "18243",
    "village": "MUARA CAWANG",
    "postal_code": "31461"
  },
  {
    "village_code": "18307",
    "village": "MUARA SIBAN",
    "postal_code": "31461"
  },
  {
    "village_code": "18458",
    "village": "PAGAR BATU",
    "postal_code": "31461"
  },
  {
    "village_code": "18689",
    "village": "PERIGI",
    "postal_code": "31461"
  },
  {
    "village_code": "18765",
    "village": "PULAU PINANG",
    "postal_code": "31461"
  },
  {
    "village_code": "19560",
    "village": "TALANG SAWAH",
    "postal_code": "31461"
  },
  {
    "village_code": "19561",
    "village": "TALANG SEJEMPUT",
    "postal_code": "31461"
  },
  {
    "village_code": "19764",
    "village": "TANJUNG MULAK",
    "postal_code": "31461"
  },
  {
    "village_code": "19818",
    "village": "TANJUNG SIRIH",
    "postal_code": "31461"
  }
]