[
  {
    "village_code": "66094",
    "village": "BAEBUNTA",
    "postal_code": "92965"
  },
  {
    "village_code": "66341",
    "village": "BERINGIN JAYA",
    "postal_code": "92965"
  },
  {
    "village_code": "66664",
    "village": "BUMI HARAPAN",
    "postal_code": "92965"
  },
  {
    "village_code": "67056",
    "village": "KARIANGO",
    "postal_code": "92965"
  },
  {
    "village_code": "67248",
    "village": "LARA",
    "postal_code": "92965"
  },
  {
    "village_code": "67276",
    "village": "LAWEWE",
    "postal_code": "92965"
  },
  {
    "village_code": "67307",
    "village": "LEMBANG-LEMBANG",
    "postal_code": "92965"
  },
  {
    "village_code": "67578",
    "village": "MARANNU",
    "postal_code": "92965"
  },
  {
    "village_code": "67599",
    "village": "MARIO",
    "postal_code": "92965"
  },
  {
    "village_code": "67707",
    "village": "MEKAR SARI JAYA",
    "postal_code": "92965"
  },
  {
    "village_code": "67712",
    "village": "MELI",
    "postal_code": "92965"
  },
  {
    "village_code": "67737",
    "village": "MUKTI JAYA",
    "postal_code": "92965"
  },
  {
    "village_code": "67738",
    "village": "MUKTI TAMA",
    "postal_code": "92965"
  },
  {
    "village_code": "67868",
    "village": "PALANDAN",
    "postal_code": "92965"
  },
  {
    "village_code": "68124",
    "village": "POLEWALI",
    "postal_code": "92965"
  },
  {
    "village_code": "68192",
    "village": "RADDA",
    "postal_code": "92965"
  },
  {
    "village_code": "68297",
    "village": "SALASSA",
    "postal_code": "92965"
  },
  {
    "village_code": "68335",
    "village": "SALULEMO",
    "postal_code": "92965"
  },
  {
    "village_code": "68402",
    "village": "SASSA",
    "postal_code": "92965"
  },
  {
    "village_code": "68531",
    "village": "SUMPIRA",
    "postal_code": "92965"
  },
  {
    "village_code": "68694",
    "village": "TAROBOK",
    "postal_code": "92965"
  }
]