[
  {
    "village_code": "66344",
    "village": "BEROPPA",
    "postal_code": "92956"
  },
  {
    "village_code": "66827",
    "village": "EMBONATANAH",
    "postal_code": "92956"
  },
  {
    "village_code": "66892",
    "village": "HOYANE",
    "postal_code": "92956"
  },
  {
    "village_code": "67387",
    "village": "LODANG",
    "postal_code": "92956"
  },
  {
    "village_code": "67477",
    "village": "MALIMONGAN",
    "postal_code": "92956"
  },
  {
    "village_code": "67581",
    "village": "MARANTE",
    "postal_code": "92956"
  },
  {
    "village_code": "67814",
    "village": "PADANG BALUA",
    "postal_code": "92956"
  },
  {
    "village_code": "67824",
    "village": "PADANG RAYA",
    "postal_code": "92956"
  },
  {
    "village_code": "68590",
    "village": "TALOTO",
    "postal_code": "92956"
  },
  {
    "village_code": "68644",
    "village": "TANAMA KALEANG",
    "postal_code": "92956"
  },
  {
    "village_code": "68782",
    "village": "TIROBALI",
    "postal_code": "92956"
  },
  {
    "village_code": "69015",
    "village": "WONO",
    "postal_code": "92956"
  }
]