[
  {
    "village_code": "26289",
    "village": "CIKARANG KOTA",
    "postal_code": "17530"
  },
  {
    "village_code": "27259",
    "village": "HARJA MEKAR",
    "postal_code": "17530"
  },
  {
    "village_code": "27667",
    "village": "KARANG BARU",
    "postal_code": "17530"
  },
  {
    "village_code": "27705",
    "village": "KARANGASIH",
    "postal_code": "17530"
  },
  {
    "village_code": "27767",
    "village": "KARANGRAHARJA",
    "postal_code": "17530"
  },
  {
    "village_code": "28644",
    "village": "MEKARMUKTI",
    "postal_code": "17530"
  },
  {
    "village_code": "29294",
    "village": "PASIR GOMBONG",
    "postal_code": "17530"
  },
  {
    "village_code": "29885",
    "village": "SIMPANGAN",
    "postal_code": "17530"
  },
  {
    "village_code": "30816",
    "village": "TANJUNGSARI",
    "postal_code": "17530"
  },
  {
    "village_code": "31034",
    "village": "WALUYA",
    "postal_code": "17530"
  },
  {
    "village_code": "31082",
    "village": "WANGUNHARJA",
    "postal_code": "17530"
  }
]