[
  {
    "village_code": "26316",
    "village": "CIKEDOKAN",
    "postal_code": "17530"
  },
  {
    "village_code": "26924",
    "village": "DANAU INDAH",
    "postal_code": "17530"
  },
  {
    "village_code": "27039",
    "village": "GANDAMEKAR",
    "postal_code": "17530"
  },
  {
    "village_code": "27042",
    "village": "GANDASARI",
    "postal_code": "17530"
  },
  {
    "village_code": "27467",
    "village": "JATIWANGI",
    "postal_code": "17530"
  },
  {
    "village_code": "27582",
    "village": "KALI JAYA",
    "postal_code": "17530"
  },
  {
    "village_code": "28570",
    "village": "MEKAR WANGI",
    "postal_code": "17530"
  },
  {
    "village_code": "30169",
    "village": "SUKADANAU",
    "postal_code": "17530"
  },
  {
    "village_code": "30910",
    "village": "TELAGA ASIH",
    "postal_code": "17530"
  },
  {
    "village_code": "30911",
    "village": "TELAGA MURNI",
    "postal_code": "17530"
  },
  {
    "village_code": "30913",
    "village": "TELAJUNG",
    "postal_code": "17530"
  }
]