[
  {
    "village_code": "57220",
    "village": "AMPARI",
    "postal_code": "73681"
  },
  {
    "village_code": "57232",
    "village": "APAR BATU",
    "postal_code": "73681"
  },
  {
    "village_code": "57282",
    "village": "BANGKIRAYEN",
    "postal_code": "73681"
  },
  {
    "village_code": "57409",
    "village": "BIWAN",
    "postal_code": "73681"
  },
  {
    "village_code": "57478",
    "village": "DANAU",
    "postal_code": "73681"
  },
  {
    "village_code": "57549",
    "village": "HAYAPING",
    "postal_code": "73681"
  },
  {
    "village_code": "57580",
    "village": "JANAH JARI",
    "postal_code": "73681"
  },
  {
    "village_code": "57581",
    "village": "JANAH MANSIWUI",
    "postal_code": "73681"
  },
  {
    "village_code": "58095",
    "village": "PIANGGU",
    "postal_code": "73681"
  },
  {
    "village_code": "58446",
    "village": "TANGKAN",
    "postal_code": "73681"
  },
  {
    "village_code": "58769",
    "village": "WUNGKUR NANAKAN",
    "postal_code": "73681"
  }
]