[
  {
    "village_code": "57290",
    "village": "BANTAI NAPU",
    "postal_code": "73652"
  },
  {
    "village_code": "57513",
    "village": "GANDRUNG",
    "postal_code": "73652"
  },
  {
    "village_code": "57612",
    "village": "KALAMUS",
    "postal_code": "73652"
  },
  {
    "village_code": "57720",
    "village": "KUPANG BARU",
    "postal_code": "73652"
  },
  {
    "village_code": "57766",
    "village": "LUAU JAWUK",
    "postal_code": "73652"
  },
  {
    "village_code": "57971",
    "village": "PAKU BETO",
    "postal_code": "73652"
  },
  {
    "village_code": "58011",
    "village": "PANGKAN",
    "postal_code": "73652"
  },
  {
    "village_code": "58043",
    "village": "PATUNG",
    "postal_code": "73652"
  },
  {
    "village_code": "58177",
    "village": "RUNGGU RAYA",
    "postal_code": "73652"
  },
  {
    "village_code": "58335",
    "village": "SIMPANG BINGKUANG / BANGKUANG",
    "postal_code": "73652"
  },
  {
    "village_code": "58429",
    "village": "TAMPA",
    "postal_code": "73652"
  },
  {
    "village_code": "58482",
    "village": "TARINGSING",
    "postal_code": "73652"
  }
]