[
  {
    "village_code": "6465",
    "village": "ADIN TENGAH",
    "postal_code": "20773"
  },
  {
    "village_code": "8651",
    "village": "LAU GUGUR",
    "postal_code": "20773"
  },
  {
    "village_code": "8675",
    "village": "LAU TEPU",
    "postal_code": "20773"
  },
  {
    "village_code": "9139",
    "village": "MINTA KASIH",
    "postal_code": "20773"
  },
  {
    "village_code": "9264",
    "village": "NAMAN JAHE",
    "postal_code": "20773"
  },
  {
    "village_code": "9571",
    "village": "PAMA / PAMAH TAMBUNAN",
    "postal_code": "20773"
  },
  {
    "village_code": "9588",
    "village": "PANCO WARNO",
    "postal_code": "20773"
  },
  {
    "village_code": "9590",
    "village": "PANCUR IDO",
    "postal_code": "20773"
  },
  {
    "village_code": "9698",
    "village": "PARANGGUAM",
    "postal_code": "20773"
  },
  {
    "village_code": "10124",
    "village": "PERKEBUNAN BANDAR TELU",
    "postal_code": "20773"
  },
  {
    "village_code": "10135",
    "village": "PERKEBUNAN GELUGUR LANGKAT",
    "postal_code": "20773"
  },
  {
    "village_code": "10179",
    "village": "PERKEBUNAN TAMBUNAN",
    "postal_code": "20773"
  },
  {
    "village_code": "10186",
    "village": "PERKEBUNAN TANJUNG KELILING",
    "postal_code": "20773"
  },
  {
    "village_code": "11962",
    "village": "TANJUNG LANGKAT",
    "postal_code": "20773"
  },
  {
    "village_code": "12292",
    "village": "TURANGI",
    "postal_code": "20773"
  },
  {
    "village_code": "12303",
    "village": "UJUNG BANDAR",
    "postal_code": "20773"
  },
  {
    "village_code": "12344",
    "village": "UJUNG TERANG",
    "postal_code": "20773"
  }
]