[
  {
    "village_code": "7006",
    "village": "BATU JONGJONG",
    "postal_code": "20774"
  },
  {
    "village_code": "7469",
    "village": "EMPUS",
    "postal_code": "20774"
  },
  {
    "village_code": "8650",
    "village": "LAU DAMAK",
    "postal_code": "20774"
  },
  {
    "village_code": "9202",
    "village": "MUSAM PEMBANGUNAN",
    "postal_code": "20774"
  },
  {
    "village_code": "10000",
    "village": "PEKAN BAHOROK",
    "postal_code": "20774"
  },
  {
    "village_code": "10131",
    "village": "PERKEBUNAN BUKIT LAWANG",
    "postal_code": "20774"
  },
  {
    "village_code": "10132",
    "village": "PERKEBUNAN BUNGARA",
    "postal_code": "20774"
  },
  {
    "village_code": "10166",
    "village": "PERKEBUNAN PULAU RAMBUNG",
    "postal_code": "20774"
  },
  {
    "village_code": "10173",
    "village": "PERKEBUNAN SEI MUSAM",
    "postal_code": "20774"
  },
  {
    "village_code": "10191",
    "village": "PERKEBUNAN TURANGI",
    "postal_code": "20774"
  },
  {
    "village_code": "10548",
    "village": "SAMPE RAYA",
    "postal_code": "20774"
  },
  {
    "village_code": "10677",
    "village": "SEI MUSAM KENDIT",
    "postal_code": "20774"
  },
  {
    "village_code": "10767",
    "village": "SEMATAR",
    "postal_code": "20774"
  },
  {
    "village_code": "11349",
    "village": "SIMPANG PULAU RAMBUNG",
    "postal_code": "20774"
  },
  {
    "village_code": "11752",
    "village": "SUKA RAKYAT (SUKARAYAT)",
    "postal_code": "20774"
  },
  {
    "village_code": "11964",
    "village": "TANJUNG LENGGANG",
    "postal_code": "20774"
  },
  {
    "village_code": "12190",
    "village": "TIMBANG JAYA",
    "postal_code": "20774"
  },
  {
    "village_code": "12192",
    "village": "TIMBANG LAWAN",
    "postal_code": "20774"
  },
  {
    "village_code": "12301",
    "village": "UJUNG BANDAR",
    "postal_code": "20774"
  }
]