[
  {
    "village_code": "50247",
    "village": "ABIANBASE",
    "postal_code": "80515"
  },
  {
    "village_code": "50277",
    "village": "BAKBAKAN",
    "postal_code": "80515"
  },
  {
    "village_code": "50338",
    "village": "BENG",
    "postal_code": "80513"
  },
  {
    "village_code": "50357",
    "village": "BITERA",
    "postal_code": "80515"
  },
  {
    "village_code": "50454",
    "village": "GIANYAR",
    "postal_code": "80511"
  },
  {
    "village_code": "50553",
    "village": "LEBIH",
    "postal_code": "80515"
  },
  {
    "village_code": "50715",
    "village": "PETAK",
    "postal_code": "80515"
  },
  {
    "village_code": "50714",
    "village": "PETAK KAJA",
    "postal_code": "80515"
  },
  {
    "village_code": "50748",
    "village": "SAMPLANGAN",
    "postal_code": "80512"
  },
  {
    "village_code": "50806",
    "village": "SERONGGA",
    "postal_code": "80515"
  },
  {
    "village_code": "50809",
    "village": "SIANGAN",
    "postal_code": "80515"
  },
  {
    "village_code": "50814",
    "village": "SIDAN",
    "postal_code": "80515"
  },
  {
    "village_code": "50849",
    "village": "SUMITA",
    "postal_code": "80515"
  },
  {
    "village_code": "50852",
    "village": "SUWAT",
    "postal_code": "80515"
  },
  {
    "village_code": "50879",
    "village": "TEGAL TUGU",
    "postal_code": "80515"
  },
  {
    "village_code": "50889",
    "village": "TEMESI",
    "postal_code": "80515"
  },
  {
    "village_code": "50924",
    "village": "TULIKUP",
    "postal_code": "80515"
  }
]