[
  {
    "village_code": "50308",
    "village": "BATUAN",
    "postal_code": "80582"
  },
  {
    "village_code": "50307",
    "village": "BATUAN KALER",
    "postal_code": "80582"
  },
  {
    "village_code": "50310",
    "village": "BATUBULAN",
    "postal_code": "80582"
  },
  {
    "village_code": "50309",
    "village": "BATUBULAN KANGIN",
    "postal_code": "80582"
  },
  {
    "village_code": "50402",
    "village": "CELUK",
    "postal_code": "80582"
  },
  {
    "village_code": "50466",
    "village": "GUWANG",
    "postal_code": "80582"
  },
  {
    "village_code": "50516",
    "village": "KEMENUH",
    "postal_code": "80582"
  },
  {
    "village_code": "50533",
    "village": "KETEWEL",
    "postal_code": "80582"
  },
  {
    "village_code": "50823",
    "village": "SINGAPADU",
    "postal_code": "80582"
  },
  {
    "village_code": "50821",
    "village": "SINGAPADU KALER",
    "postal_code": "80582"
  },
  {
    "village_code": "50822",
    "village": "SINGAPADU TENGAH",
    "postal_code": "80582"
  },
  {
    "village_code": "50838",
    "village": "SUKAWATI",
    "postal_code": "80582"
  }
]