[
  {
    "village_code": "71175",
    "village": "AYUMOLINGO",
    "postal_code": "96127"
  },
  {
    "village_code": "71178",
    "village": "BAKTI",
    "postal_code": "96127"
  },
  {
    "village_code": "71261",
    "village": "BUKIT AREN",
    "postal_code": "96127"
  },
  {
    "village_code": "71555",
    "village": "MOLALAHU",
    "postal_code": "96127"
  },
  {
    "village_code": "71558",
    "village": "MOLAMAHU",
    "postal_code": "96127"
  },
  {
    "village_code": "71606",
    "village": "MULYONEGORO",
    "postal_code": "96127"
  },
  {
    "village_code": "71695",
    "village": "PONGONGAILA",
    "postal_code": "96127"
  },
  {
    "village_code": "71713",
    "village": "PULUBALA",
    "postal_code": "96127"
  },
  {
    "village_code": "71715",
    "village": "PUNCAK",
    "postal_code": "96127"
  },
  {
    "village_code": "71850",
    "village": "TOYIDITO (TOYDITO)",
    "postal_code": "96127"
  },
  {
    "village_code": "71852",
    "village": "TRIDARMA",
    "postal_code": "96127"
  }
]