[
  {
    "village_code": "71182",
    "village": "BANDUNG REJO",
    "postal_code": "96264"
  },
  {
    "village_code": "71232",
    "village": "BONGONGAYU",
    "postal_code": "96264"
  },
  {
    "village_code": "71322",
    "village": "DILONIYOHU",
    "postal_code": "96264"
  },
  {
    "village_code": "71337",
    "village": "DULOHUPA",
    "postal_code": "96264"
  },
  {
    "village_code": "71407",
    "village": "ILOHELUMA",
    "postal_code": "96264"
  },
  {
    "village_code": "71581",
    "village": "MONGGOLITO",
    "postal_code": "96264"
  },
  {
    "village_code": "71600",
    "village": "MOTODUTO",
    "postal_code": "96264"
  },
  {
    "village_code": "71653",
    "village": "PARUNGI",
    "postal_code": "96264"
  },
  {
    "village_code": "71708",
    "village": "POTANGA",
    "postal_code": "96264"
  },
  {
    "village_code": "71730",
    "village": "SIDODADI",
    "postal_code": "96264"
  },
  {
    "village_code": "71733",
    "village": "SIDOMULYO",
    "postal_code": "96264"
  },
  {
    "village_code": "71732",
    "village": "SIDOMULYO SELATAN",
    "postal_code": "96264"
  },
  {
    "village_code": "71829",
    "village": "TOLITE",
    "postal_code": "96264"
  }
]