[
  {
    "village_code": "55254",
    "village": "ANGGAH JAYA",
    "postal_code": "78617"
  },
  {
    "village_code": "55309",
    "village": "BANING KOTA",
    "postal_code": "78612"
  },
  {
    "village_code": "55672",
    "village": "KAPUAS KANAN HILIR",
    "postal_code": "78613"
  },
  {
    "village_code": "55673",
    "village": "KAPUAS KANAN HULU",
    "postal_code": "78614"
  },
  {
    "village_code": "55674",
    "village": "KAPUAS KIRI HILIR",
    "postal_code": "78615"
  },
  {
    "village_code": "55675",
    "village": "KAPUAS KIRI HULU",
    "postal_code": "78616"
  },
  {
    "village_code": "55809",
    "village": "LADANG",
    "postal_code": "78612"
  },
  {
    "village_code": "55813",
    "village": "LALANG BARU",
    "postal_code": "78617"
  },
  {
    "village_code": "56031",
    "village": "MERTI GUNA",
    "postal_code": "78618"
  },
  {
    "village_code": "56055",
    "village": "MUNGGUK BANTOK",
    "postal_code": "78616"
  },
  {
    "village_code": "56932",
    "village": "SUNGAI ANA",
    "postal_code": "78619"
  },
  {
    "village_code": "57017",
    "village": "TANJUNG KELANSAM",
    "postal_code": "78611"
  },
  {
    "village_code": "57034",
    "village": "TANJUNG PURI",
    "postal_code": "78611"
  },
  {
    "village_code": "57096",
    "village": "TELUK KELANSAM",
    "postal_code": "78616"
  },
  {
    "village_code": "57151",
    "village": "TERTONG",
    "postal_code": "78616"
  }
]