[
  {
    "village_code": "55325",
    "village": "BARAS",
    "postal_code": "78691"
  },
  {
    "village_code": "55502",
    "village": "DEDAI KANAN",
    "postal_code": "78691"
  },
  {
    "village_code": "55521",
    "village": "EMPACI",
    "postal_code": "78691"
  },
  {
    "village_code": "55527",
    "village": "EMPARU BARU",
    "postal_code": "78691"
  },
  {
    "village_code": "55562",
    "village": "GANIS",
    "postal_code": "78691"
  },
  {
    "village_code": "55800",
    "village": "KUMPANG",
    "postal_code": "78691"
  },
  {
    "village_code": "55890",
    "village": "LUNDANG BARU",
    "postal_code": "78691"
  },
  {
    "village_code": "55918",
    "village": "MANGAT BARU",
    "postal_code": "78691"
  },
  {
    "village_code": "55982",
    "village": "MENAONG BARU",
    "postal_code": "78691"
  },
  {
    "village_code": "56026",
    "village": "MEREMPIT BARU",
    "postal_code": "78691"
  },
  {
    "village_code": "56077",
    "village": "NANGA DEDAI",
    "postal_code": "78691"
  },
  {
    "village_code": "56084",
    "village": "NANGA JETAK",
    "postal_code": "78691"
  },
  {
    "village_code": "56342",
    "village": "PENGKADAN BARU",
    "postal_code": "78691"
  },
  {
    "village_code": "56344",
    "village": "PENGKADAN SUNGAI RUPA",
    "postal_code": "78691"
  },
  {
    "village_code": "56361",
    "village": "PENYAK LALANG",
    "postal_code": "78691"
  },
  {
    "village_code": "56473",
    "village": "RIGUK",
    "postal_code": "78691"
  },
  {
    "village_code": "56636",
    "village": "SEI / SUNGAI MALI",
    "postal_code": "78691"
  },
  {
    "village_code": "56955",
    "village": "SUNGAI TAPANG",
    "postal_code": "78691"
  },
  {
    "village_code": "57059",
    "village": "TAUK",
    "postal_code": "78691"
  },
  {
    "village_code": "57201",
    "village": "UMIN JAYA",
    "postal_code": "78691"
  }
]