[
  {
    "village_code": "55366",
    "village": "BEKUAN LUYANG",
    "postal_code": "78654"
  },
  {
    "village_code": "55534",
    "village": "EMPUNAK TAPANG KELADAN",
    "postal_code": "78654"
  },
  {
    "village_code": "55535",
    "village": "EMPURA",
    "postal_code": "78654"
  },
  {
    "village_code": "55626",
    "village": "JASA",
    "postal_code": "78654"
  },
  {
    "village_code": "56040",
    "village": "MUAKAN PETINGGI",
    "postal_code": "78654"
  },
  {
    "village_code": "56065",
    "village": "NANGA BAYAN",
    "postal_code": "78654"
  },
  {
    "village_code": "56073",
    "village": "NANGA BUGAU",
    "postal_code": "78654"
  },
  {
    "village_code": "56158",
    "village": "NANGA SEBAWANG",
    "postal_code": "78654"
  },
  {
    "village_code": "56450",
    "village": "RASAU",
    "postal_code": "78654"
  },
  {
    "village_code": "56530",
    "village": "SEBADAK",
    "postal_code": "78654"
  },
  {
    "village_code": "56546",
    "village": "SEBETUNG PALUK",
    "postal_code": "78654"
  },
  {
    "village_code": "56686",
    "village": "SEI / SUNGAI SERIA",
    "postal_code": "78654"
  },
  {
    "village_code": "56703",
    "village": "SEKAIH",
    "postal_code": "78654"
  },
  {
    "village_code": "56787",
    "village": "SENANING",
    "postal_code": "78654"
  },
  {
    "village_code": "56817",
    "village": "SEPILUK",
    "postal_code": "78654"
  },
  {
    "village_code": "56894",
    "village": "SUAK MEDANG",
    "postal_code": "78654"
  },
  {
    "village_code": "56936",
    "village": "SUNGAI BUGAU",
    "postal_code": "78654"
  },
  {
    "village_code": "56948",
    "village": "SUNGAI PISAU",
    "postal_code": "78654"
  }
]