[
  {
    "village_code": "17116",
    "village": "BANJAR AGUNG",
    "postal_code": "32211"
  },
  {
    "village_code": "17205",
    "village": "BENDI",
    "postal_code": "32211"
  },
  {
    "village_code": "17274",
    "village": "BUMI AGUNG JAYA",
    "postal_code": "32211"
  },
  {
    "village_code": "17296",
    "village": "BUMIJAYA",
    "postal_code": "32211"
  },
  {
    "village_code": "17480",
    "village": "GUNUNG CAHYA",
    "postal_code": "32211"
  },
  {
    "village_code": "18080",
    "village": "MAJAR",
    "postal_code": "32211"
  },
  {
    "village_code": "18598",
    "village": "PEKUOLAN",
    "postal_code": "32211"
  },
  {
    "village_code": "18607",
    "village": "PELAWI",
    "postal_code": "32211"
  },
  {
    "village_code": "18829",
    "village": "RANTAU PANJANG",
    "postal_code": "32211"
  },
  {
    "village_code": "18886",
    "village": "RUOS",
    "postal_code": "32211"
  },
  {
    "village_code": "19259",
    "village": "SUKAJAYA",
    "postal_code": "32211"
  }
]