[
  {
    "village_code": "17186",
    "village": "BEDENG BLAMBANGAN",
    "postal_code": "32278"
  },
  {
    "village_code": "17192",
    "village": "BELAMBANGAN",
    "postal_code": "32278"
  },
  {
    "village_code": "17604",
    "village": "KAGELANG BLAMBANGAN",
    "postal_code": "32278"
  },
  {
    "village_code": "17856",
    "village": "KOTA AMAN",
    "postal_code": "32278"
  },
  {
    "village_code": "18357",
    "village": "NAGAR AGUNG",
    "postal_code": "32278"
  },
  {
    "village_code": "18376",
    "village": "NEGERI BATIN BARU",
    "postal_code": "32278"
  },
  {
    "village_code": "18421",
    "village": "PADANG BINDU",
    "postal_code": "32278"
  },
  {
    "village_code": "18439",
    "village": "PADANG SARI",
    "postal_code": "32278"
  },
  {
    "village_code": "18664",
    "village": "PENINJAUAN",
    "postal_code": "32278"
  },
  {
    "village_code": "18695",
    "village": "PERUPUS BLAMBANGAN",
    "postal_code": "32278"
  },
  {
    "village_code": "18918",
    "village": "SAUNG NAGA",
    "postal_code": "32278"
  },
  {
    "village_code": "19066",
    "village": "SIMPANG SAGA",
    "postal_code": "32278"
  },
  {
    "village_code": "19172",
    "village": "SUGIH WARAS",
    "postal_code": "32278"
  },
  {
    "village_code": "19249",
    "village": "SUKAJADI BLAMBANGAN",
    "postal_code": "32278"
  }
]