[
  {
    "village_code": "17298",
    "village": "BUNGA MAS",
    "postal_code": "32277"
  },
  {
    "village_code": "17517",
    "village": "GUNUNG TERANG",
    "postal_code": "32277"
  },
  {
    "village_code": "17810",
    "village": "KENALI",
    "postal_code": "32277"
  },
  {
    "village_code": "17872",
    "village": "KOTA KARANG",
    "postal_code": "32277"
  },
  {
    "village_code": "18023",
    "village": "LUBUK LIKU",
    "postal_code": "32277"
  },
  {
    "village_code": "18076",
    "village": "MADURA",
    "postal_code": "32277"
  },
  {
    "village_code": "18372",
    "village": "NEGERI AGUNG",
    "postal_code": "32277"
  },
  {
    "village_code": "18377",
    "village": "NEGERI BATIN",
    "postal_code": "32277"
  },
  {
    "village_code": "18378",
    "village": "NEGERI CAHYA",
    "postal_code": "32277"
  },
  {
    "village_code": "19295",
    "village": "SUKARAJA I",
    "postal_code": "32277"
  },
  {
    "village_code": "19316",
    "village": "SUKARAMI",
    "postal_code": "32277"
  },
  {
    "village_code": "19512",
    "village": "TALANG BARU",
    "postal_code": "32277"
  },
  {
    "village_code": "19696",
    "village": "TANJUNG IMAN",
    "postal_code": "32277"
  },
  {
    "village_code": "19749",
    "village": "TANJUNG MENANG ILIR",
    "postal_code": "32277"
  },
  {
    "village_code": "19751",
    "village": "TANJUNG MENANG ULU",
    "postal_code": "32277"
  },
  {
    "village_code": "19796",
    "village": "TANJUNG RAYA",
    "postal_code": "32277"
  }
]