[
  {
    "village_code": "31667",
    "village": "BEJI",
    "postal_code": "51261"
  },
  {
    "village_code": "33795",
    "village": "KALIBOYO",
    "postal_code": "51261"
  },
  {
    "village_code": "34732",
    "village": "KEDUNGSEGOG",
    "postal_code": "51261"
  },
  {
    "village_code": "34881",
    "village": "KENCONOREJO",
    "postal_code": "51261"
  },
  {
    "village_code": "37151",
    "village": "PONOWARENG",
    "postal_code": "51261"
  },
  {
    "village_code": "37156",
    "village": "POSONG",
    "postal_code": "51261"
  },
  {
    "village_code": "37860",
    "village": "SEMBOJO",
    "postal_code": "51261"
  },
  {
    "village_code": "38168",
    "village": "SIMBANGDESA",
    "postal_code": "51261"
  },
  {
    "village_code": "38169",
    "village": "SIMBANGJATI",
    "postal_code": "51261"
  },
  {
    "village_code": "39320",
    "village": "TULIS",
    "postal_code": "51261"
  },
  {
    "village_code": "39725",
    "village": "WRINGINGINTUNG",
    "postal_code": "51261"
  }
]