[
  {
    "village_code": "1144",
    "village": "BULUH DORI (BULUH BESI)",
    "postal_code": "24782"
  },
  {
    "village_code": "2755",
    "village": "KUTA CEPU",
    "postal_code": "24782"
  },
  {
    "village_code": "2887",
    "village": "LAE ORAM (ARAM)",
    "postal_code": "24782"
  },
  {
    "village_code": "3519",
    "village": "MAKMUR JAYA",
    "postal_code": "24782"
  },
  {
    "village_code": "4141",
    "village": "MUKTI MAKMUR",
    "postal_code": "24782"
  },
  {
    "village_code": "4486",
    "village": "PASAR PANJANG",
    "postal_code": "24782"
  },
  {
    "village_code": "4698",
    "village": "PEGAYO",
    "postal_code": "24782"
  },
  {
    "village_code": "5327",
    "village": "SEKELONDANG (SIKELONDANG_",
    "postal_code": "24782"
  },
  {
    "village_code": "5705",
    "village": "SUBULUSSALAM",
    "postal_code": "24782"
  },
  {
    "village_code": "5702",
    "village": "SUBULUSSALAM BARAT",
    "postal_code": "24782"
  },
  {
    "village_code": "5703",
    "village": "SUBULUSSALAM SELATAN",
    "postal_code": "24782"
  },
  {
    "village_code": "5704",
    "village": "SUBULUSSALAM UTARA",
    "postal_code": "24782"
  },
  {
    "village_code": "5733",
    "village": "SUKA MAKMUR",
    "postal_code": "24782"
  },
  {
    "village_code": "5836",
    "village": "TANGGA BESI",
    "postal_code": "24782"
  }
]