[
  {
    "village_code": "73668",
    "village": "AFE TADUMA",
    "postal_code": "97751"
  },
  {
    "village_code": "73810",
    "village": "BULA",
    "postal_code": "97751"
  },
  {
    "village_code": "73867",
    "village": "DORPEDU",
    "postal_code": "97751"
  },
  {
    "village_code": "73904",
    "village": "FORAMADIAHI",
    "postal_code": "97751"
  },
  {
    "village_code": "74024",
    "village": "JAMBULA",
    "postal_code": "97751"
  },
  {
    "village_code": "74078",
    "village": "KASTELA",
    "postal_code": "97751"
  },
  {
    "village_code": "74119",
    "village": "KULABA",
    "postal_code": "97751"
  },
  {
    "village_code": "74193",
    "village": "LOTO",
    "postal_code": "97751"
  },
  {
    "village_code": "74408",
    "village": "RUA",
    "postal_code": "97751"
  },
  {
    "village_code": "74530",
    "village": "SULAMADAHA",
    "postal_code": "97751"
  },
  {
    "village_code": "74571",
    "village": "TAKOME",
    "postal_code": "97751"
  },
  {
    "village_code": "74640",
    "village": "TOBOLOLO",
    "postal_code": "97751"
  },
  {
    "village_code": "74648",
    "village": "TOGAFO",
    "postal_code": "97751"
  }
]