[
  {
    "village_code": "12424",
    "village": "ALAI GALOMBANG",
    "postal_code": "25519"
  },
  {
    "village_code": "12590",
    "village": "CIMPARUAH",
    "postal_code": "25511"
  },
  {
    "village_code": "12685",
    "village": "JALAN BARU",
    "postal_code": "25515"
  },
  {
    "village_code": "12686",
    "village": "JALAN KERETA API",
    "postal_code": "25515"
  },
  {
    "village_code": "12689",
    "village": "JATI HILIR (JALAN HILIA)",
    "postal_code": "25519"
  },
  {
    "village_code": "12690",
    "village": "JATI MUDIK  /  MUDIAK",
    "postal_code": "25517"
  },
  {
    "village_code": "12693",
    "village": "JAWI-JAWI I",
    "postal_code": "25518"
  },
  {
    "village_code": "12694",
    "village": "JAWI-JAWI II",
    "postal_code": "25518"
  },
  {
    "village_code": "12733",
    "village": "KAMPUNG / KAMPUANG BARU",
    "postal_code": "25514"
  },
  {
    "village_code": "12716",
    "village": "KAMPUNG JAWA I",
    "postal_code": "25511"
  },
  {
    "village_code": "12717",
    "village": "KAMPUNG JAWA II",
    "postal_code": "25511"
  },
  {
    "village_code": "12724",
    "village": "KAMPUNG PERAK",
    "postal_code": "25513"
  },
  {
    "village_code": "12728",
    "village": "KAMPUNG PONDOK",
    "postal_code": "25512"
  },
  {
    "village_code": "12726",
    "village": "KAMPUNG PONDOK II",
    "postal_code": "25512"
  },
  {
    "village_code": "12748",
    "village": "KARAN AUR",
    "postal_code": "25514"
  },
  {
    "village_code": "12914",
    "village": "LOHONG",
    "postal_code": "25513"
  },
  {
    "village_code": "13140",
    "village": "PASIR",
    "postal_code": "25513"
  },
  {
    "village_code": "13145",
    "village": "PAUAH / PAUH BARAT",
    "postal_code": "25512"
  },
  {
    "village_code": "13146",
    "village": "PAUAH / PAUH TIMUR",
    "postal_code": "25512"
  },
  {
    "village_code": "13197",
    "village": "RAWANG",
    "postal_code": "25511"
  },
  {
    "village_code": "13495",
    "village": "TARATAK",
    "postal_code": "25517"
  },
  {
    "village_code": "13533",
    "village": "UJUNG BATUNG (UJUANG BATUANG)",
    "postal_code": "25516"
  }
]