[
  {
    "village_code": "59233",
    "village": "GEMURUH",
    "postal_code": "72153"
  },
  {
    "village_code": "59669",
    "village": "LONTAR SELATAN",
    "postal_code": "72153"
  },
  {
    "village_code": "59670",
    "village": "LONTAR TIMUR",
    "postal_code": "72153"
  },
  {
    "village_code": "59671",
    "village": "LONTAR UTARA",
    "postal_code": "72153"
  },
  {
    "village_code": "60240",
    "village": "SEBANTI",
    "postal_code": "72153"
  },
  {
    "village_code": "60410",
    "village": "SEMARAS",
    "postal_code": "72153"
  },
  {
    "village_code": "60417",
    "village": "SEPAGAR",
    "postal_code": "72153"
  },
  {
    "village_code": "60467",
    "village": "SUBUR MAKMUR (SEPAGAR I)",
    "postal_code": "72153"
  },
  {
    "village_code": "60492",
    "village": "SUMBER SARI (SEPAGAR II)",
    "postal_code": "72153"
  },
  {
    "village_code": "60708",
    "village": "TEPIAN BALAI",
    "postal_code": "72153"
  },
  {
    "village_code": "60709",
    "village": "TERANGKIH  /  TERANGKEH",
    "postal_code": "72153"
  }
]