[
  {
    "village_code": "59258",
    "village": "GUNUNG CALANG",
    "postal_code": "72168"
  },
  {
    "village_code": "59823",
    "village": "MULYODADI",
    "postal_code": "72168"
  },
  {
    "village_code": "60101",
    "village": "PONDOK LABU",
    "postal_code": "72168"
  },
  {
    "village_code": "60151",
    "village": "RAMPACENGAL",
    "postal_code": "72168"
  },
  {
    "village_code": "60202",
    "village": "SAKADOYAN",
    "postal_code": "72168"
  },
  {
    "village_code": "60203",
    "village": "SAKALIMAU",
    "postal_code": "72168"
  },
  {
    "village_code": "60398",
    "village": "SEKANDIS",
    "postal_code": "72168"
  },
  {
    "village_code": "60426",
    "village": "SESULUNG",
    "postal_code": "72168"
  },
  {
    "village_code": "60471",
    "village": "SUKADANA",
    "postal_code": "72168"
  },
  {
    "village_code": "60538",
    "village": "TALUSI",
    "postal_code": "72168"
  },
  {
    "village_code": "60618",
    "village": "TANJUNG SAMALANTAKAN",
    "postal_code": "72168"
  }
]