[
  {
    "village_code": "60829",
    "village": "BATU-BATU",
    "postal_code": "77352"
  },
  {
    "village_code": "60868",
    "village": "BIRANG",
    "postal_code": "77352"
  },
  {
    "village_code": "60976",
    "village": "GUNUNG TABUR",
    "postal_code": "77352"
  },
  {
    "village_code": "61226",
    "village": "MALUANG",
    "postal_code": "77352"
  },
  {
    "village_code": "61269",
    "village": "MELATI JAYA",
    "postal_code": "77352"
  },
  {
    "village_code": "61285",
    "village": "MERANCANG ILIR",
    "postal_code": "77352"
  },
  {
    "village_code": "61286",
    "village": "MERANCANG ULU",
    "postal_code": "77352"
  },
  {
    "village_code": "61455",
    "village": "PULAU BESING",
    "postal_code": "77352"
  },
  {
    "village_code": "61510",
    "village": "SAMBAKUNGAN",
    "postal_code": "77352"
  },
  {
    "village_code": "61515",
    "village": "SAMBURAKAT",
    "postal_code": "77352"
  },
  {
    "village_code": "61722",
    "village": "TASUK",
    "postal_code": "77352"
  }
]