[
  {
    "village_code": "60832",
    "village": "BEBANIR (SEI BEBANIR BANGUN)",
    "postal_code": "77371"
  },
  {
    "village_code": "60839",
    "village": "BENA BARU",
    "postal_code": "77371"
  },
  {
    "village_code": "60978",
    "village": "GURIMBANG",
    "postal_code": "77371"
  },
  {
    "village_code": "60988",
    "village": "INARAN",
    "postal_code": "77371"
  },
  {
    "village_code": "61190",
    "village": "LONG LANUK",
    "postal_code": "77371"
  },
  {
    "village_code": "61412",
    "village": "PEGAT BUKUR",
    "postal_code": "77371"
  },
  {
    "village_code": "61443",
    "village": "PESAYAN",
    "postal_code": "77371"
  },
  {
    "village_code": "61447",
    "village": "PILANJAU",
    "postal_code": "77371"
  },
  {
    "village_code": "61480",
    "village": "RANTAU PANJANG",
    "postal_code": "77371"
  },
  {
    "village_code": "61511",
    "village": "SAMBALIUNG",
    "postal_code": "77371"
  },
  {
    "village_code": "61638",
    "village": "SUARAN",
    "postal_code": "77371"
  },
  {
    "village_code": "61649",
    "village": "SUKAN TENGAH",
    "postal_code": "77371"
  },
  {
    "village_code": "61714",
    "village": "TANJUNG PERANGAT",
    "postal_code": "77371"
  },
  {
    "village_code": "61778",
    "village": "TUMBIT DAYAK",
    "postal_code": "77371"
  }
]