[
  {
    "village_code": "60885",
    "village": "BUKIT MAKMUR",
    "postal_code": "77361"
  },
  {
    "village_code": "60973",
    "village": "GUNUNG SARI",
    "postal_code": "77361"
  },
  {
    "village_code": "60985",
    "village": "HARAPAN JAYA",
    "postal_code": "77361"
  },
  {
    "village_code": "61164",
    "village": "LONG AYAN",
    "postal_code": "77361"
  },
  {
    "village_code": "61165",
    "village": "LONG AYAP",
    "postal_code": "77361"
  },
  {
    "village_code": "61187",
    "village": "LONG LAAY / LAAI",
    "postal_code": "77361"
  },
  {
    "village_code": "61402",
    "village": "PANDAN SARI",
    "postal_code": "77361"
  },
  {
    "village_code": "61463",
    "village": "PUNAN MAHKAM",
    "postal_code": "77361"
  },
  {
    "village_code": "61464",
    "village": "PUNAN MALINAU",
    "postal_code": "77361"
  },
  {
    "village_code": "61465",
    "village": "PUNAN SEGAH",
    "postal_code": "77361"
  },
  {
    "village_code": "61754",
    "village": "TEPIAN BUAH",
    "postal_code": "77361"
  }
]