[
  {
    "village_code": "66002",
    "village": "ABBANUANGE",
    "postal_code": "90971"
  },
  {
    "village_code": "66773",
    "village": "CINA",
    "postal_code": "90971"
  },
  {
    "village_code": "67014",
    "village": "KAMPIRI",
    "postal_code": "90971"
  },
  {
    "village_code": "67154",
    "village": "LAGOSI",
    "postal_code": "90971"
  },
  {
    "village_code": "67210",
    "village": "LAMPULUNG",
    "postal_code": "90971"
  },
  {
    "village_code": "67239",
    "village": "LAPAUKKE",
    "postal_code": "90971"
  },
  {
    "village_code": "67320",
    "village": "LEMPA",
    "postal_code": "90971"
  },
  {
    "village_code": "67891",
    "village": "PALLAWARUKKA",
    "postal_code": "90971"
  },
  {
    "village_code": "67900",
    "village": "PAMMANA",
    "postal_code": "90971"
  },
  {
    "village_code": "68024",
    "village": "PATILA",
    "postal_code": "90971"
  },
  {
    "village_code": "68467",
    "village": "SIMPURSIA (SIMPURUSIA)",
    "postal_code": "90971"
  },
  {
    "village_code": "68554",
    "village": "TADANG PALIE",
    "postal_code": "90971"
  },
  {
    "village_code": "68795",
    "village": "TOBATANG",
    "postal_code": "90971"
  },
  {
    "village_code": "68984",
    "village": "WATAMPANUA",
    "postal_code": "90971"
  },
  {
    "village_code": "69002",
    "village": "WECUDAI",
    "postal_code": "90971"
  }
]