[
  {
    "village_code": "66076",
    "village": "ATAKKAE",
    "postal_code": "90915"
  },
  {
    "village_code": "66657",
    "village": "BULUPABBULU",
    "postal_code": "90911"
  },
  {
    "village_code": "66748",
    "village": "CEMPALAGI",
    "postal_code": "90911"
  },
  {
    "village_code": "67147",
    "village": "LAELO",
    "postal_code": "90917"
  },
  {
    "village_code": "67240",
    "village": "LAPONGKODA",
    "postal_code": "90913"
  },
  {
    "village_code": "67439",
    "village": "MADDUKKELLENG",
    "postal_code": "90911"
  },
  {
    "village_code": "67686",
    "village": "MATTIROTAPPARENG",
    "postal_code": "90918"
  },
  {
    "village_code": "67836",
    "village": "PADDUPPA",
    "postal_code": "90914"
  },
  {
    "village_code": "68063",
    "village": "PATTIROSOMPE",
    "postal_code": "90913"
  },
  {
    "village_code": "68315",
    "village": "SALOMENRALENG",
    "postal_code": "90917"
  },
  {
    "village_code": "68456",
    "village": "SIENGKANG",
    "postal_code": "90914"
  },
  {
    "village_code": "68479",
    "village": "SITAMPAE",
    "postal_code": "90916"
  },
  {
    "village_code": "68715",
    "village": "TEDDAOPU",
    "postal_code": "90912"
  },
  {
    "village_code": "68741",
    "village": "TEMPE",
    "postal_code": "90911"
  },
  {
    "village_code": "68983",
    "village": "WATALLIPUE",
    "postal_code": "90911"
  },
  {
    "village_code": "69011",
    "village": "WIRINGPALENNAE",
    "postal_code": "90918"
  }
]