[
  {
    "village_code": "66132",
    "village": "BALIELO",
    "postal_code": "90984"
  },
  {
    "village_code": "52340",
    "village": "BOLA",
    "postal_code": "90984"
  },
  {
    "village_code": "67265",
    "village": "LATTIMU",
    "postal_code": "90984"
  },
  {
    "village_code": "67327",
    "village": "LEMPONG",
    "postal_code": "90984"
  },
  {
    "village_code": "67552",
    "village": "MANURUNG",
    "postal_code": "90984"
  },
  {
    "village_code": "68009",
    "village": "PASIR PUTIH",
    "postal_code": "90984"
  },
  {
    "village_code": "68041",
    "village": "PATTANGNGAE (PATANGAE)",
    "postal_code": "90984"
  },
  {
    "village_code": "68196",
    "village": "RAJAMAWELANG (RAJAMAWELLANG)",
    "postal_code": "90984"
  },
  {
    "village_code": "68376",
    "village": "SANRESENG ADE",
    "postal_code": "90984"
  },
  {
    "village_code": "68487",
    "village": "SOLO",
    "postal_code": "90984"
  },
  {
    "village_code": "68921",
    "village": "UJUNG TANAH",
    "postal_code": "90984"
  }
]