[
  {
    "village_code": "15398",
    "village": "ALANG-ALANG",
    "postal_code": "36761"
  },
  {
    "village_code": "15754",
    "village": "KOTA HARAPAN",
    "postal_code": "36761"
  },
  {
    "village_code": "15755",
    "village": "KOTA RAJA",
    "postal_code": "36761"
  },
  {
    "village_code": "15839",
    "village": "KUALA SIMBUR",
    "postal_code": "36761"
  },
  {
    "village_code": "15867",
    "village": "LAMBUR",
    "postal_code": "36761"
  },
  {
    "village_code": "15865",
    "village": "LAMBUR I",
    "postal_code": "36761"
  },
  {
    "village_code": "15866",
    "village": "LAMBUR II",
    "postal_code": "36761"
  },
  {
    "village_code": "16033",
    "village": "MUARA SABAK ILIR",
    "postal_code": "36761"
  },
  {
    "village_code": "16034",
    "village": "MUARA SABAK ULU",
    "postal_code": "36761"
  },
  {
    "village_code": "16464",
    "village": "SIAU DALAM",
    "postal_code": "36761"
  },
  {
    "village_code": "16475",
    "village": "SIMBUR NAIK",
    "postal_code": "36761"
  },
  {
    "village_code": "16683",
    "village": "SUNGAI ULAR",
    "postal_code": "36761"
  }
]