[
  {
    "village_code": "66436",
    "village": "BONTO CINI",
    "postal_code": "92371"
  },
  {
    "village_code": "66540",
    "village": "BONTOMANAI",
    "postal_code": "92371"
  },
  {
    "village_code": "66571",
    "village": "BONTOTIRO",
    "postal_code": "92572"
  },
  {
    "village_code": "66917",
    "village": "JENETALLASA",
    "postal_code": "92314"
  },
  {
    "village_code": "67077",
    "village": "KASSI",
    "postal_code": "92371"
  },
  {
    "village_code": "67286",
    "village": "LEBANG MANAI",
    "postal_code": "92371"
  },
  {
    "village_code": "67285",
    "village": "LEBANG MANAI UTARA",
    "postal_code": "92371"
  },
  {
    "village_code": "67389",
    "village": "LOKA",
    "postal_code": "92516"
  },
  {
    "village_code": "67888",
    "village": "PALLANTIKANG",
    "postal_code": "92371"
  },
  {
    "village_code": "68274",
    "village": "RUMBIA",
    "postal_code": "92371"
  },
  {
    "village_code": "68835",
    "village": "TOMPOBULU",
    "postal_code": "92371"
  },
  {
    "village_code": "68912",
    "village": "UJUNG BULU",
    "postal_code": "92371"
  }
]