[
  {
    "village_code": "66516",
    "village": "BONTOJAI",
    "postal_code": "92351"
  },
  {
    "village_code": "66567",
    "village": "BONTOSUNGGU",
    "postal_code": "92351"
  },
  {
    "village_code": "66570",
    "village": "BONTOTANGNGA",
    "postal_code": "92351"
  },
  {
    "village_code": "66591",
    "village": "BORONGTALA",
    "postal_code": "92351"
  },
  {
    "village_code": "67053",
    "village": "KARELAYU",
    "postal_code": "92351"
  },
  {
    "village_code": "67541",
    "village": "MANJANGLOE",
    "postal_code": "92351"
  },
  {
    "village_code": "68603",
    "village": "TAMAN ROYA",
    "postal_code": "92351"
  },
  {
    "village_code": "68858",
    "village": "TONROKASSI",
    "postal_code": "92351"
  },
  {
    "village_code": "68856",
    "village": "TONROKASSI BARAT",
    "postal_code": "92351"
  },
  {
    "village_code": "68857",
    "village": "TONROKASSI TIMUR",
    "postal_code": "92351"
  },
  {
    "village_code": "68900",
    "village": "TURATEA",
    "postal_code": "92351"
  },
  {
    "village_code": "68899",
    "village": "TURATEA TIMUR",
    "postal_code": "92351"
  }
]