[
  {
    "village_code": "25298",
    "village": "BABAKAN ASEM",
    "postal_code": "45391"
  },
  {
    "village_code": "25750",
    "village": "CACABAN",
    "postal_code": "45391"
  },
  {
    "village_code": "25939",
    "village": "CIBEUREUYEUH",
    "postal_code": "45391"
  },
  {
    "village_code": "25995",
    "village": "CIBUBUAN",
    "postal_code": "45391"
  },
  {
    "village_code": "26621",
    "village": "CIPAMEKAR",
    "postal_code": "45391"
  },
  {
    "village_code": "26892",
    "village": "CONGGEANG KULON",
    "postal_code": "45391"
  },
  {
    "village_code": "26893",
    "village": "CONGGEANG WETAN",
    "postal_code": "45391"
  },
  {
    "village_code": "27361",
    "village": "JAMBU",
    "postal_code": "45391"
  },
  {
    "village_code": "27729",
    "village": "KARANGLAYUNG",
    "postal_code": "45391"
  },
  {
    "village_code": "28876",
    "village": "NARIMBANG",
    "postal_code": "45391"
  },
  {
    "village_code": "28951",
    "village": "PADAASIH",
    "postal_code": "45391"
  },
  {
    "village_code": "31014",
    "village": "UNGKAL",
    "postal_code": "45391"
  }
]