[
  {
    "village_code": "25458",
    "village": "BANYUASIH",
    "postal_code": "45354"
  },
  {
    "village_code": "25677",
    "village": "BOROS",
    "postal_code": "45354"
  },
  {
    "village_code": "26116",
    "village": "CIGENTUR",
    "postal_code": "45354"
  },
  {
    "village_code": "26628",
    "village": "CIPANAS",
    "postal_code": "45354"
  },
  {
    "village_code": "27188",
    "village": "GUNTURMEKAR",
    "postal_code": "45354"
  },
  {
    "village_code": "27985",
    "village": "KERTAHARJA",
    "postal_code": "45354"
  },
  {
    "village_code": "28006",
    "village": "KERTAMEKAR",
    "postal_code": "45354"
  },
  {
    "village_code": "28774",
    "village": "MULYAMEKAR",
    "postal_code": "45354"
  },
  {
    "village_code": "30376",
    "village": "SUKAMANTRI",
    "postal_code": "45354"
  },
  {
    "village_code": "30800",
    "village": "TANJUNGMEKAR",
    "postal_code": "45354"
  },
  {
    "village_code": "30803",
    "village": "TANJUNGMULYA",
    "postal_code": "45354"
  }
]