[
  {
    "village_code": "26220",
    "village": "CIJEUNGJING",
    "postal_code": "45377"
  },
  {
    "village_code": "26568",
    "village": "CINTAJAYA",
    "postal_code": "45377"
  },
  {
    "village_code": "26699",
    "village": "CIPICUNG",
    "postal_code": "45377"
  },
  {
    "village_code": "26731",
    "village": "CIRANGGEM",
    "postal_code": "45377"
  },
  {
    "village_code": "26779",
    "village": "CISAMPIH",
    "postal_code": "45377"
  },
  {
    "village_code": "27519",
    "village": "JEMAH",
    "postal_code": "45377"
  },
  {
    "village_code": "27550",
    "village": "KADU",
    "postal_code": "45377"
  },
  {
    "village_code": "27556",
    "village": "KADUJAYA",
    "postal_code": "45377"
  },
  {
    "village_code": "27820",
    "village": "KAREDOK",
    "postal_code": "45377"
  },
  {
    "village_code": "28212",
    "village": "LEBAKSIUH",
    "postal_code": "45377"
  },
  {
    "village_code": "28573",
    "village": "MEKARASIH",
    "postal_code": "45377"
  },
  {
    "village_code": "30264",
    "village": "SUKAKERSA",
    "postal_code": "45377"
  }
]