[
  {
    "village_code": "25499",
    "village": "BATULAYANG",
    "postal_code": "40562"
  },
  {
    "village_code": "25672",
    "village": "BONGAS",
    "postal_code": "40562"
  },
  {
    "village_code": "25689",
    "village": "BUDIHARJA",
    "postal_code": "40562"
  },
  {
    "village_code": "26448",
    "village": "CILILIN",
    "postal_code": "40562"
  },
  {
    "village_code": "27686",
    "village": "KARANGANYAR",
    "postal_code": "40562"
  },
  {
    "village_code": "27795",
    "village": "KARANGTANJUNG",
    "postal_code": "40562"
  },
  {
    "village_code": "27844",
    "village": "KARYAMUKTI",
    "postal_code": "40562"
  },
  {
    "village_code": "28074",
    "village": "KIDANGPANANJUNG",
    "postal_code": "40562"
  },
  {
    "village_code": "28759",
    "village": "MUKAPAYUNG",
    "postal_code": "40562"
  },
  {
    "village_code": "28858",
    "village": "NANGGERANG",
    "postal_code": "40562"
  },
  {
    "village_code": "29599",
    "village": "RANCAPANGGUNG",
    "postal_code": "40562"
  }
]