[
  {
    "village_code": "25632",
    "village": "BOJONGKONENG",
    "postal_code": "40552"
  },
  {
    "village_code": "26397",
    "village": "CILAME",
    "postal_code": "40552"
  },
  {
    "village_code": "26487",
    "village": "CIMANGGU",
    "postal_code": "40552"
  },
  {
    "village_code": "26505",
    "village": "CIMAREME",
    "postal_code": "40552"
  },
  {
    "village_code": "27023",
    "village": "GADOBANGKONG",
    "postal_code": "40552"
  },
  {
    "village_code": "28491",
    "village": "MARGAJAYA",
    "postal_code": "40552"
  },
  {
    "village_code": "28693",
    "village": "MEKARSARI",
    "postal_code": "40552"
  },
  {
    "village_code": "28912",
    "village": "NGAMPRAH",
    "postal_code": "40552"
  },
  {
    "village_code": "29043",
    "village": "PAKUHAJI",
    "postal_code": "40552"
  },
  {
    "village_code": "30592",
    "village": "SUKATANI",
    "postal_code": "40552"
  },
  {
    "village_code": "30766",
    "village": "TANIMULYA",
    "postal_code": "40552"
  }
]