[
  {
    "village_code": "25730",
    "village": "BUNINAGARA",
    "postal_code": "40563"
  },
  {
    "village_code": "26046",
    "village": "CICANGKANG GIRANG",
    "postal_code": "40563"
  },
  {
    "village_code": "26241",
    "village": "CIKADU",
    "postal_code": "40563"
  },
  {
    "village_code": "26573",
    "village": "CINTAKARYA",
    "postal_code": "40563"
  },
  {
    "village_code": "28725",
    "village": "MEKARWANGI",
    "postal_code": "40563"
  },
  {
    "village_code": "29360",
    "village": "PASIRPOGOR",
    "postal_code": "40563"
  },
  {
    "village_code": "29476",
    "village": "PUNCAKSARI",
    "postal_code": "40563"
  },
  {
    "village_code": "29570",
    "village": "RANCA SENGGANG",
    "postal_code": "40563"
  },
  {
    "village_code": "29946",
    "village": "SINDANGKERTA",
    "postal_code": "40563"
  },
  {
    "village_code": "31100",
    "village": "WANGUNSARI",
    "postal_code": "40563"
  },
  {
    "village_code": "31145",
    "village": "WENINGGALIH",
    "postal_code": "40563"
  }
]