[
  {
    "village_code": "25972",
    "village": "CIBODAS",
    "postal_code": "40391"
  },
  {
    "village_code": "25982",
    "village": "CIBOGO",
    "postal_code": "40391"
  },
  {
    "village_code": "26250",
    "village": "CIKAHURIPAN",
    "postal_code": "40391"
  },
  {
    "village_code": "26341",
    "village": "CIKIDANG",
    "postal_code": "40391"
  },
  {
    "village_code": "26349",
    "village": "CIKOLE",
    "postal_code": "40391"
  },
  {
    "village_code": "27180",
    "village": "GUDANGKAHURIPAN",
    "postal_code": "40391"
  },
  {
    "village_code": "27480",
    "village": "JAYAGIRI",
    "postal_code": "40391"
  },
  {
    "village_code": "27883",
    "village": "KAYUAMBON",
    "postal_code": "40391"
  },
  {
    "village_code": "28185",
    "village": "LANGENSARI",
    "postal_code": "40391"
  },
  {
    "village_code": "28249",
    "village": "LEMBANG",
    "postal_code": "40391"
  },
  {
    "village_code": "28723",
    "village": "MEKARWANGI",
    "postal_code": "40391"
  },
  {
    "village_code": "29016",
    "village": "PAGERWANGI",
    "postal_code": "40391"
  },
  {
    "village_code": "30241",
    "village": "SUKAJAYA",
    "postal_code": "40391"
  },
  {
    "village_code": "30669",
    "village": "SUNTENJAYA",
    "postal_code": "40391"
  },
  {
    "village_code": "31084",
    "village": "WANGUNHARJA",
    "postal_code": "40391"
  },
  {
    "village_code": "31097",
    "village": "WANGUNSARI",
    "postal_code": "40391"
  }
]