[
  {
    "village_code": "75139",
    "village": "AUTAKMA",
    "postal_code": "99511"
  },
  {
    "village_code": "75265",
    "village": "BATU MERAH",
    "postal_code": "99511"
  },
  {
    "village_code": "76160",
    "village": "HONAIMA",
    "postal_code": "99511"
  },
  {
    "village_code": "76162",
    "village": "HONELAMA",
    "postal_code": "99511"
  },
  {
    "village_code": "76161",
    "village": "HONELAMA DUA",
    "postal_code": "99511"
  },
  {
    "village_code": "76190",
    "village": "HULEKAMA  /  HUREKAMA",
    "postal_code": "99511"
  },
  {
    "village_code": "76952",
    "village": "LANITIPO",
    "postal_code": "99511"
  },
  {
    "village_code": "78345",
    "village": "SINAKMA",
    "postal_code": "99511"
  },
  {
    "village_code": "78347",
    "village": "SINAPUK",
    "postal_code": "99511"
  },
  {
    "village_code": "78991",
    "village": "WAMAROMA",
    "postal_code": "99511"
  },
  {
    "village_code": "79001",
    "village": "WAMENA KOTA",
    "postal_code": "99511"
  }
]