[
  {
    "village_code": "76174",
    "village": "HUBIKOSI",
    "postal_code": "99566"
  },
  {
    "village_code": "76227",
    "village": "IKILUMO",
    "postal_code": "99566"
  },
  {
    "village_code": "76296",
    "village": "ISAKUSA",
    "postal_code": "99566"
  },
  {
    "village_code": "76343",
    "village": "JIBILABAGA",
    "postal_code": "99566"
  },
  {
    "village_code": "76642",
    "village": "KIKHUMO",
    "postal_code": "99566"
  },
  {
    "village_code": "76790",
    "village": "KOSIHILAPOK",
    "postal_code": "99566"
  },
  {
    "village_code": "76792",
    "village": "KOSIMEAGE (KOSIMEAGA)",
    "postal_code": "99566"
  },
  {
    "village_code": "77256",
    "village": "MEAGAMA",
    "postal_code": "99566"
  },
  {
    "village_code": "77876",
    "village": "PELIMA",
    "postal_code": "99566"
  },
  {
    "village_code": "77932",
    "village": "PIPUKMO",
    "postal_code": "99566"
  },
  {
    "village_code": "78487",
    "village": "SUNILI",
    "postal_code": "99566"
  }
]