[
  {
    "village_code": "12464",
    "village": "BALAI BARU",
    "postal_code": "26212"
  },
  {
    "village_code": "12467",
    "village": "BALAI BETUNG (BATUNG / BATUANG)",
    "postal_code": "26216"
  },
  {
    "village_code": "12468",
    "village": "BALAI CACANG",
    "postal_code": "26214"
  },
  {
    "village_code": "12470",
    "village": "BALAI GADANG",
    "postal_code": "26214"
  },
  {
    "village_code": "12472",
    "village": "BALAI GURUN",
    "postal_code": "26212"
  },
  {
    "village_code": "12474",
    "village": "BALAI JARING / JARIANG",
    "postal_code": "26214"
  },
  {
    "village_code": "12475",
    "village": "BALAI KALIKIH",
    "postal_code": "26213"
  },
  {
    "village_code": "12582",
    "village": "BUNIAN",
    "postal_code": "26211"
  },
  {
    "village_code": "12597",
    "village": "CUBADAK AIR / AIE",
    "postal_code": "26217"
  },
  {
    "village_code": "12736",
    "village": "KANING / KANIANG BUKIK",
    "postal_code": "26215"
  },
  {
    "village_code": "12778",
    "village": "KOTO BARU",
    "postal_code": "26211"
  },
  {
    "village_code": "12851",
    "village": "KUBU GADANG",
    "postal_code": "26213"
  },
  {
    "village_code": "12874",
    "village": "LABUH / LABUAH BARU",
    "postal_code": "26213"
  },
  {
    "village_code": "13009",
    "village": "MUARO",
    "postal_code": "26215"
  },
  {
    "village_code": "13018",
    "village": "NAN KODOK",
    "postal_code": "26215"
  },
  {
    "village_code": "13021",
    "village": "NAPAR",
    "postal_code": "26218"
  },
  {
    "village_code": "13039",
    "village": "PADANG KADUDUK / KADUDUAK",
    "postal_code": "26218"
  },
  {
    "village_code": "13142",
    "village": "PASIR / PASIE",
    "postal_code": "26215"
  },
  {
    "village_code": "13152",
    "village": "PAYOLINYAM",
    "postal_code": "26217"
  },
  {
    "village_code": "13153",
    "village": "PAYONIBUNG / PAYONIBUANG",
    "postal_code": "26217"
  },
  {
    "village_code": "13429",
    "village": "TALAWI",
    "postal_code": "26216"
  },
  {
    "village_code": "13457",
    "village": "TANJUNG ANAU (TANJUANG ANAU)",
    "postal_code": "26216"
  },
  {
    "village_code": "13498",
    "village": "TAROK",
    "postal_code": "26218"
  },
  {
    "village_code": "13501",
    "village": "TARUKO",
    "postal_code": "26216"
  },
  {
    "village_code": "13518",
    "village": "TIMBAGO / TAMBAGO",
    "postal_code": "26217"
  }
]