[
  {
    "village_code": "12465",
    "village": "BALAI BATIMAH",
    "postal_code": "26231"
  },
  {
    "village_code": "12473",
    "village": "BALAI JARING / JARIANG",
    "postal_code": "26235"
  },
  {
    "village_code": "12478",
    "village": "BALAI NAN TUO",
    "postal_code": "26231"
  },
  {
    "village_code": "12551",
    "village": "BODI",
    "postal_code": "26235"
  },
  {
    "village_code": "12777",
    "village": "KOTO BARU",
    "postal_code": "26237"
  },
  {
    "village_code": "12814",
    "village": "KOTO PANJANG",
    "postal_code": "26237"
  },
  {
    "village_code": "13030",
    "village": "PADANG ALAI",
    "postal_code": "26236"
  },
  {
    "village_code": "13053",
    "village": "PADANG TANGAH PAYOBADAR",
    "postal_code": "26231"
  },
  {
    "village_code": "13057",
    "village": "PADANG TIAKAR HILIR / HILIE",
    "postal_code": "26232"
  },
  {
    "village_code": "13058",
    "village": "PADANG TIAKAR MUDIK / MUDIAK",
    "postal_code": "26232"
  },
  {
    "village_code": "13150",
    "village": "PAYOBASUNG / PAYOBASUANG",
    "postal_code": "26237"
  },
  {
    "village_code": "13191",
    "village": "RANAH",
    "postal_code": "26231"
  },
  {
    "village_code": "13254",
    "village": "SICINCIN HILIR / HILIE",
    "postal_code": "26233"
  },
  {
    "village_code": "13255",
    "village": "SICINCIN MUDIK / MUDIAK",
    "postal_code": "26233"
  }
]