[
  {
    "village_code": "73791",
    "village": "BOBONG",
    "postal_code": "97794"
  },
  {
    "village_code": "73996",
    "village": "GURUA",
    "postal_code": "97794"
  },
  {
    "village_code": "74010",
    "village": "HOLBOTA",
    "postal_code": "97794"
  },
  {
    "village_code": "74080",
    "village": "KASUARI",
    "postal_code": "97794"
  },
  {
    "village_code": "74085",
    "village": "KAWALO",
    "postal_code": "97794"
  },
  {
    "village_code": "74114",
    "village": "KRAMAT",
    "postal_code": "97794"
  },
  {
    "village_code": "74173",
    "village": "LIMBO",
    "postal_code": "97794"
  },
  {
    "village_code": "74177",
    "village": "LOHO BUBBA",
    "postal_code": "97794"
  },
  {
    "village_code": "74236",
    "village": "MARANTI JAYA",
    "postal_code": "97794"
  },
  {
    "village_code": "74249",
    "village": "MASONIT",
    "postal_code": "97794"
  },
  {
    "village_code": "74335",
    "village": "PANCORAN",
    "postal_code": "97794"
  },
  {
    "village_code": "74578",
    "village": "TALO",
    "postal_code": "97794"
  },
  {
    "village_code": "74625",
    "village": "TIMPAUS",
    "postal_code": "97794"
  },
  {
    "village_code": "74787",
    "village": "WAYO",
    "postal_code": "97794"
  }
]