[
  {
    "village_code": "58899",
    "village": "BAKARANGAN",
    "postal_code": "71152"
  },
  {
    "village_code": "59148",
    "village": "BUNDUNG",
    "postal_code": "71152"
  },
  {
    "village_code": "59211",
    "village": "GADUNG",
    "postal_code": "71152"
  },
  {
    "village_code": "59210",
    "village": "GADUNG KARAMAT",
    "postal_code": "71152"
  },
  {
    "village_code": "59549",
    "village": "KETAPANG",
    "postal_code": "71152"
  },
  {
    "village_code": "59771",
    "village": "MASTA",
    "postal_code": "71152"
  },
  {
    "village_code": "59988",
    "village": "PARIGI",
    "postal_code": "71152"
  },
  {
    "village_code": "59987",
    "village": "PARIGI KECIL",
    "postal_code": "71152"
  },
  {
    "village_code": "60023",
    "village": "PAUL",
    "postal_code": "71152"
  },
  {
    "village_code": "60599",
    "village": "TANGKAWANG",
    "postal_code": "71152"
  },
  {
    "village_code": "60598",
    "village": "TANGKAWANG BARU",
    "postal_code": "71152"
  },
  {
    "village_code": "60764",
    "village": "WARINGIN",
    "postal_code": "71152"
  }
]