[
  {
    "village_code": "25245",
    "village": "AMBIT",
    "postal_code": "45187"
  },
  {
    "village_code": "25984",
    "village": "CIBOGO",
    "postal_code": "45187"
  },
  {
    "village_code": "26373",
    "village": "CIKULAK",
    "postal_code": "45187"
  },
  {
    "village_code": "26372",
    "village": "CIKULAK KIDUL",
    "postal_code": "45187"
  },
  {
    "village_code": "26764",
    "village": "CISAAT",
    "postal_code": "45187"
  },
  {
    "village_code": "26870",
    "village": "CIUYAH",
    "postal_code": "45187"
  },
  {
    "village_code": "27237",
    "village": "GUNUNGSARI",
    "postal_code": "45187"
  },
  {
    "village_code": "27785",
    "village": "KARANGSARI",
    "postal_code": "45187"
  },
  {
    "village_code": "28707",
    "village": "MEKARSARI",
    "postal_code": "45187"
  },
  {
    "village_code": "31028",
    "village": "WALED ASEM",
    "postal_code": "45187"
  },
  {
    "village_code": "31029",
    "village": "WALED DESA",
    "postal_code": "45187"
  },
  {
    "village_code": "31030",
    "village": "WALED KOTA",
    "postal_code": "45187"
  }
]