[
  {
    "village_code": "25285",
    "village": "ASTANAJAPURA",
    "postal_code": "45181"
  },
  {
    "village_code": "25742",
    "village": "BUNTET",
    "postal_code": "45181"
  },
  {
    "village_code": "27377",
    "village": "JAPURA KIDUL",
    "postal_code": "45181"
  },
  {
    "village_code": "27379",
    "village": "JAPURABAKTI",
    "postal_code": "45181"
  },
  {
    "village_code": "27647",
    "village": "KANCI",
    "postal_code": "45181"
  },
  {
    "village_code": "27646",
    "village": "KANCI KULON",
    "postal_code": "45181"
  },
  {
    "village_code": "27959",
    "village": "KENDAL",
    "postal_code": "45181"
  },
  {
    "village_code": "28741",
    "village": "MERTAPADA KULON",
    "postal_code": "45181"
  },
  {
    "village_code": "28742",
    "village": "MERTAPADA WETAN",
    "postal_code": "45181"
  },
  {
    "village_code": "28798",
    "village": "MUNJUL",
    "postal_code": "45181"
  },
  {
    "village_code": "29863",
    "village": "SIDAMULYA",
    "postal_code": "45181"
  }
]