[
  {
    "village_code": "25304",
    "village": "BABAKAN LOSARI",
    "postal_code": "45193"
  },
  {
    "village_code": "25303",
    "village": "BABAKAN LOSARI LOR",
    "postal_code": "45193"
  },
  {
    "village_code": "27001",
    "village": "DUKUHWIDARA",
    "postal_code": "45193"
  },
  {
    "village_code": "27592",
    "village": "KALIBUNTU",
    "postal_code": "45193"
  },
  {
    "village_code": "27614",
    "village": "KALIMUKTI",
    "postal_code": "45193"
  },
  {
    "village_code": "28932",
    "village": "PABEDILAN KALER",
    "postal_code": "45193"
  },
  {
    "village_code": "28933",
    "village": "PABEDILAN KIDUL",
    "postal_code": "45193"
  },
  {
    "village_code": "28934",
    "village": "PABEDILAN KULON",
    "postal_code": "45193"
  },
  {
    "village_code": "28935",
    "village": "PABEDILAN WETAN",
    "postal_code": "45193"
  },
  {
    "village_code": "29373",
    "village": "PASURUAN",
    "postal_code": "45193"
  },
  {
    "village_code": "29870",
    "village": "SIDARESMI",
    "postal_code": "45193"
  },
  {
    "village_code": "29876",
    "village": "SILIHASIH",
    "postal_code": "45193"
  },
  {
    "village_code": "30949",
    "village": "TERSANA",
    "postal_code": "45193"
  }
]