[
  {
    "village_code": "25370",
    "village": "BALERANTE",
    "postal_code": "45161"
  },
  {
    "village_code": "25520",
    "village": "BEBERAN",
    "postal_code": "45161"
  },
  {
    "village_code": "25815",
    "village": "CENGKUANG",
    "postal_code": "45161"
  },
  {
    "village_code": "25851",
    "village": "CIAWI",
    "postal_code": "45161"
  },
  {
    "village_code": "26459",
    "village": "CILUKRAK",
    "postal_code": "45161"
  },
  {
    "village_code": "27965",
    "village": "KEPUH",
    "postal_code": "45161"
  },
  {
    "village_code": "28358",
    "village": "LUNGBENDA",
    "postal_code": "45161"
  },
  {
    "village_code": "29065",
    "village": "PALIMANAN TIMUR",
    "postal_code": "45161"
  },
  {
    "village_code": "29182",
    "village": "PANONGAN",
    "postal_code": "45161"
  },
  {
    "village_code": "29402",
    "village": "PEGAGAN",
    "postal_code": "45161"
  },
  {
    "village_code": "29813",
    "village": "SEMPLO",
    "postal_code": "45161"
  },
  {
    "village_code": "30882",
    "village": "TEGALKARANG",
    "postal_code": "45161"
  }
]