[
  {
    "village_code": "25509",
    "village": "BAYALANGU KIDUL",
    "postal_code": "45164"
  },
  {
    "village_code": "25510",
    "village": "BAYALANGU LOR",
    "postal_code": "45164"
  },
  {
    "village_code": "27086",
    "village": "GEGESIK KIDUL",
    "postal_code": "45164"
  },
  {
    "village_code": "27087",
    "village": "GEGESIK KULON",
    "postal_code": "45164"
  },
  {
    "village_code": "27088",
    "village": "GEGESIK LOR",
    "postal_code": "45164"
  },
  {
    "village_code": "27089",
    "village": "GEGESIK WETAN",
    "postal_code": "45164"
  },
  {
    "village_code": "27333",
    "village": "JAGAPURA KIDUL",
    "postal_code": "45164"
  },
  {
    "village_code": "27334",
    "village": "JAGAPURA KULON",
    "postal_code": "45164"
  },
  {
    "village_code": "27335",
    "village": "JAGAPURA LOR",
    "postal_code": "45164"
  },
  {
    "village_code": "27336",
    "village": "JAGAPURA WETAN",
    "postal_code": "45164"
  },
  {
    "village_code": "27929",
    "village": "KEDUNGDALEM",
    "postal_code": "45164"
  },
  {
    "village_code": "29194",
    "village": "PANUNGGUL",
    "postal_code": "45164"
  },
  {
    "village_code": "29855",
    "village": "SIBUBUT",
    "postal_code": "45164"
  },
  {
    "village_code": "30103",
    "village": "SLENDRA",
    "postal_code": "45164"
  }
]