[
  {
    "village_code": "26317",
    "village": "CIKEDUK",
    "postal_code": "45155"
  },
  {
    "village_code": "26968",
    "village": "DEPOK",
    "postal_code": "45155"
  },
  {
    "village_code": "27118",
    "village": "GETASAN",
    "postal_code": "45155"
  },
  {
    "village_code": "27809",
    "village": "KARANGWANGI",
    "postal_code": "45155"
  },
  {
    "village_code": "27866",
    "village": "KASUGENGAN KIDUL",
    "postal_code": "45155"
  },
  {
    "village_code": "27867",
    "village": "KASUGENGAN LOR",
    "postal_code": "45155"
  },
  {
    "village_code": "27921",
    "village": "KEDUANAN",
    "postal_code": "45155"
  },
  {
    "village_code": "27946",
    "village": "KEJUDEN",
    "postal_code": "45155"
  },
  {
    "village_code": "31130",
    "village": "WARUGEDE",
    "postal_code": "45155"
  },
  {
    "village_code": "31131",
    "village": "WARUJAYA",
    "postal_code": "45155"
  },
  {
    "village_code": "31133",
    "village": "WARUKAWUNG",
    "postal_code": "45155"
  },
  {
    "village_code": "31140",
    "village": "WARUROYOM",
    "postal_code": "45155"
  }
]