[
  {
    "village_code": "26977",
    "village": "DOMPYONG KULON",
    "postal_code": "45191"
  },
  {
    "village_code": "26978",
    "village": "DOMPYONG WETAN",
    "postal_code": "45191"
  },
  {
    "village_code": "27026",
    "village": "GAGASARI",
    "postal_code": "45191"
  },
  {
    "village_code": "27075",
    "village": "GEBANG",
    "postal_code": "45191"
  },
  {
    "village_code": "27074",
    "village": "GEBANG KULON",
    "postal_code": "45191"
  },
  {
    "village_code": "27076",
    "village": "GEBANGILIR",
    "postal_code": "45191"
  },
  {
    "village_code": "27078",
    "village": "GEBANGMEKAR",
    "postal_code": "45191"
  },
  {
    "village_code": "27079",
    "village": "GEBANGUDIK",
    "postal_code": "45191"
  },
  {
    "village_code": "27609",
    "village": "KALIMARO",
    "postal_code": "45191"
  },
  {
    "village_code": "27613",
    "village": "KALIMEKAR",
    "postal_code": "45191"
  },
  {
    "village_code": "27616",
    "village": "KALIPASUNG",
    "postal_code": "45191"
  },
  {
    "village_code": "28733",
    "village": "MELAKASARI",
    "postal_code": "45191"
  },
  {
    "village_code": "29415",
    "village": "PELAYANGAN (PLAYANGAN)",
    "postal_code": "45191"
  }
]