[
  {
    "village_code": "73692",
    "village": "AKELAMO / FIDA",
    "postal_code": "97783"
  },
  {
    "village_code": "73906",
    "village": "FOYA",
    "postal_code": "97783"
  },
  {
    "village_code": "73905",
    "village": "FOYA TOBARU",
    "postal_code": "97783"
  },
  {
    "village_code": "74089",
    "village": "KEBUN RAJA",
    "postal_code": "97783"
  },
  {
    "village_code": "74111",
    "village": "KOTALOU",
    "postal_code": "97783"
  },
  {
    "village_code": "74144",
    "village": "LALUBI",
    "postal_code": "97783"
  },
  {
    "village_code": "74203",
    "village": "MAFFA",
    "postal_code": "97783"
  },
  {
    "village_code": "74424",
    "village": "SAKITA (SAKETA / BOTONAM)",
    "postal_code": "97783"
  },
  {
    "village_code": "74535",
    "village": "SUMBER MAKMUR",
    "postal_code": "97783"
  },
  {
    "village_code": "74582",
    "village": "TANJUNG JERE",
    "postal_code": "97783"
  },
  {
    "village_code": "74631",
    "village": "TOBARU",
    "postal_code": "97783"
  },
  {
    "village_code": "74802",
    "village": "WOSI",
    "postal_code": "97783"
  }
]