[
  {
    "village_code": "73753",
    "village": "BATULAK",
    "postal_code": "97782"
  },
  {
    "village_code": "73800",
    "village": "BOSO",
    "postal_code": "97782"
  },
  {
    "village_code": "73858",
    "village": "DOLIK",
    "postal_code": "97782"
  },
  {
    "village_code": "73910",
    "village": "FULAI (JIKOLAMO / FULAY)",
    "postal_code": "97782"
  },
  {
    "village_code": "73989",
    "village": "GUMIRAH (GUMIRA)",
    "postal_code": "97782"
  },
  {
    "village_code": "74274",
    "village": "MOLOKU",
    "postal_code": "97782"
  },
  {
    "village_code": "74311",
    "village": "NURJIHAT",
    "postal_code": "97782"
  },
  {
    "village_code": "74389",
    "village": "POSI POSI",
    "postal_code": "97782"
  },
  {
    "village_code": "74435",
    "village": "SAMAT",
    "postal_code": "97782"
  },
  {
    "village_code": "74440",
    "village": "SAMO",
    "postal_code": "97782"
  },
  {
    "village_code": "74527",
    "village": "SUKA DAMAI",
    "postal_code": "97782"
  },
  {
    "village_code": "74661",
    "village": "TOKAKA",
    "postal_code": "97782"
  }
]