[
  {
    "village_code": "73838",
    "village": "DALAM",
    "postal_code": "97756"
  },
  {
    "village_code": "73844",
    "village": "DAURI (DAIWORI)",
    "postal_code": "97756"
  },
  {
    "village_code": "73956",
    "village": "GITANG",
    "postal_code": "97756"
  },
  {
    "village_code": "73976",
    "village": "GORUP",
    "postal_code": "97756"
  },
  {
    "village_code": "73995",
    "village": "GURUA",
    "postal_code": "97756"
  },
  {
    "village_code": "74096",
    "village": "KIOWOR (KYOWOR)",
    "postal_code": "97756"
  },
  {
    "village_code": "74252",
    "village": "MATENTENGEN (MATAN TENGIN)",
    "postal_code": "97756"
  },
  {
    "village_code": "74378",
    "village": "PLOLI (PLOLY)",
    "postal_code": "97756"
  },
  {
    "village_code": "74398",
    "village": "RABUTDAIYO (RABUTDAIO)",
    "postal_code": "97756"
  },
  {
    "village_code": "74449",
    "village": "SANGAPATI",
    "postal_code": "97756"
  },
  {
    "village_code": "74512",
    "village": "SOMA (SUMA)",
    "postal_code": "97756"
  },
  {
    "village_code": "74734",
    "village": "WAIGITANG  /  WAIGITAN",
    "postal_code": "97756"
  },
  {
    "village_code": "74742",
    "village": "WAIKYON (KOTA)",
    "postal_code": "97756"
  },
  {
    "village_code": "74747",
    "village": "WAILOA",
    "postal_code": "97756"
  },
  {
    "village_code": "74762",
    "village": "WALO",
    "postal_code": "97756"
  }
]