[
  {
    "village_code": "52194",
    "village": "BARANG",
    "postal_code": "86591"
  },
  {
    "village_code": "52225",
    "village": "BEA MESE",
    "postal_code": "86591"
  },
  {
    "village_code": "52624",
    "village": "GAPONG",
    "postal_code": "86591"
  },
  {
    "village_code": "52714",
    "village": "GOLO",
    "postal_code": "86591"
  },
  {
    "village_code": "52673",
    "village": "GOLO NCUANG",
    "postal_code": "86591"
  },
  {
    "village_code": "52992",
    "village": "KENTOL",
    "postal_code": "86591"
  },
  {
    "village_code": "53140",
    "village": "LADUR",
    "postal_code": "86591"
  },
  {
    "village_code": "53208",
    "village": "LANDO",
    "postal_code": "86591"
  },
  {
    "village_code": "53217",
    "village": "LANGKAS",
    "postal_code": "86591"
  },
  {
    "village_code": "53822",
    "village": "NENU",
    "postal_code": "86591"
  },
  {
    "village_code": "54141",
    "village": "PAGAL",
    "postal_code": "86591"
  },
  {
    "village_code": "54212",
    "village": "PERAK",
    "postal_code": "86591"
  },
  {
    "village_code": "54224",
    "village": "PINGGANG",
    "postal_code": "86591"
  },
  {
    "village_code": "54328",
    "village": "RADO",
    "postal_code": "86591"
  },
  {
    "village_code": "54438",
    "village": "RIUNG",
    "postal_code": "86591"
  },
  {
    "village_code": "55122",
    "village": "WELU",
    "postal_code": "86591"
  },
  {
    "village_code": "55214",
    "village": "WUDI",
    "postal_code": "86591"
  }
]