[
  {
    "village_code": "52224",
    "village": "BEA KONDO",
    "postal_code": "86561"
  },
  {
    "village_code": "52365",
    "village": "BORIK",
    "postal_code": "86561"
  },
  {
    "village_code": "52400",
    "village": "CAMBIR LECA",
    "postal_code": "86561"
  },
  {
    "village_code": "52404",
    "village": "CEKA LUJU",
    "postal_code": "86561"
  },
  {
    "village_code": "52408",
    "village": "CIRENG",
    "postal_code": "86561"
  },
  {
    "village_code": "52691",
    "village": "GOLO ROPONG",
    "postal_code": "86561"
  },
  {
    "village_code": "52720",
    "village": "GULUNG",
    "postal_code": "86561"
  },
  {
    "village_code": "52776",
    "village": "HILIHINTIR",
    "postal_code": "86561"
  },
  {
    "village_code": "53041",
    "village": "KOLE",
    "postal_code": "86561"
  },
  {
    "village_code": "53354",
    "village": "LIA",
    "postal_code": "86561"
  },
  {
    "village_code": "53379",
    "village": "LING",
    "postal_code": "86561"
  },
  {
    "village_code": "53540",
    "village": "MATA WAE",
    "postal_code": "86561"
  },
  {
    "village_code": "53753",
    "village": "NAO",
    "postal_code": "86561"
  },
  {
    "village_code": "53946",
    "village": "NUCA MOLAS",
    "postal_code": "86561"
  },
  {
    "village_code": "54265",
    "village": "POPO",
    "postal_code": "86561"
  },
  {
    "village_code": "54398",
    "village": "RENDA",
    "postal_code": "86561"
  },
  {
    "village_code": "54457",
    "village": "RUANG",
    "postal_code": "86561"
  },
  {
    "village_code": "54512",
    "village": "SATAR LENDA",
    "postal_code": "86561"
  },
  {
    "village_code": "54514",
    "village": "SATAR LUJU",
    "postal_code": "86561"
  },
  {
    "village_code": "54520",
    "village": "SATAR RUWUK",
    "postal_code": "86561"
  },
  {
    "village_code": "54736",
    "village": "TERONG",
    "postal_code": "86561"
  },
  {
    "village_code": "54781",
    "village": "TODO",
    "postal_code": "86561"
  },
  {
    "village_code": "55207",
    "village": "WONGKA",
    "postal_code": "86561"
  }
]