[
  {
    "village_code": "51076",
    "village": "BRANG KOLONG",
    "postal_code": "84383"
  },
  {
    "village_code": "51550",
    "village": "MUER",
    "postal_code": "84383"
  },
  {
    "village_code": "51689",
    "village": "PLAMPANG",
    "postal_code": "84383"
  },
  {
    "village_code": "51825",
    "village": "SELANTE",
    "postal_code": "84383"
  },
  {
    "village_code": "51855",
    "village": "SEPAKAT",
    "postal_code": "84383"
  },
  {
    "village_code": "51858",
    "village": "SEPAYUNG",
    "postal_code": "84383"
  },
  {
    "village_code": "51900",
    "village": "SP I PRODE / PERODE",
    "postal_code": "84383"
  },
  {
    "village_code": "51901",
    "village": "SP II PRODE / PERODE",
    "postal_code": "84383"
  },
  {
    "village_code": "51902",
    "village": "SP III PRODE / PERODE",
    "postal_code": "84383"
  },
  {
    "village_code": "51978",
    "village": "TELUK SANTONG",
    "postal_code": "84383"
  },
  {
    "village_code": "52020",
    "village": "USAR",
    "postal_code": "84383"
  }
]