[
  {
    "village_code": "278",
    "village": "ALUR LINCI",
    "postal_code": "24784"
  },
  {
    "village_code": "1141",
    "village": "BULU ARA",
    "postal_code": "24784"
  },
  {
    "village_code": "1143",
    "village": "BULU SEMA",
    "postal_code": "24784"
  },
  {
    "village_code": "2390",
    "village": "KERAS",
    "postal_code": "24784"
  },
  {
    "village_code": "2398",
    "village": "KETANGKIHAN",
    "postal_code": "24784"
  },
  {
    "village_code": "2877",
    "village": "LAE BANGUN",
    "postal_code": "24784"
  },
  {
    "village_code": "3542",
    "village": "MANDUMPANG",
    "postal_code": "24784"
  },
  {
    "village_code": "4328",
    "village": "PANGKALAN SULAMPI",
    "postal_code": "24784"
  },
  {
    "village_code": "5641",
    "village": "SIOMPIN",
    "postal_code": "24784"
  },
  {
    "village_code": "5647",
    "village": "SIRIMO MUNGKUR",
    "postal_code": "24784"
  },
  {
    "village_code": "5795",
    "village": "SURO BARU",
    "postal_code": "24784"
  }
]