[
  {
    "village_code": "40356",
    "village": "BAGOR WETAN",
    "postal_code": "64481"
  },
  {
    "village_code": "41029",
    "village": "BLITARAN",
    "postal_code": "64481"
  },
  {
    "village_code": "41286",
    "village": "BUNGUR",
    "postal_code": "64481"
  },
  {
    "village_code": "42853",
    "village": "KAPAS",
    "postal_code": "64481"
  },
  {
    "village_code": "43303",
    "village": "KEDUNG SOKO",
    "postal_code": "64481"
  },
  {
    "village_code": "44941",
    "village": "NGLUNDO",
    "postal_code": "64481"
  },
  {
    "village_code": "44959",
    "village": "NGRAMI",
    "postal_code": "64481"
  },
  {
    "village_code": "44986",
    "village": "NGRENGKET",
    "postal_code": "64481"
  },
  {
    "village_code": "45525",
    "village": "PEHSERUT",
    "postal_code": "64481"
  },
  {
    "village_code": "46087",
    "village": "PUTREN",
    "postal_code": "64481"
  },
  {
    "village_code": "47149",
    "village": "SUKOMORO",
    "postal_code": "64481"
  },
  {
    "village_code": "47539",
    "village": "SUMENGKO",
    "postal_code": "64481"
  }
]