[
  {
    "village_code": "40465",
    "village": "BANARAN",
    "postal_code": "64311"
  },
  {
    "village_code": "40541",
    "village": "BANGSRI",
    "postal_code": "64315"
  },
  {
    "village_code": "41657",
    "village": "DRENGES",
    "postal_code": "64315"
  },
  {
    "village_code": "42622",
    "village": "JUWONO",
    "postal_code": "64315"
  },
  {
    "village_code": "42688",
    "village": "KALIANYAR",
    "postal_code": "64315"
  },
  {
    "village_code": "43586",
    "village": "KEPUH",
    "postal_code": "64315"
  },
  {
    "village_code": "43952",
    "village": "KUDU",
    "postal_code": "64312"
  },
  {
    "village_code": "43998",
    "village": "KUTOREJO",
    "postal_code": "64313"
  },
  {
    "village_code": "44044",
    "village": "LAMBANG KUNING",
    "postal_code": "64315"
  },
  {
    "village_code": "44920",
    "village": "NGLAWAK",
    "postal_code": "64315"
  },
  {
    "village_code": "45290",
    "village": "PANDAN TOYO",
    "postal_code": "64315"
  },
  {
    "village_code": "45564",
    "village": "PELEM",
    "postal_code": "64314"
  },
  {
    "village_code": "47847",
    "village": "TANJUNG",
    "postal_code": "64315"
  },
  {
    "village_code": "48017",
    "village": "TEMBARAK",
    "postal_code": "64315"
  }
]