[
  {
    "village_code": "313",
    "village": "ANTONG",
    "postal_code": "23681"
  },
  {
    "village_code": "422",
    "village": "BABAH KRUENG MANGGIE",
    "postal_code": "23681"
  },
  {
    "village_code": "554",
    "village": "BARO PAYA",
    "postal_code": "23681"
  },
  {
    "village_code": "750",
    "village": "BLANG BALEE",
    "postal_code": "23681"
  },
  {
    "village_code": "996",
    "village": "BLANG TEUNGOH",
    "postal_code": "23681"
  },
  {
    "village_code": "1367",
    "village": "COT MANGGIE",
    "postal_code": "23681"
  },
  {
    "village_code": "1695",
    "village": "GAMPONG BARO",
    "postal_code": "23681"
  },
  {
    "village_code": "1999",
    "village": "GUNUNG MATA IE",
    "postal_code": "23681"
  },
  {
    "village_code": "2668",
    "village": "KUALA MANYE",
    "postal_code": "23681"
  },
  {
    "village_code": "3249",
    "village": "LEK LEK",
    "postal_code": "23681"
  },
  {
    "village_code": "3552",
    "village": "MANGGIE",
    "postal_code": "23681"
  },
  {
    "village_code": "4084",
    "village": "MEUTULANG",
    "postal_code": "23681"
  },
  {
    "village_code": "4127",
    "village": "MUGO CUT",
    "postal_code": "23681"
  },
  {
    "village_code": "4128",
    "village": "MUGO RAYEUK",
    "postal_code": "23681"
  },
  {
    "village_code": "4562",
    "village": "PAYA BARO MEUKO",
    "postal_code": "23681"
  },
  {
    "village_code": "5549",
    "village": "SIBINTANG",
    "postal_code": "23681"
  },
  {
    "village_code": "5818",
    "village": "TAMPING",
    "postal_code": "23681"
  },
  {
    "village_code": "6209",
    "village": "TUWI BUYA",
    "postal_code": "23681"
  },
  {
    "village_code": "6256",
    "village": "UJONG RAJA",
    "postal_code": "23681"
  }
]