[
  {
    "village_code": "50",
    "village": "ALUE BAGOK",
    "postal_code": "23652"
  },
  {
    "village_code": "56",
    "village": "ALUE BATEE",
    "postal_code": "23652"
  },
  {
    "village_code": "244",
    "village": "ALUE SUNDAK",
    "postal_code": "23652"
  },
  {
    "village_code": "340",
    "village": "ARONGAN",
    "postal_code": "23652"
  },
  {
    "village_code": "1276",
    "village": "COT BULOH",
    "postal_code": "23652"
  },
  {
    "village_code": "1312",
    "village": "COT JURUMUDI",
    "postal_code": "23652"
  },
  {
    "village_code": "1328",
    "village": "COT KUMBANG",
    "postal_code": "23652"
  },
  {
    "village_code": "1634",
    "village": "DRIEN RAMPAK",
    "postal_code": "23652"
  },
  {
    "village_code": "1979",
    "village": "GUNONG PULO",
    "postal_code": "23652"
  },
  {
    "village_code": "2308",
    "village": "KARANG HAMPA",
    "postal_code": "23652"
  },
  {
    "village_code": "2401",
    "village": "KEUB",
    "postal_code": "23652"
  },
  {
    "village_code": "2687",
    "village": "KUBU",
    "postal_code": "23652"
  },
  {
    "village_code": "4403",
    "village": "PANTE MEUTIA",
    "postal_code": "23652"
  },
  {
    "village_code": "4433",
    "village": "PANTON BAHAGIA",
    "postal_code": "23652"
  },
  {
    "village_code": "4447",
    "village": "PANTON MAKMUR",
    "postal_code": "23652"
  },
  {
    "village_code": "4775",
    "village": "PEULANTEU LB",
    "postal_code": "23652"
  },
  {
    "village_code": "4802",
    "village": "PEURIBU",
    "postal_code": "23652"
  },
  {
    "village_code": "5202",
    "village": "RIMBA LANGGEH",
    "postal_code": "23652"
  },
  {
    "village_code": "5476",
    "village": "SEUNEUBOK LUENG",
    "postal_code": "23652"
  },
  {
    "village_code": "5509",
    "village": "SEUNEUBOK TEUNGOH",
    "postal_code": "23652"
  },
  {
    "village_code": "5611",
    "village": "SIMPANG PEUT",
    "postal_code": "23652"
  },
  {
    "village_code": "5672",
    "village": "SUAK BIDOK",
    "postal_code": "23652"
  },
  {
    "village_code": "5676",
    "village": "SUAK IE BEUSOU",
    "postal_code": "23652"
  },
  {
    "village_code": "5677",
    "village": "SUAK KEUMUDEE",
    "postal_code": "23652"
  },
  {
    "village_code": "6066",
    "village": "TEUPIN PEURAHO",
    "postal_code": "23652"
  },
  {
    "village_code": "6230",
    "village": "UJONG BEUSA",
    "postal_code": "23652"
  },
  {
    "village_code": "6260",
    "village": "UJONG SIMPANG",
    "postal_code": "23652"
  }
]