[
  {
    "village_code": "51",
    "village": "ALUE BAKONG",
    "postal_code": "23652"
  },
  {
    "village_code": "175",
    "village": "ALUE LHOK",
    "postal_code": "23652"
  },
  {
    "village_code": "665",
    "village": "BEURAWANG",
    "postal_code": "23652"
  },
  {
    "village_code": "982",
    "village": "BLANG SIBEUTONG",
    "postal_code": "23652"
  },
  {
    "village_code": "1320",
    "village": "COT KEUMUNENG",
    "postal_code": "23652"
  },
  {
    "village_code": "1338",
    "village": "COT LADA",
    "postal_code": "23652"
  },
  {
    "village_code": "1977",
    "village": "GUNONG PANAH",
    "postal_code": "23652"
  },
  {
    "village_code": "2673",
    "village": "KUALA PLING",
    "postal_code": "23652"
  },
  {
    "village_code": "2779",
    "village": "KUTA PADANG",
    "postal_code": "23652"
  },
  {
    "village_code": "3248",
    "village": "LAYUNG",
    "postal_code": "23652"
  },
  {
    "village_code": "3412",
    "village": "LICEH",
    "postal_code": "23652"
  },
  {
    "village_code": "4776",
    "village": "PEULANTEU SP",
    "postal_code": "23652"
  },
  {
    "village_code": "5070",
    "village": "RAMBONG",
    "postal_code": "23652"
  },
  {
    "village_code": "5417",
    "village": "SEUMULENG",
    "postal_code": "23652"
  },
  {
    "village_code": "5519",
    "village": "SEUNEUBOK TRAP",
    "postal_code": "23652"
  },
  {
    "village_code": "5686",
    "village": "SUAK PANGKAT",
    "postal_code": "23652"
  },
  {
    "village_code": "6319",
    "village": "ULEE BLANG",
    "postal_code": "23652"
  }
]