[
  {
    "village_code": "68",
    "village": "ALUE BILIE",
    "postal_code": "23682"
  },
  {
    "village_code": "107",
    "village": "ALUE EMPEUK",
    "postal_code": "23682"
  },
  {
    "village_code": "166",
    "village": "ALUE KUYUEN",
    "postal_code": "23682"
  },
  {
    "village_code": "186",
    "village": "ALUE MEUGANDA",
    "postal_code": "23682"
  },
  {
    "village_code": "236",
    "village": "ALUE SEURALEN",
    "postal_code": "23682"
  },
  {
    "village_code": "813",
    "village": "BLANG DALAM",
    "postal_code": "23682"
  },
  {
    "village_code": "871",
    "village": "BLANG LUAH KB",
    "postal_code": "23682"
  },
  {
    "village_code": "877",
    "village": "BLANG MAKMUR",
    "postal_code": "23682"
  },
  {
    "village_code": "1064",
    "village": "BUKET MEUGAJAH (BUKIT MEGAJAH)",
    "postal_code": "23682"
  },
  {
    "village_code": "1406",
    "village": "COT PUNTI",
    "postal_code": "23682"
  },
  {
    "village_code": "1684",
    "village": "GAMPONG BARO KB",
    "postal_code": "23682"
  },
  {
    "village_code": "1687",
    "village": "GAMPONG BARO WT",
    "postal_code": "23682"
  },
  {
    "village_code": "1978",
    "village": "GUNONG PANYANG",
    "postal_code": "23682"
  },
  {
    "village_code": "2685",
    "village": "KUBU CAPANG (KEUBEU CAPANG)",
    "postal_code": "23682"
  },
  {
    "village_code": "3273",
    "village": "LEUBOK / LUBOK PANYANG",
    "postal_code": "23682"
  },
  {
    "village_code": "4501",
    "village": "PASI ARA WT",
    "postal_code": "23682"
  },
  {
    "village_code": "4508",
    "village": "PASI JANENG",
    "postal_code": "23682"
  },
  {
    "village_code": "4566",
    "village": "PAYA BARO",
    "postal_code": "23682"
  },
  {
    "village_code": "4635",
    "village": "PAYA MEUGEUNDRANG",
    "postal_code": "23682"
  },
  {
    "village_code": "5075",
    "village": "RAMBONG",
    "postal_code": "23682"
  },
  {
    "village_code": "5068",
    "village": "RAMBONG PINTO",
    "postal_code": "23682"
  },
  {
    "village_code": "5461",
    "village": "SEUNEUBOK DALAM",
    "postal_code": "23682"
  },
  {
    "village_code": "5536",
    "village": "SEURADEUK",
    "postal_code": "23682"
  },
  {
    "village_code": "5837",
    "village": "TANGKEH",
    "postal_code": "23682"
  },
  {
    "village_code": "6015",
    "village": "TEUMIKET RANOM",
    "postal_code": "23682"
  },
  {
    "village_code": "6211",
    "village": "TUWI EMPEUK",
    "postal_code": "23682"
  }
]