[
  {
    "village_code": "6512",
    "village": "AEK LANCAT",
    "postal_code": "22763"
  },
  {
    "village_code": "6971",
    "village": "BATANG BULU JAE",
    "postal_code": "22763"
  },
  {
    "village_code": "6973",
    "village": "BATANG BULU TANGGAL",
    "postal_code": "22763"
  },
  {
    "village_code": "6984",
    "village": "BATANG TANGGAL BARU",
    "postal_code": "22763"
  },
  {
    "village_code": "7185",
    "village": "BONAL",
    "postal_code": "22763"
  },
  {
    "village_code": "7638",
    "village": "GUNUNG MANOBOT",
    "postal_code": "22763"
  },
  {
    "village_code": "8057",
    "village": "HUTA DOLOK (LATONG)",
    "postal_code": "22763"
  },
  {
    "village_code": "8078",
    "village": "HUTA IBUS",
    "postal_code": "22763"
  },
  {
    "village_code": "8092",
    "village": "HUTA LOMBANG",
    "postal_code": "22763"
  },
  {
    "village_code": "8105",
    "village": "HUTA NOPAN",
    "postal_code": "22763"
  },
  {
    "village_code": "8238",
    "village": "JANJI LOBI LIMA",
    "postal_code": "22763"
  },
  {
    "village_code": "8253",
    "village": "JANJI MATOGU",
    "postal_code": "22763"
  },
  {
    "village_code": "9514",
    "village": "PAGARAN JAE BATU",
    "postal_code": "22763"
  },
  {
    "village_code": "9515",
    "village": "PAGARAN JALU JALU",
    "postal_code": "22763"
  },
  {
    "village_code": "9522",
    "village": "PAGARAN MALAKA",
    "postal_code": "22763"
  },
  {
    "village_code": "9524",
    "village": "PAGARAN MOMPANG",
    "postal_code": "22763"
  },
  {
    "village_code": "9527",
    "village": "PAGARAN SILINDUNG",
    "postal_code": "22763"
  },
  {
    "village_code": "9837",
    "village": "PARSOMBAAN",
    "postal_code": "22763"
  },
  {
    "village_code": "9887",
    "village": "PASAR LATONG",
    "postal_code": "22763"
  },
  {
    "village_code": "10572",
    "village": "SANGKILON",
    "postal_code": "22763"
  },
  {
    "village_code": "10828",
    "village": "SIALI ALI",
    "postal_code": "22763"
  },
  {
    "village_code": "11109",
    "village": "SIHIUK",
    "postal_code": "22763"
  },
  {
    "village_code": "11828",
    "village": "SURODINGIN",
    "postal_code": "22763"
  },
  {
    "village_code": "11906",
    "village": "TANGGA BOSI",
    "postal_code": "22763"
  }
]