[
  {
    "village_code": "6626",
    "village": "ALI AGA",
    "postal_code": "22774"
  },
  {
    "village_code": "7654",
    "village": "GUNUNG MULIA",
    "postal_code": "22774"
  },
  {
    "village_code": "8127",
    "village": "HUTA RAJA TINGGI",
    "postal_code": "22774"
  },
  {
    "village_code": "8824",
    "village": "LUBUK BUNUT",
    "postal_code": "22774"
  },
  {
    "village_code": "8963",
    "village": "MANANTI SOSA JAE",
    "postal_code": "22774"
  },
  {
    "village_code": "9016",
    "village": "MARGO MULIA (PIRTRANS SOSA IV)",
    "postal_code": "22774"
  },
  {
    "village_code": "9197",
    "village": "MULYA SARI",
    "postal_code": "22774"
  },
  {
    "village_code": "9511",
    "village": "PAGARAN DOLOK SOSA JAE",
    "postal_code": "22774"
  },
  {
    "village_code": "9676",
    "village": "PANYABUNGAN",
    "postal_code": "22774"
  },
  {
    "village_code": "9805",
    "village": "PARMAINAN",
    "postal_code": "22774"
  },
  {
    "village_code": "9901",
    "village": "PASAR PANYABUNGAN",
    "postal_code": "22774"
  },
  {
    "village_code": "9983",
    "village": "PAYOMBUR (PAYAOMBOR)",
    "postal_code": "22774"
  },
  {
    "village_code": "10259",
    "village": "PIRTRANS SOSA II",
    "postal_code": "22774"
  },
  {
    "village_code": "10810",
    "village": "SIABU",
    "postal_code": "22774"
  },
  {
    "village_code": "10899",
    "village": "SIBODAK SOSA JAE",
    "postal_code": "22774"
  },
  {
    "village_code": "10960",
    "village": "SIDO MULYO (PIRTRANS SOSA III A)",
    "postal_code": "22774"
  },
  {
    "village_code": "11028",
    "village": "SIGALA GALA",
    "postal_code": "22774"
  },
  {
    "village_code": "11034",
    "village": "SIGALAPUNG",
    "postal_code": "22774"
  },
  {
    "village_code": "11251",
    "village": "SIMANGAMBAT",
    "postal_code": "22774"
  },
  {
    "village_code": "11675",
    "village": "SOSA MULIA",
    "postal_code": "22774"
  },
  {
    "village_code": "11716",
    "village": "SUKA DAME (PIRTRANS SOSA III B)",
    "postal_code": "22774"
  },
  {
    "village_code": "11814",
    "village": "SUNGAI KORANG",
    "postal_code": "22774"
  },
  {
    "village_code": "11918",
    "village": "TANJUNG ALE",
    "postal_code": "22774"
  },
  {
    "village_code": "11926",
    "village": "TANJUNG BARINGIN",
    "postal_code": "22774"
  },
  {
    "village_code": "12014",
    "village": "TANJUNG SARI (PIRTRANS SOSA IB)",
    "postal_code": "22774"
  },
  {
    "village_code": "12304",
    "village": "UJUNG BATU I",
    "postal_code": "22774"
  },
  {
    "village_code": "12305",
    "village": "UJUNG BATU II",
    "postal_code": "22774"
  },
  {
    "village_code": "12306",
    "village": "UJUNG BATU III",
    "postal_code": "22774"
  },
  {
    "village_code": "12307",
    "village": "UJUNG BATU IV",
    "postal_code": "22774"
  },
  {
    "village_code": "12310",
    "village": "UJUNG BATU V",
    "postal_code": "22774"
  },
  {
    "village_code": "12330",
    "village": "UJUNG PADANG",
    "postal_code": "22774"
  }
]