[
  {
    "village_code": "6914",
    "village": "BANUA TONGA",
    "postal_code": "22763"
  },
  {
    "village_code": "6970",
    "village": "BATANG BULU BARU",
    "postal_code": "22763"
  },
  {
    "village_code": "6972",
    "village": "BATANG BULU LAMA",
    "postal_code": "22763"
  },
  {
    "village_code": "7606",
    "village": "GUNUNG BARANI",
    "postal_code": "22763"
  },
  {
    "village_code": "7620",
    "village": "GUNUNG INTAN",
    "postal_code": "22763"
  },
  {
    "village_code": "9535",
    "village": "PAGUR SATIO",
    "postal_code": "22763"
  },
  {
    "village_code": "9582",
    "village": "PANARIAN",
    "postal_code": "22763"
  },
  {
    "village_code": "10614",
    "village": "SAYUR MAHINCAT / MAINCAT",
    "postal_code": "22763"
  },
  {
    "village_code": "10974",
    "village": "SIDOMULIO",
    "postal_code": "22763"
  },
  {
    "village_code": "11924",
    "village": "TANJUNG BARINGIN SIM",
    "postal_code": "22763"
  },
  {
    "village_code": "12002",
    "village": "TANJUNG PURBA BARU (PURBATUA)",
    "postal_code": "22763"
  }
]