[
  {
    "village_code": "66136",
    "village": "BALLA",
    "postal_code": "91753"
  },
  {
    "village_code": "66172",
    "village": "BANTI",
    "postal_code": "91753"
  },
  {
    "village_code": "66188",
    "village": "BARAKA",
    "postal_code": "91753"
  },
  {
    "village_code": "66400",
    "village": "BONE BONE",
    "postal_code": "91753"
  },
  {
    "village_code": "66548",
    "village": "BONTONGAN",
    "postal_code": "91753"
  },
  {
    "village_code": "66908",
    "village": "JANGGURARA",
    "postal_code": "91753"
  },
  {
    "village_code": "66944",
    "village": "KADINGEH",
    "postal_code": "91753"
  },
  {
    "village_code": "67096",
    "village": "KENDENAN",
    "postal_code": "91753"
  },
  {
    "village_code": "67922",
    "village": "PANDUNG BATU",
    "postal_code": "91753"
  },
  {
    "village_code": "67988",
    "village": "PARINDING",
    "postal_code": "91753"
  },
  {
    "village_code": "68092",
    "village": "PEPANDUNGAN",
    "postal_code": "91753"
  },
  {
    "village_code": "68094",
    "village": "PERANGIAN (PARANGIAN)",
    "postal_code": "91753"
  },
  {
    "village_code": "68334",
    "village": "SALUKANAN",
    "postal_code": "91753"
  },
  {
    "village_code": "68779",
    "village": "TIRO WALI",
    "postal_code": "91753"
  },
  {
    "village_code": "68825",
    "village": "TOMENAWA",
    "postal_code": "91753"
  }
]