[
  {
    "village_code": "66164",
    "village": "BANGKALA",
    "postal_code": "91761"
  },
  {
    "village_code": "66208",
    "village": "BARINGIN",
    "postal_code": "91761"
  },
  {
    "village_code": "66260",
    "village": "BATU MILA",
    "postal_code": "91761"
  },
  {
    "village_code": "66388",
    "village": "BOIYA",
    "postal_code": "91761"
  },
  {
    "village_code": "66597",
    "village": "BOTO MALANGGA",
    "postal_code": "91761"
  },
  {
    "village_code": "66999",
    "village": "KALUPPANG",
    "postal_code": "91761"
  },
  {
    "village_code": "67142",
    "village": "LABUKU",
    "postal_code": "91761"
  },
  {
    "village_code": "67290",
    "village": "LEBANI",
    "postal_code": "91761"
  },
  {
    "village_code": "67371",
    "village": "LIMBUANG",
    "postal_code": "91761"
  },
  {
    "village_code": "67533",
    "village": "MANGKAWANI (MENGKAWANI)",
    "postal_code": "91761"
  },
  {
    "village_code": "67641",
    "village": "MATAJANG",
    "postal_code": "91761"
  },
  {
    "village_code": "67769",
    "village": "ONGKO",
    "postal_code": "91761"
  },
  {
    "village_code": "67859",
    "village": "PALADANG",
    "postal_code": "91761"
  },
  {
    "village_code": "67865",
    "village": "PALAKKA",
    "postal_code": "91761"
  },
  {
    "village_code": "67992",
    "village": "PARIWANG",
    "postal_code": "91761"
  },
  {
    "village_code": "68002",
    "village": "PASANG",
    "postal_code": "91761"
  },
  {
    "village_code": "68031",
    "village": "PATONDON SALU",
    "postal_code": "91761"
  },
  {
    "village_code": "68178",
    "village": "PUNCAK HARAPAN",
    "postal_code": "91761"
  },
  {
    "village_code": "68307",
    "village": "SALO DUA",
    "postal_code": "91761"
  },
  {
    "village_code": "68659",
    "village": "TANETE",
    "postal_code": "91761"
  },
  {
    "village_code": "68680",
    "village": "TAPONG",
    "postal_code": "91761"
  },
  {
    "village_code": "68893",
    "village": "TUNCUNG",
    "postal_code": "91761"
  }
]