[
  {
    "village_code": "66720",
    "village": "BUTTU BATU",
    "postal_code": "91711"
  },
  {
    "village_code": "66746",
    "village": "CEMBA",
    "postal_code": "91711"
  },
  {
    "village_code": "66842",
    "village": "GALONTA",
    "postal_code": "91712"
  },
  {
    "village_code": "66933",
    "village": "JUPPANDANG",
    "postal_code": "91711"
  },
  {
    "village_code": "67000",
    "village": "KALUPPINI",
    "postal_code": "91711"
  },
  {
    "village_code": "67063",
    "village": "KARUENG",
    "postal_code": "91711"
  },
  {
    "village_code": "67305",
    "village": "LEMBANG",
    "postal_code": "91711"
  },
  {
    "village_code": "67332",
    "village": "LEORAN",
    "postal_code": "91711"
  },
  {
    "village_code": "67348",
    "village": "LEWAJA",
    "postal_code": "91711"
  },
  {
    "village_code": "68187",
    "village": "PUSERREN",
    "postal_code": "91711"
  },
  {
    "village_code": "68206",
    "village": "RANGA",
    "postal_code": "91711"
  },
  {
    "village_code": "68271",
    "village": "ROSSOAN",
    "postal_code": "91711"
  },
  {
    "village_code": "68583",
    "village": "TALLU BAMBA",
    "postal_code": "91711"
  },
  {
    "village_code": "68735",
    "village": "TEMBAN",
    "postal_code": "91711"
  },
  {
    "village_code": "68792",
    "village": "TOBALU",
    "postal_code": "91711"
  },
  {
    "village_code": "68809",
    "village": "TOKKONAN",
    "postal_code": "91711"
  },
  {
    "village_code": "68881",
    "village": "TUARA",
    "postal_code": "91711"
  },
  {
    "village_code": "68894",
    "village": "TUNGKA",
    "postal_code": "91711"
  }
]