[
  {
    "village_code": "6796",
    "village": "BANDAR BAYU",
    "postal_code": "20984"
  },
  {
    "village_code": "6899",
    "village": "BANJARAN GODANG",
    "postal_code": "20984"
  },
  {
    "village_code": "7442",
    "village": "DURIAN KONDOT",
    "postal_code": "20984"
  },
  {
    "village_code": "8059",
    "village": "HUTA GALUH",
    "postal_code": "20984"
  },
  {
    "village_code": "8460",
    "village": "KOTARIH BARU",
    "postal_code": "20984"
  },
  {
    "village_code": "8461",
    "village": "KOTARIH PEKAN",
    "postal_code": "20984"
  },
  {
    "village_code": "10082",
    "village": "PERBAHINGAN",
    "postal_code": "20984"
  },
  {
    "village_code": "10461",
    "village": "RUBUN DUNIA",
    "postal_code": "20984"
  },
  {
    "village_code": "10653",
    "village": "SEI KARIH",
    "postal_code": "20984"
  },
  {
    "village_code": "10730",
    "village": "SEI UJAN-UJAN",
    "postal_code": "20984"
  },
  {
    "village_code": "10832",
    "village": "SIALTONG",
    "postal_code": "20984"
  }
]