[
  {
    "village_code": "79703",
    "village": "ALMA",
    "postal_code": "98456"
  },
  {
    "village_code": "79914",
    "village": "ELLES",
    "postal_code": "98456"
  },
  {
    "village_code": "80224",
    "village": "KLAMIT",
    "postal_code": "98456"
  },
  {
    "village_code": "80258",
    "village": "KOFALIT",
    "postal_code": "98456"
  },
  {
    "village_code": "80502",
    "village": "MLABOLO",
    "postal_code": "98456"
  },
  {
    "village_code": "80701",
    "village": "SASNEK",
    "postal_code": "98456"
  },
  {
    "village_code": "80719",
    "village": "SAWIAT",
    "postal_code": "98456"
  },
  {
    "village_code": "80757",
    "village": "SFAKYO",
    "postal_code": "98456"
  },
  {
    "village_code": "80816",
    "village": "SODROFOYO",
    "postal_code": "98456"
  },
  {
    "village_code": "81125",
    "village": "WEEN",
    "postal_code": "98456"
  },
  {
    "village_code": "81133",
    "village": "WENDI",
    "postal_code": "98456"
  },
  {
    "village_code": "81135",
    "village": "WENSLOLO",
    "postal_code": "98456"
  },
  {
    "village_code": "81136",
    "village": "WENSOUGH",
    "postal_code": "98456"
  }
]