[
  {
    "village_code": "79810",
    "village": "BENAWA I",
    "postal_code": "98455"
  },
  {
    "village_code": "79992",
    "village": "HAEMARAN (KURANA)",
    "postal_code": "98455"
  },
  {
    "village_code": "80034",
    "village": "IKANA",
    "postal_code": "98455"
  },
  {
    "village_code": "80127",
    "village": "KAIS",
    "postal_code": "98455"
  },
  {
    "village_code": "80337",
    "village": "MAKARORO",
    "postal_code": "98455"
  },
  {
    "village_code": "80514",
    "village": "MOGOTEMIN (MOGATEMIN)",
    "postal_code": "98455"
  },
  {
    "village_code": "80539",
    "village": "MUKAMAT",
    "postal_code": "98455"
  },
  {
    "village_code": "80590",
    "village": "ONIMSEFA",
    "postal_code": "98455"
  },
  {
    "village_code": "80791",
    "village": "SIRANGGO",
    "postal_code": "98455"
  },
  {
    "village_code": "80849",
    "village": "SUMANO",
    "postal_code": "98455"
  },
  {
    "village_code": "80895",
    "village": "TAPURI",
    "postal_code": "98455"
  },
  {
    "village_code": "81186",
    "village": "YAHADIAN",
    "postal_code": "98455"
  }
]