[
  {
    "village_code": "74852",
    "village": "AGAPA",
    "postal_code": "98767"
  },
  {
    "village_code": "75342",
    "village": "BILAI DUA (II)",
    "postal_code": "98767"
  },
  {
    "village_code": "75343",
    "village": "BILAI SATU (I)",
    "postal_code": "98767"
  },
  {
    "village_code": "75437",
    "village": "BONOGO",
    "postal_code": "98769"
  },
  {
    "village_code": "75475",
    "village": "BUBISIGA (BUGUSIGA)",
    "postal_code": "98767"
  },
  {
    "village_code": "75582",
    "village": "DEGESIGA (DEGESISE)",
    "postal_code": "98767"
  },
  {
    "village_code": "75792",
    "village": "ENGGANEGA",
    "postal_code": "98767"
  },
  {
    "village_code": "76124",
    "village": "HIYABU",
    "postal_code": "98767"
  },
  {
    "village_code": "76180",
    "village": "HUGITAPA  /  HUBITAPA",
    "postal_code": "98767"
  },
  {
    "village_code": "76601",
    "village": "KENETAPA (KENDETAPA / KENEDEPA)",
    "postal_code": "98767"
  },
  {
    "village_code": "76701",
    "village": "KOBAE (KOBAI)",
    "postal_code": "98767"
  },
  {
    "village_code": "77186",
    "village": "MAPA",
    "postal_code": "98767"
  },
  {
    "village_code": "77243",
    "village": "MAYA",
    "postal_code": "98767"
  },
  {
    "village_code": "77672",
    "village": "OGEAPA  /  OGEAYAPA",
    "postal_code": "98767"
  },
  {
    "village_code": "77964",
    "village": "POGAPA",
    "postal_code": "98767"
  },
  {
    "village_code": "78249",
    "village": "SELEMANA (SELEMAMA)",
    "postal_code": "98767"
  },
  {
    "village_code": "78945",
    "village": "WAIAGEPA  /  WAIGEPA",
    "postal_code": "98767"
  },
  {
    "village_code": "79666",
    "village": "ZOMBAN DOGA (ZOMBANDOGA)",
    "postal_code": "98767"
  }
]