[
  {
    "village_code": "75346",
    "village": "BILOGAI",
    "postal_code": "98768"
  },
  {
    "village_code": "75583",
    "village": "DEGEYABU",
    "postal_code": "98768"
  },
  {
    "village_code": "75763",
    "village": "EKNEMBA  /  ENEMBA",
    "postal_code": "98769"
  },
  {
    "village_code": "75783",
    "village": "EMONDI (KEMONDI)",
    "postal_code": "98768"
  },
  {
    "village_code": "76869",
    "village": "KUMLAGUPA",
    "postal_code": "98768"
  },
  {
    "village_code": "77118",
    "village": "MAMBA",
    "postal_code": "98768"
  },
  {
    "village_code": "77249",
    "village": "MBILUSIGA",
    "postal_code": "98768"
  },
  {
    "village_code": "77324",
    "village": "MINDAU",
    "postal_code": "98768"
  },
  {
    "village_code": "77533",
    "village": "NDUGUSIGA",
    "postal_code": "98769"
  },
  {
    "village_code": "78048",
    "village": "PUYAGIYA",
    "postal_code": "98768"
  },
  {
    "village_code": "78712",
    "village": "TITIGI",
    "postal_code": "98769"
  },
  {
    "village_code": "78819",
    "village": "UGIMBA",
    "postal_code": "98768"
  },
  {
    "village_code": "79025",
    "village": "WANDOGA",
    "postal_code": "98768"
  },
  {
    "village_code": "79411",
    "village": "YALAI (JABAI / JALAI)",
    "postal_code": "98768"
  },
  {
    "village_code": "79605",
    "village": "YOKATAPA (TOKATAPA)",
    "postal_code": "98768"
  },
  {
    "village_code": "79623",
    "village": "YOPARU",
    "postal_code": "98768"
  }
]