[
  {
    "village_code": "62395",
    "village": "BENTENAN",
    "postal_code": "95997"
  },
  {
    "village_code": "62393",
    "village": "BENTENAN INDAH",
    "postal_code": "95997"
  },
  {
    "village_code": "62394",
    "village": "BENTENAN SATU",
    "postal_code": "95997"
  },
  {
    "village_code": "63054",
    "village": "MAKALU",
    "postal_code": "95997"
  },
  {
    "village_code": "63053",
    "village": "MAKALU SELATAN",
    "postal_code": "95997"
  },
  {
    "village_code": "63152",
    "village": "MINANGA",
    "postal_code": "95997"
  },
  {
    "village_code": "63147",
    "village": "MINANGA DUA",
    "postal_code": "95997"
  },
  {
    "village_code": "63148",
    "village": "MINANGA SATU",
    "postal_code": "95997"
  },
  {
    "village_code": "63149",
    "village": "MINANGA TIGA",
    "postal_code": "95997"
  },
  {
    "village_code": "63150",
    "village": "MINANGA TIMUR",
    "postal_code": "95997"
  },
  {
    "village_code": "63779",
    "village": "TATENGESAN",
    "postal_code": "95997"
  },
  {
    "village_code": "63778",
    "village": "TATENGESAN SATU",
    "postal_code": "95997"
  },
  {
    "village_code": "63935",
    "village": "TUMBAK",
    "postal_code": "95997"
  },
  {
    "village_code": "63934",
    "village": "TUMBAK MADANI",
    "postal_code": "95997"
  },
  {
    "village_code": "64029",
    "village": "WIAU",
    "postal_code": "95997"
  }
]