[
  {
    "village_code": "62609",
    "village": "ESANDOM",
    "postal_code": "95996"
  },
  {
    "village_code": "62607",
    "village": "ESANDOM DUA",
    "postal_code": "95996"
  },
  {
    "village_code": "62608",
    "village": "ESANDOM SATU",
    "postal_code": "95996"
  },
  {
    "village_code": "63191",
    "village": "MOLOMPAR",
    "postal_code": "95996"
  },
  {
    "village_code": "63183",
    "village": "MOLOMPAR ATAS",
    "postal_code": "95996"
  },
  {
    "village_code": "63186",
    "village": "MOLOMPAR DUA",
    "postal_code": "95996"
  },
  {
    "village_code": "63184",
    "village": "MOLOMPAR DUA SELATAN",
    "postal_code": "95996"
  },
  {
    "village_code": "63185",
    "village": "MOLOMPAR DUA UTARA",
    "postal_code": "95996"
  },
  {
    "village_code": "63187",
    "village": "MOLOMPAR SATU",
    "postal_code": "95996"
  },
  {
    "village_code": "63245",
    "village": "MUNDUNG",
    "postal_code": "95996"
  },
  {
    "village_code": "63244",
    "village": "MUNDUNG SATU",
    "postal_code": "95996"
  }
]