[
  {
    "village_code": "62988",
    "village": "LIWUTUNG",
    "postal_code": "95995"
  },
  {
    "village_code": "62986",
    "village": "LIWUTUNG DUA",
    "postal_code": "95995"
  },
  {
    "village_code": "62987",
    "village": "LIWUTUNG SATU",
    "postal_code": "95995"
  },
  {
    "village_code": "63130",
    "village": "MAULIT",
    "postal_code": "95995"
  },
  {
    "village_code": "63447",
    "village": "PONIKI",
    "postal_code": "95995"
  },
  {
    "village_code": "63835",
    "village": "TOLOMBUKAN",
    "postal_code": "95995"
  },
  {
    "village_code": "63833",
    "village": "TOLOMBUKAN BARAT",
    "postal_code": "95995"
  },
  {
    "village_code": "63834",
    "village": "TOLOMBUKAN SATU",
    "postal_code": "95995"
  },
  {
    "village_code": "63914",
    "village": "TOWUNTU",
    "postal_code": "95995"
  },
  {
    "village_code": "63912",
    "village": "TOWUNTU BARAT",
    "postal_code": "95995"
  },
  {
    "village_code": "63913",
    "village": "TOWUNTU TIMUR",
    "postal_code": "95995"
  }
]