[
  {
    "village_code": "6674",
    "village": "ARAS",
    "postal_code": "21256"
  },
  {
    "village_code": "8208",
    "village": "INDRAPURA KOTA",
    "postal_code": "21256"
  },
  {
    "village_code": "8209",
    "village": "INDRASAKTI",
    "postal_code": "21256"
  },
  {
    "village_code": "8331",
    "village": "KAMPUNG KELAPA",
    "postal_code": "21256"
  },
  {
    "village_code": "8729",
    "village": "LIMAU SUNDAI",
    "postal_code": "21256"
  },
  {
    "village_code": "9885",
    "village": "PASAR LAPAN",
    "postal_code": "21256"
  },
  {
    "village_code": "10045",
    "village": "PEMATANG PANJANG",
    "postal_code": "21256"
  },
  {
    "village_code": "10193",
    "village": "PERKOTAAN",
    "postal_code": "21256"
  },
  {
    "village_code": "11460",
    "village": "SIPARE-PARE",
    "postal_code": "21256"
  },
  {
    "village_code": "11778",
    "village": "SUKARAJA",
    "postal_code": "21256"
  },
  {
    "village_code": "11878",
    "village": "TANAH MERAH",
    "postal_code": "21256"
  },
  {
    "village_code": "11885",
    "village": "TANAH RENDAH",
    "postal_code": "21256"
  },
  {
    "village_code": "11888",
    "village": "TANAH TINGGI",
    "postal_code": "21256"
  },
  {
    "village_code": "11953",
    "village": "TANJUNG HARAPAN",
    "postal_code": "21256"
  },
  {
    "village_code": "11961",
    "village": "TANJUNG KUBAH",
    "postal_code": "21256"
  },
  {
    "village_code": "11986",
    "village": "TANJUNG MUDA",
    "postal_code": "21256"
  },
  {
    "village_code": "12043",
    "village": "TANJUNGMULYA",
    "postal_code": "21256"
  },
  {
    "village_code": "12206",
    "village": "TITI PAYUNG",
    "postal_code": "21256"
  }
]