[
  {
    "village_code": "7103",
    "village": "BENTENG JAYA",
    "postal_code": "21252"
  },
  {
    "village_code": "7449",
    "village": "DURIAN",
    "postal_code": "21252"
  },
  {
    "village_code": "8548",
    "village": "KWALA SIKASIM",
    "postal_code": "21252"
  },
  {
    "village_code": "9093",
    "village": "MEKAR BARU",
    "postal_code": "21252"
  },
  {
    "village_code": "9101",
    "village": "MEKAR MULIO",
    "postal_code": "21252"
  },
  {
    "village_code": "10109",
    "village": "PERJUANGAN",
    "postal_code": "21252"
  },
  {
    "village_code": "10169",
    "village": "PERKEBUNAN SEI BALAI",
    "postal_code": "21252"
  },
  {
    "village_code": "10170",
    "village": "PERKEBUNAN SEI BEJANGKAR",
    "postal_code": "21252"
  },
  {
    "village_code": "10633",
    "village": "SEI BALAI",
    "postal_code": "21252"
  },
  {
    "village_code": "10814",
    "village": "SIAJAM",
    "postal_code": "21252"
  },
  {
    "village_code": "10975",
    "village": "SIDOMULIO",
    "postal_code": "21252"
  },
  {
    "village_code": "11754",
    "village": "SUKA RAMAI",
    "postal_code": "21252"
  },
  {
    "village_code": "11788",
    "village": "SUKO REJO",
    "postal_code": "21252"
  },
  {
    "village_code": "11887",
    "village": "TANAH TIMBUL",
    "postal_code": "21252"
  }
]