[
  {
    "village_code": "16983",
    "village": "AIR BATU",
    "postal_code": "30961"
  },
  {
    "village_code": "17437",
    "village": "GASING",
    "postal_code": "30961"
  },
  {
    "village_code": "17815",
    "village": "KENTEN",
    "postal_code": "30961"
  },
  {
    "village_code": "17814",
    "village": "KENTEN LAUT",
    "postal_code": "30961"
  },
  {
    "village_code": "18536",
    "village": "PANGKALAN BENTENG",
    "postal_code": "30961"
  },
  {
    "village_code": "19256",
    "village": "SUKAJADI",
    "postal_code": "30961"
  },
  {
    "village_code": "19278",
    "village": "SUKAMORO",
    "postal_code": "30961"
  },
  {
    "village_code": "19455",
    "village": "SUNGAI RENGIT",
    "postal_code": "30961"
  },
  {
    "village_code": "19464",
    "village": "SUNGAIRENGIT MURNI",
    "postal_code": "30961"
  },
  {
    "village_code": "19522",
    "village": "TALANG BULUH",
    "postal_code": "30961"
  },
  {
    "village_code": "19537",
    "village": "TALANG KERAMAT",
    "postal_code": "30961"
  },
  {
    "village_code": "19593",
    "village": "TANAH MAS",
    "postal_code": "30961"
  }
]