[
  {
    "village_code": "17001",
    "village": "AIR KUMBANG BAKTI",
    "postal_code": "30962"
  },
  {
    "village_code": "17258",
    "village": "BUDI MULYO",
    "postal_code": "30962"
  },
  {
    "village_code": "17341",
    "village": "CINTA MANIS BARU",
    "postal_code": "30962"
  },
  {
    "village_code": "17895",
    "village": "KUMBANG PADANG PERMATA",
    "postal_code": "30962"
  },
  {
    "village_code": "18326",
    "village": "MUARABARU",
    "postal_code": "30962"
  },
  {
    "village_code": "18411",
    "village": "NUSA MAKMUR",
    "postal_code": "30962"
  },
  {
    "village_code": "18438",
    "village": "PADANG REJO",
    "postal_code": "30962"
  },
  {
    "village_code": "18507",
    "village": "PANCA DESA",
    "postal_code": "30962"
  },
  {
    "village_code": "18509",
    "village": "PANCA MULYA",
    "postal_code": "30962"
  },
  {
    "village_code": "18873",
    "village": "RIMBA JAYA",
    "postal_code": "30962"
  },
  {
    "village_code": "18927",
    "village": "SEBOKOR",
    "postal_code": "30962"
  },
  {
    "village_code": "18928",
    "village": "SEBUBUS",
    "postal_code": "30962"
  },
  {
    "village_code": "19016",
    "village": "SIDO MAKMUR",
    "postal_code": "30962"
  },
  {
    "village_code": "19035",
    "village": "SIDOMULYO",
    "postal_code": "30962"
  },
  {
    "village_code": "19894",
    "village": "TELUK TENGGIRIK",
    "postal_code": "30962"
  },
  {
    "village_code": "19932",
    "village": "TIRTA MAKMUR",
    "postal_code": "30962"
  }
]