[
  {
    "village_code": "17238",
    "village": "BETUNG",
    "postal_code": "30958"
  },
  {
    "village_code": "17271",
    "village": "BUKIT",
    "postal_code": "30958"
  },
  {
    "village_code": "18008",
    "village": "LUBUK KARET",
    "postal_code": "30958"
  },
  {
    "village_code": "18766",
    "village": "PULAU RAJAK",
    "postal_code": "30958"
  },
  {
    "village_code": "18871",
    "village": "RIMBA ASAM",
    "postal_code": "30958"
  },
  {
    "village_code": "19127",
    "village": "SRI  /  SERI KEMBANG",
    "postal_code": "30958"
  },
  {
    "village_code": "19225",
    "village": "SUKA MULYA",
    "postal_code": "30958"
  },
  {
    "village_code": "19499",
    "village": "TAJA  /  TALANG JAYA INDAH",
    "postal_code": "30958"
  },
  {
    "village_code": "19500",
    "village": "TAJA  /  TALANG JAYA MULYA",
    "postal_code": "30958"
  },
  {
    "village_code": "19501",
    "village": "TAJA  /  TALANG JAYA RAYA 1",
    "postal_code": "30958"
  },
  {
    "village_code": "19502",
    "village": "TAJA  /  TALANG JAYA RAYA II",
    "postal_code": "30958"
  }
]