[
  {
    "village_code": "17386",
    "village": "DELTA UPANG",
    "postal_code": "30972"
  },
  {
    "village_code": "18085",
    "village": "MAKARTI JAYA",
    "postal_code": "30972"
  },
  {
    "village_code": "18327",
    "village": "MUARABARU",
    "postal_code": "30972"
  },
  {
    "village_code": "18648",
    "village": "PENDOWO HARJO",
    "postal_code": "30972"
  },
  {
    "village_code": "18657",
    "village": "PENGESTU",
    "postal_code": "30972"
  },
  {
    "village_code": "18791",
    "village": "PURWOSARI",
    "postal_code": "30972"
  },
  {
    "village_code": "19465",
    "village": "SUNGAISEMUT",
    "postal_code": "30972"
  },
  {
    "village_code": "19833",
    "village": "TANJUNGBARU",
    "postal_code": "30972"
  },
  {
    "village_code": "19835",
    "village": "TANJUNGMAS",
    "postal_code": "30972"
  },
  {
    "village_code": "19931",
    "village": "TIRTA KENCANA",
    "postal_code": "30972"
  },
  {
    "village_code": "20041",
    "village": "UPANG MAKMUR",
    "postal_code": "30972"
  },
  {
    "village_code": "20043",
    "village": "UPANG MULYA",
    "postal_code": "30972"
  }
]