[
  {
    "village_code": "17792",
    "village": "KEMANG BEJALU",
    "postal_code": "30968"
  },
  {
    "village_code": "17951",
    "village": "LEBUNG",
    "postal_code": "30968"
  },
  {
    "village_code": "18042",
    "village": "LUBUK RENGAS",
    "postal_code": "30968"
  },
  {
    "village_code": "18231",
    "village": "MUARA ABAB",
    "postal_code": "30968"
  },
  {
    "village_code": "18459",
    "village": "PAGAR BULAN",
    "postal_code": "30968"
  },
  {
    "village_code": "18608",
    "village": "PELDAS",
    "postal_code": "30968"
  },
  {
    "village_code": "18632",
    "village": "PENANDINGAN",
    "postal_code": "30968"
  },
  {
    "village_code": "18811",
    "village": "RANTAU BAYUR",
    "postal_code": "30968"
  },
  {
    "village_code": "18816",
    "village": "RANTAU HARAPAN",
    "postal_code": "30968"
  },
  {
    "village_code": "18943",
    "village": "SEJAGUNG",
    "postal_code": "30968"
  },
  {
    "village_code": "18963",
    "village": "SEMUNTUL",
    "postal_code": "30968"
  },
  {
    "village_code": "19136",
    "village": "SRI JAYA",
    "postal_code": "30968"
  },
  {
    "village_code": "19332",
    "village": "SUKARELA",
    "postal_code": "30968"
  },
  {
    "village_code": "19433",
    "village": "SUNGAI LILIN",
    "postal_code": "30968"
  },
  {
    "village_code": "19450",
    "village": "SUNGAI PINANG",
    "postal_code": "30968"
  },
  {
    "village_code": "19463",
    "village": "SUNGAINAIK",
    "postal_code": "30968"
  },
  {
    "village_code": "19536",
    "village": "TALANG KEMANG",
    "postal_code": "30968"
  },
  {
    "village_code": "19750",
    "village": "TANJUNG MENANG MUSI",
    "postal_code": "30968"
  },
  {
    "village_code": "19772",
    "village": "TANJUNG PASIR",
    "postal_code": "30968"
  },
  {
    "village_code": "19829",
    "village": "TANJUNG TIGA",
    "postal_code": "30968"
  },
  {
    "village_code": "19853",
    "village": "TEBING ABANG",
    "postal_code": "30968"
  }
]