[
  {
    "village_code": "17923",
    "village": "LALANG SEMBAWA",
    "postal_code": "30953"
  },
  {
    "village_code": "17965",
    "village": "LIMAU",
    "postal_code": "30953"
  },
  {
    "village_code": "17968",
    "village": "LIMBANG MULYA",
    "postal_code": "30953"
  },
  {
    "village_code": "18078",
    "village": "MAINAN",
    "postal_code": "30953"
  },
  {
    "village_code": "18245",
    "village": "MUARA DAMAI",
    "postal_code": "30953"
  },
  {
    "village_code": "18746",
    "village": "PULAU HARAPAN",
    "postal_code": "30953"
  },
  {
    "village_code": "18754",
    "village": "PULAU MUNING",
    "postal_code": "30953"
  },
  {
    "village_code": "18792",
    "village": "PURWOSARI",
    "postal_code": "30953"
  },
  {
    "village_code": "18849",
    "village": "REJODADI",
    "postal_code": "30953"
  },
  {
    "village_code": "18905",
    "village": "SANTANSARI",
    "postal_code": "30953"
  },
  {
    "village_code": "19212",
    "village": "SUKA MAKMUR",
    "postal_code": "30953"
  }
]