[
  {
    "village_code": "74860",
    "village": "AGIYOME",
    "postal_code": "98972"
  },
  {
    "village_code": "74975",
    "village": "AMUNGKALPIA (AMUNGKALIPIA)",
    "postal_code": "98972"
  },
  {
    "village_code": "75284",
    "village": "BELA",
    "postal_code": "98972"
  },
  {
    "village_code": "75816",
    "village": "ERELMEKAWIA",
    "postal_code": "98972"
  },
  {
    "village_code": "75992",
    "village": "GOME",
    "postal_code": "98972"
  },
  {
    "village_code": "77339",
    "village": "MISIMAGA",
    "postal_code": "98972"
  },
  {
    "village_code": "77440",
    "village": "MUNDIDOK",
    "postal_code": "98972"
  },
  {
    "village_code": "78717",
    "village": "TOANGGI",
    "postal_code": "98972"
  },
  {
    "village_code": "78860",
    "village": "UPAGA",
    "postal_code": "98972"
  },
  {
    "village_code": "78961",
    "village": "WAKO",
    "postal_code": "98972"
  },
  {
    "village_code": "79400",
    "village": "YAIKIMAKI",
    "postal_code": "98972"
  },
  {
    "village_code": "79537",
    "village": "YENGGRENOK (YANGGERENOK)",
    "postal_code": "98972"
  }
]