[
  {
    "village_code": "74874",
    "village": "AILPALIN (ALPALIN)",
    "postal_code": "98971"
  },
  {
    "village_code": "75569",
    "village": "DAUNG",
    "postal_code": "98971"
  },
  {
    "village_code": "75825",
    "village": "ERONG BERONG / BERANG",
    "postal_code": "98971"
  },
  {
    "village_code": "76108",
    "village": "HIKINAT (IKINAT)",
    "postal_code": "98971"
  },
  {
    "village_code": "76359",
    "village": "JINDAK",
    "postal_code": "98971"
  },
  {
    "village_code": "77338",
    "village": "MIRILAUKIN",
    "postal_code": "98971"
  },
  {
    "village_code": "77915",
    "village": "PILOKOMA",
    "postal_code": "98971"
  },
  {
    "village_code": "78027",
    "village": "PUNGKI",
    "postal_code": "98971"
  },
  {
    "village_code": "78831",
    "village": "ULIPIA",
    "postal_code": "98971"
  },
  {
    "village_code": "79032",
    "village": "WANGBE",
    "postal_code": "98971"
  },
  {
    "village_code": "79284",
    "village": "WONALBE",
    "postal_code": "98971"
  }
]