[
  {
    "village_code": "74892",
    "village": "AKENGGEN",
    "postal_code": "98973"
  },
  {
    "village_code": "74971",
    "village": "AMULAME (AMULUME)",
    "postal_code": "98973"
  },
  {
    "village_code": "75938",
    "village": "GIGOBAK (GOGOBAK)",
    "postal_code": "98973"
  },
  {
    "village_code": "76351",
    "village": "JIGIUNGGI (JIGINGGI)",
    "postal_code": "98973"
  },
  {
    "village_code": "76439",
    "village": "KALIBUK (KALEBUT / KAWIBUT)",
    "postal_code": "98973"
  },
  {
    "village_code": "76581",
    "village": "KELEMAME",
    "postal_code": "98973"
  },
  {
    "village_code": "76653",
    "village": "KILUGAME",
    "postal_code": "98973"
  },
  {
    "village_code": "76877",
    "village": "KUNIKOMO (KUMIKOMO)",
    "postal_code": "98973"
  },
  {
    "village_code": "77564",
    "village": "NIKOLEME (NIGOLOME / NIKOAME)",
    "postal_code": "98973"
  },
  {
    "village_code": "77823",
    "village": "PAMEBUT",
    "postal_code": "98973"
  },
  {
    "village_code": "79170",
    "village": "WENI (ISWELI / WELI)",
    "postal_code": "98973"
  },
  {
    "village_code": "79496",
    "village": "YAURIA (WAMBRU)",
    "postal_code": "98973"
  }
]