[
  {
    "village_code": "75171",
    "village": "BABE",
    "postal_code": "98971"
  },
  {
    "village_code": "75553",
    "village": "DAMBET (DANGBET / KALEMOGOM)",
    "postal_code": "98971"
  },
  {
    "village_code": "76329",
    "village": "JAMBUL",
    "postal_code": "98971"
  },
  {
    "village_code": "76577",
    "village": "KELANDIRUMA",
    "postal_code": "98971"
  },
  {
    "village_code": "77308",
    "village": "MILAWAK",
    "postal_code": "98971"
  },
  {
    "village_code": "77632",
    "village": "NUNGAI",
    "postal_code": "98971"
  },
  {
    "village_code": "77671",
    "village": "OGAMKI",
    "postal_code": "98971"
  },
  {
    "village_code": "78003",
    "village": "PUBET  /  GIMORIT",
    "postal_code": "98971"
  },
  {
    "village_code": "78020",
    "village": "PULUK",
    "postal_code": "98971"
  },
  {
    "village_code": "78684",
    "village": "TINGGILBET",
    "postal_code": "98971"
  },
  {
    "village_code": "79009",
    "village": "WAMKI (DENGKIBUMA)",
    "postal_code": "98971"
  },
  {
    "village_code": "79648",
    "village": "YULOKOMA",
    "postal_code": "98971"
  }
]