[
  {
    "village_code": "75416",
    "village": "BOLOGOBAK (POLOGOBAK / POLOGOBALE)",
    "postal_code": "98972"
  },
  {
    "village_code": "75473",
    "village": "BUBET",
    "postal_code": "98972"
  },
  {
    "village_code": "75824",
    "village": "EROMAGA (EROMOGA)",
    "postal_code": "98972"
  },
  {
    "village_code": "75947",
    "village": "GILINI",
    "postal_code": "98972"
  },
  {
    "village_code": "76402",
    "village": "KAGO",
    "postal_code": "98972"
  },
  {
    "village_code": "76657",
    "village": "KIMAK (KIMALE)",
    "postal_code": "98972"
  },
  {
    "village_code": "76873",
    "village": "KUNGA (KUIGA)",
    "postal_code": "98972"
  },
  {
    "village_code": "77096",
    "village": "MAKI",
    "postal_code": "98972"
  },
  {
    "village_code": "77246",
    "village": "MAYUBERI",
    "postal_code": "98972"
  },
  {
    "village_code": "77325",
    "village": "MINDIBA (MIANDIWA / MUDIBA)",
    "postal_code": "98972"
  },
  {
    "village_code": "77676",
    "village": "OGNANIM (OKNANIM)",
    "postal_code": "98972"
  },
  {
    "village_code": "77817",
    "village": "PALUGA",
    "postal_code": "98972"
  },
  {
    "village_code": "77918",
    "village": "PINAPA",
    "postal_code": "98972"
  },
  {
    "village_code": "77926",
    "village": "PINGGIL (PIGGIL)",
    "postal_code": "98972"
  },
  {
    "village_code": "79329",
    "village": "WULONI",
    "postal_code": "98972"
  }
]