[
  {
    "village_code": "62575",
    "village": "DIMEMBE",
    "postal_code": "95373"
  },
  {
    "village_code": "62829",
    "village": "KLABAT",
    "postal_code": "95373"
  },
  {
    "village_code": "62910",
    "village": "LAIKIT",
    "postal_code": "95373"
  },
  {
    "village_code": "63023",
    "village": "LUMPIAS",
    "postal_code": "95373"
  },
  {
    "village_code": "63128",
    "village": "MATUNGKAS",
    "postal_code": "95373"
  },
  {
    "village_code": "63344",
    "village": "PANIKI BARU",
    "postal_code": "95373"
  },
  {
    "village_code": "63425",
    "village": "PINILIH",
    "postal_code": "95373"
  },
  {
    "village_code": "63776",
    "village": "TATELU RONDOR",
    "postal_code": "95373"
  },
  {
    "village_code": "63777",
    "village": "TATELU SATU",
    "postal_code": "95373"
  },
  {
    "village_code": "63804",
    "village": "TETEY",
    "postal_code": "95373"
  },
  {
    "village_code": "63994",
    "village": "WARISA KAMPUNG BARU",
    "postal_code": "95373"
  },
  {
    "village_code": "63997",
    "village": "WARUKAPAS",
    "postal_code": "95373"
  },
  {
    "village_code": "63998",
    "village": "WASIAN",
    "postal_code": "95373"
  }
]