[
  {
    "village_code": "31473",
    "village": "BANJARNEGORO",
    "postal_code": "56172"
  },
  {
    "village_code": "31558",
    "village": "BANYUROJO",
    "postal_code": "56172"
  },
  {
    "village_code": "31906",
    "village": "BONDOWOSO",
    "postal_code": "56172"
  },
  {
    "village_code": "32065",
    "village": "BULUREJO",
    "postal_code": "56172"
  },
  {
    "village_code": "32432",
    "village": "DANUREJO",
    "postal_code": "56172"
  },
  {
    "village_code": "32523",
    "village": "DEYANGAN",
    "postal_code": "56172"
  },
  {
    "village_code": "32561",
    "village": "DONOROJO",
    "postal_code": "56172"
  },
  {
    "village_code": "33586",
    "village": "JOGONEGORO",
    "postal_code": "56172"
  },
  {
    "village_code": "33897",
    "village": "KALINEGORO",
    "postal_code": "56172"
  },
  {
    "village_code": "35898",
    "village": "MERTOYUDAN",
    "postal_code": "56172"
  },
  {
    "village_code": "36719",
    "village": "PASURUHAN",
    "postal_code": "56172"
  },
  {
    "village_code": "38468",
    "village": "SUKOREJO",
    "postal_code": "56172"
  },
  {
    "village_code": "38559",
    "village": "SUMBERREJO",
    "postal_code": "56172"
  }
]