[
  {
    "village_code": "31563",
    "village": "BANYUSIDI",
    "postal_code": "56193"
  },
  {
    "village_code": "31628",
    "village": "BAWANG",
    "postal_code": "56193"
  },
  {
    "village_code": "32404",
    "village": "DALEMAN KIDUL",
    "postal_code": "56193"
  },
  {
    "village_code": "32441",
    "village": "DASEH",
    "postal_code": "56193"
  },
  {
    "village_code": "32808",
    "village": "GEJAGAN",
    "postal_code": "56193"
  },
  {
    "village_code": "33048",
    "village": "GONDANGSARI",
    "postal_code": "56193"
  },
  {
    "village_code": "33136",
    "village": "GUMELEM",
    "postal_code": "56193"
  },
  {
    "village_code": "33281",
    "village": "JAMBEWANGI",
    "postal_code": "56193"
  },
  {
    "village_code": "33722",
    "village": "KAJANGKOSO",
    "postal_code": "56193"
  },
  {
    "village_code": "34057",
    "village": "KAPONAN",
    "postal_code": "56193"
  },
  {
    "village_code": "34878",
    "village": "KENALAN",
    "postal_code": "56193"
  },
  {
    "village_code": "35049",
    "village": "KETUNDAN",
    "postal_code": "56193"
  },
  {
    "village_code": "35173",
    "village": "KRAGILAN",
    "postal_code": "56193"
  },
  {
    "village_code": "35598",
    "village": "LOSARI",
    "postal_code": "56193"
  },
  {
    "village_code": "36063",
    "village": "MUNENG",
    "postal_code": "56193"
  },
  {
    "village_code": "36061",
    "village": "MUNENG WARANGAN",
    "postal_code": "56193"
  },
  {
    "village_code": "36504",
    "village": "PAKIS",
    "postal_code": "56193"
  },
  {
    "village_code": "36988",
    "village": "PETUNG",
    "postal_code": "56193"
  },
  {
    "village_code": "37101",
    "village": "POGALAN",
    "postal_code": "56193"
  },
  {
    "village_code": "37506",
    "village": "REJOSARI",
    "postal_code": "56193"
  }
]