[
  {
    "village_code": "31614",
    "village": "BATURONO",
    "postal_code": "56484"
  },
  {
    "village_code": "33121",
    "village": "GULON",
    "postal_code": "56484"
  },
  {
    "village_code": "33655",
    "village": "JUMOYO",
    "postal_code": "56484"
  },
  {
    "village_code": "33702",
    "village": "KADILUWIH",
    "postal_code": "56484"
  },
  {
    "village_code": "35763",
    "village": "MANTINGAN",
    "postal_code": "56484"
  },
  {
    "village_code": "37597",
    "village": "SALAM",
    "postal_code": "56484"
  },
  {
    "village_code": "37809",
    "village": "SELOBORO",
    "postal_code": "56484"
  },
  {
    "village_code": "38217",
    "village": "SIRAHAN",
    "postal_code": "56484"
  },
  {
    "village_code": "38329",
    "village": "SOMOKETRO",
    "postal_code": "56484"
  },
  {
    "village_code": "38403",
    "village": "SUCEN",
    "postal_code": "56484"
  },
  {
    "village_code": "39080",
    "village": "TERSANGEDE",
    "postal_code": "56484"
  },
  {
    "village_code": "39119",
    "village": "TIRTO",
    "postal_code": "56484"
  }
]