[
  {
    "village_code": "31629",
    "village": "BAWANG",
    "postal_code": "56161"
  },
  {
    "village_code": "32960",
    "village": "GIRIREJO",
    "postal_code": "56161"
  },
  {
    "village_code": "33107",
    "village": "GROWONG",
    "postal_code": "56161"
  },
  {
    "village_code": "33584",
    "village": "JOGOMULYO",
    "postal_code": "56161"
  },
  {
    "village_code": "33964",
    "village": "KALISARI",
    "postal_code": "56161"
  },
  {
    "village_code": "34875",
    "village": "KEMUTUK",
    "postal_code": "56161"
  },
  {
    "village_code": "37163",
    "village": "PRAJEKSARI",
    "postal_code": "56161"
  },
  {
    "village_code": "37199",
    "village": "PRINGOMBO",
    "postal_code": "56161"
  },
  {
    "village_code": "37536",
    "village": "RINGINANOM",
    "postal_code": "56161"
  },
  {
    "village_code": "38035",
    "village": "SIDOAGUNG",
    "postal_code": "56161"
  },
  {
    "village_code": "38524",
    "village": "SUMBERARUM",
    "postal_code": "56161"
  },
  {
    "village_code": "38768",
    "village": "TANGGULREJO",
    "postal_code": "56161"
  },
  {
    "village_code": "38989",
    "village": "TEMANGGAL",
    "postal_code": "56161"
  },
  {
    "village_code": "39029",
    "village": "TEMPUREJO",
    "postal_code": "56161"
  },
  {
    "village_code": "39310",
    "village": "TUGUREJO",
    "postal_code": "56161"
  }
]