[
  {
    "village_code": "31762",
    "village": "BIGARAN",
    "postal_code": "56553"
  },
  {
    "village_code": "31924",
    "village": "BOROBUDUR",
    "postal_code": "56553"
  },
  {
    "village_code": "32088",
    "village": "BUMIHARJO",
    "postal_code": "56553"
  },
  {
    "village_code": "32185",
    "village": "CANDIREJO",
    "postal_code": "56553"
  },
  {
    "village_code": "32952",
    "village": "GIRIPURNO",
    "postal_code": "56553"
  },
  {
    "village_code": "32963",
    "village": "GIRITENGAH",
    "postal_code": "56553"
  },
  {
    "village_code": "34106",
    "village": "KARANGANYAR",
    "postal_code": "56553"
  },
  {
    "village_code": "34331",
    "village": "KARANGREJO",
    "postal_code": "56553"
  },
  {
    "village_code": "34571",
    "village": "KEBONSARI",
    "postal_code": "56553"
  },
  {
    "village_code": "34818",
    "village": "KEMBANGLIMUS",
    "postal_code": "56553"
  },
  {
    "village_code": "34877",
    "village": "KENALAN",
    "postal_code": "56553"
  },
  {
    "village_code": "35664",
    "village": "MAJAKSINGI",
    "postal_code": "56553"
  },
  {
    "village_code": "36128",
    "village": "NGADIHARJO",
    "postal_code": "56553"
  },
  {
    "village_code": "36198",
    "village": "NGARGOGONDO",
    "postal_code": "56553"
  },
  {
    "village_code": "37618",
    "village": "SAMBENG",
    "postal_code": "56553"
  },
  {
    "village_code": "38823",
    "village": "TANJUNGSARI",
    "postal_code": "56553"
  },
  {
    "village_code": "38895",
    "village": "TEGALARUM",
    "postal_code": "56413"
  },
  {
    "village_code": "39316",
    "village": "TUKSONGO",
    "postal_code": "56553"
  },
  {
    "village_code": "39453",
    "village": "WANUREJO",
    "postal_code": "56553"
  },
  {
    "village_code": "39727",
    "village": "WRINGINPUTIH",
    "postal_code": "56553"
  }
]