[
  {
    "village_code": "32191",
    "village": "CANDIRETNO",
    "postal_code": "56195"
  },
  {
    "village_code": "32199",
    "village": "CANDISARI",
    "postal_code": "56195"
  },
  {
    "village_code": "32554",
    "village": "DONOMULYO",
    "postal_code": "56195"
  },
  {
    "village_code": "32560",
    "village": "DONOREJO",
    "postal_code": "56195"
  },
  {
    "village_code": "32944",
    "village": "GIRIKULON",
    "postal_code": "56195"
  },
  {
    "village_code": "33282",
    "village": "JAMBEWANGI",
    "postal_code": "56195"
  },
  {
    "village_code": "33847",
    "village": "KALIJOSO",
    "postal_code": "56195"
  },
  {
    "village_code": "34238",
    "village": "KARANGKAJEN",
    "postal_code": "56195"
  },
  {
    "village_code": "35256",
    "village": "KRINCING",
    "postal_code": "56195"
  },
  {
    "village_code": "35639",
    "village": "MADIOCONDRO",
    "postal_code": "56195"
  },
  {
    "village_code": "35652",
    "village": "MADUSARI",
    "postal_code": "56195"
  },
  {
    "village_code": "36116",
    "village": "NGABEAN",
    "postal_code": "56195"
  },
  {
    "village_code": "36148",
    "village": "NGADIROJO",
    "postal_code": "56195"
  },
  {
    "village_code": "36549",
    "village": "PANCURANMAS",
    "postal_code": "56195"
  },
  {
    "village_code": "36746",
    "village": "PAYAMAN",
    "postal_code": "56195"
  },
  {
    "village_code": "37014",
    "village": "PIRIKAN",
    "postal_code": "56195"
  },
  {
    "village_code": "37223",
    "village": "PUCANG",
    "postal_code": "56195"
  },
  {
    "village_code": "37395",
    "village": "PURWOSARI",
    "postal_code": "56195"
  },
  {
    "village_code": "37767",
    "village": "SECANG",
    "postal_code": "56195"
  },
  {
    "village_code": "38099",
    "village": "SIDOMULYO",
    "postal_code": "56195"
  }
]