[
  {
    "village_code": "62299",
    "village": "AMMAT",
    "postal_code": "95882"
  },
  {
    "village_code": "62298",
    "village": "AMMAT SELATAN",
    "postal_code": "95882"
  },
  {
    "village_code": "62419",
    "village": "BINALANG",
    "postal_code": "95882"
  },
  {
    "village_code": "62418",
    "village": "BINALANG TIMUR",
    "postal_code": "95882"
  },
  {
    "village_code": "62563",
    "village": "DAPALAN",
    "postal_code": "95882"
  },
  {
    "village_code": "62564",
    "village": "DAPIHE",
    "postal_code": "95882"
  },
  {
    "village_code": "62612",
    "village": "GANALO",
    "postal_code": "95882"
  },
  {
    "village_code": "63543",
    "village": "RIUNG",
    "postal_code": "95882"
  },
  {
    "village_code": "63542",
    "village": "RIUNG UTARA",
    "postal_code": "95882"
  },
  {
    "village_code": "63918",
    "village": "TUABATU",
    "postal_code": "95882"
  },
  {
    "village_code": "63917",
    "village": "TUABATU BARAT",
    "postal_code": "95882"
  }
]