[
  {
    "village_code": "75149",
    "village": "AWEBUTU",
    "postal_code": "98715"
  },
  {
    "village_code": "76213",
    "village": "IBUMAIDA (IBOMOMAIDA)",
    "postal_code": "98717"
  },
  {
    "village_code": "76287",
    "village": "IPAWA (IPUWA)",
    "postal_code": "98721"
  },
  {
    "village_code": "76403",
    "village": "KAGUPAGO (KAGUPAGU)",
    "postal_code": "98718"
  },
  {
    "village_code": "76567",
    "village": "KEBO I",
    "postal_code": "98718"
  },
  {
    "village_code": "76568",
    "village": "KEBO II",
    "postal_code": "98718"
  },
  {
    "village_code": "77439",
    "village": "MUNAYEPA (MUJAIYEPA)",
    "postal_code": "98721"
  },
  {
    "village_code": "77780",
    "village": "OYAIGO (AYAIGO / KAGUPAIDA)",
    "postal_code": "98715"
  },
  {
    "village_code": "77833",
    "village": "PANIBAGATA",
    "postal_code": "98722"
  },
  {
    "village_code": "78005",
    "village": "PUGAIDA (DAUPAIDA)",
    "postal_code": "98723"
  },
  {
    "village_code": "78723",
    "village": "TOGOWA",
    "postal_code": "98719"
  }
]