[
  {
    "village_code": "491",
    "village": "BALEE DAKA",
    "postal_code": "24263"
  },
  {
    "village_code": "1289",
    "village": "COT GEULUMPANG",
    "postal_code": "24263"
  },
  {
    "village_code": "1813",
    "village": "GARAB",
    "postal_code": "24263"
  },
  {
    "village_code": "2101",
    "village": "JAMBO DALAM",
    "postal_code": "24263"
  },
  {
    "village_code": "2454",
    "village": "KEUDE PLIMBANG",
    "postal_code": "24263"
  },
  {
    "village_code": "2583",
    "village": "KRUENG BARO / BARU",
    "postal_code": "24263"
  },
  {
    "village_code": "2796",
    "village": "KUTA TRIENG",
    "postal_code": "24263"
  },
  {
    "village_code": "3136",
    "village": "LANCOK BUNGO",
    "postal_code": "24263"
  },
  {
    "village_code": "3617",
    "village": "MATANG KULEE",
    "postal_code": "24263"
  },
  {
    "village_code": "4239",
    "village": "PADANG KASAB",
    "postal_code": "24263"
  },
  {
    "village_code": "4296",
    "village": "PALOH PUPU",
    "postal_code": "24263"
  },
  {
    "village_code": "5041",
    "village": "PUUEK (PU UK)",
    "postal_code": "24263"
  },
  {
    "village_code": "5064",
    "village": "RAMBONG PAYONG",
    "postal_code": "24263"
  },
  {
    "village_code": "5428",
    "village": "SEUNEUBOK ACEH",
    "postal_code": "24263"
  },
  {
    "village_code": "5478",
    "village": "SEUNEUBOK NALAN",
    "postal_code": "24263"
  },
  {
    "village_code": "5492",
    "village": "SEUNEUBOK PLIMBANG",
    "postal_code": "24263"
  },
  {
    "village_code": "5496",
    "village": "SEUNEUBOK PUNTI",
    "postal_code": "24263"
  },
  {
    "village_code": "5505",
    "village": "SEUNEUBOK SEUMAWE",
    "postal_code": "24263"
  },
  {
    "village_code": "5514",
    "village": "SEUNEUBOK TEUNGOH",
    "postal_code": "24263"
  },
  {
    "village_code": "6065",
    "village": "TEUPIN PANAH",
    "postal_code": "24263"
  },
  {
    "village_code": "6416",
    "village": "UTEUN RUNGKOM",
    "postal_code": "24263"
  },
  {
    "village_code": "6417",
    "village": "UTEUN SIKUMBONG",
    "postal_code": "24263"
  }
]