[
  {
    "village_code": "52",
    "village": "ALUE BARAT",
    "postal_code": "24264"
  },
  {
    "village_code": "310",
    "village": "ANKIENG BARAT",
    "postal_code": "24264"
  },
  {
    "village_code": "579",
    "village": "BATEE ILIEK",
    "postal_code": "24264"
  },
  {
    "village_code": "1366",
    "village": "COT MANE",
    "postal_code": "24264"
  },
  {
    "village_code": "1381",
    "village": "COT MEURAK BAROH",
    "postal_code": "24264"
  },
  {
    "village_code": "1382",
    "village": "COT MEURAK BLANG",
    "postal_code": "24264"
  },
  {
    "village_code": "1428",
    "village": "COT SIREN",
    "postal_code": "24264"
  },
  {
    "village_code": "1516",
    "village": "DARUSSALAM",
    "postal_code": "24264"
  },
  {
    "village_code": "1697",
    "village": "GAMPONG BARO",
    "postal_code": "24264"
  },
  {
    "village_code": "1759",
    "village": "GAMPONG MEULUM",
    "postal_code": "24264"
  },
  {
    "village_code": "1778",
    "village": "GAMPONG PUTOH",
    "postal_code": "24264"
  },
  {
    "village_code": "1895",
    "village": "GEULUMPANG / GLUMPANG BUNGKOK",
    "postal_code": "24264"
  },
  {
    "village_code": "1896",
    "village": "GEULUMPANG / GLUMPANG PAYONG",
    "postal_code": "24264"
  },
  {
    "village_code": "2293",
    "village": "KANDANG",
    "postal_code": "24264"
  },
  {
    "village_code": "2408",
    "village": "KEUDE ACEH",
    "postal_code": "24264"
  },
  {
    "village_code": "3141",
    "village": "LANCOK",
    "postal_code": "24264"
  },
  {
    "village_code": "3393",
    "village": "LHOK SEUMIRA",
    "postal_code": "24264"
  },
  {
    "village_code": "3482",
    "village": "LUENG KEUBEU",
    "postal_code": "24264"
  },
  {
    "village_code": "3695",
    "village": "MATANG",
    "postal_code": "24264"
  },
  {
    "village_code": "3607",
    "village": "MATANG JAREUNG",
    "postal_code": "24264"
  },
  {
    "village_code": "3686",
    "village": "MATANG TEUNGOH",
    "postal_code": "24264"
  },
  {
    "village_code": "3692",
    "village": "MATANG WAKEUH",
    "postal_code": "24264"
  },
  {
    "village_code": "3760",
    "village": "MESJID BARO",
    "postal_code": "24264"
  },
  {
    "village_code": "3840",
    "village": "MEULIEK",
    "postal_code": "24264"
  },
  {
    "village_code": "3952",
    "village": "MEUNASAH LANCOK",
    "postal_code": "24264"
  },
  {
    "village_code": "3959",
    "village": "MEUNASAH LINCAH",
    "postal_code": "24264"
  },
  {
    "village_code": "3963",
    "village": "MEUNASAH LUENG",
    "postal_code": "24264"
  },
  {
    "village_code": "4004",
    "village": "MEUNASAH PUUK",
    "postal_code": "24264"
  },
  {
    "village_code": "4055",
    "village": "MEURAH",
    "postal_code": "24264"
  },
  {
    "village_code": "4088",
    "village": "MIDEUN GEUDONG",
    "postal_code": "24264"
  },
  {
    "village_code": "4089",
    "village": "MIDEUN JOK",
    "postal_code": "24264"
  },
  {
    "village_code": "4174",
    "village": "NAMPLOH BARO",
    "postal_code": "24264"
  },
  {
    "village_code": "4175",
    "village": "NAMPLOH BLANG GARANG",
    "postal_code": "24264"
  },
  {
    "village_code": "4176",
    "village": "NAMPLOH KRUENG",
    "postal_code": "24264"
  },
  {
    "village_code": "4177",
    "village": "NAMPLOH MANYANG",
    "postal_code": "24264"
  },
  {
    "village_code": "4178",
    "village": "NAMPLOH PAPEUEN",
    "postal_code": "24264"
  },
  {
    "village_code": "4307",
    "village": "PALOH",
    "postal_code": "24264"
  },
  {
    "village_code": "4416",
    "village": "PANTE RHEENG / RHENG",
    "postal_code": "24264"
  },
  {
    "village_code": "4817",
    "village": "PINEUNG SIRI BEE",
    "postal_code": "24264"
  },
  {
    "village_code": "4883",
    "village": "PULO BAROH",
    "postal_code": "24264"
  },
  {
    "village_code": "5283",
    "village": "SANGSO",
    "postal_code": "24264"
  },
  {
    "village_code": "5840",
    "village": "TANJONG BARO",
    "postal_code": "24264"
  },
  {
    "village_code": "5893",
    "village": "TANJONGAN IDEM",
    "postal_code": "24264"
  },
  {
    "village_code": "6312",
    "village": "ULEE ALUE",
    "postal_code": "24264"
  },
  {
    "village_code": "6344",
    "village": "ULEE JEUMATAN",
    "postal_code": "24264"
  },
  {
    "village_code": "6374",
    "village": "ULEE UE",
    "postal_code": "24264"
  }
]