[
  {
    "village_code": "69042",
    "village": "AINANI TAJRIANI",
    "postal_code": "93955"
  },
  {
    "village_code": "69054",
    "village": "ALIPATO",
    "postal_code": "93955"
  },
  {
    "village_code": "60826",
    "village": "BATU PUTIH",
    "postal_code": "93955"
  },
  {
    "village_code": "69260",
    "village": "BATUAPI",
    "postal_code": "93955"
  },
  {
    "village_code": "69331",
    "village": "BUKIT BARU",
    "postal_code": "93955"
  },
  {
    "village_code": "69333",
    "village": "BUKIT TINGGI",
    "postal_code": "93955"
  },
  {
    "village_code": "69367",
    "village": "DELANG DELANG",
    "postal_code": "93955"
  },
  {
    "village_code": "69462",
    "village": "KALAHUNDE",
    "postal_code": "93955"
  },
  {
    "village_code": "69743",
    "village": "LALUME",
    "postal_code": "93955"
  },
  {
    "village_code": "69924",
    "village": "LATOWU",
    "postal_code": "93955"
  },
  {
    "village_code": "69956",
    "village": "LELEWAWO",
    "postal_code": "93955"
  },
  {
    "village_code": "69965",
    "village": "LENGKONG BATU",
    "postal_code": "93955"
  },
  {
    "village_code": "70020",
    "village": "MAKKUASENG",
    "postal_code": "93955"
  },
  {
    "village_code": "70092",
    "village": "MATAIWOI",
    "postal_code": "93955"
  },
  {
    "village_code": "70186",
    "village": "MOSIKU",
    "postal_code": "93955"
  },
  {
    "village_code": "70223",
    "village": "NIMBUNEHA",
    "postal_code": "93955"
  },
  {
    "village_code": "70257",
    "village": "PADAELO",
    "postal_code": "93955"
  },
  {
    "village_code": "70300",
    "village": "PARUNG LAMPE",
    "postal_code": "93955"
  },
  {
    "village_code": "70403",
    "village": "PUNCAK HARAPAN",
    "postal_code": "93955"
  },
  {
    "village_code": "70581",
    "village": "SAROWALI",
    "postal_code": "93955"
  },
  {
    "village_code": "70592",
    "village": "SEUWWA",
    "postal_code": "93955"
  },
  {
    "village_code": "70738",
    "village": "TETEBAWO",
    "postal_code": "93955"
  }
]