[
  {
    "village_code": "69185",
    "village": "BABUSSALAM",
    "postal_code": "93916"
  },
  {
    "village_code": "69255",
    "village": "BATU GANDA PERMAI",
    "postal_code": "93916"
  },
  {
    "village_code": "69913",
    "village": "LASUSUA",
    "postal_code": "93911"
  },
  {
    "village_code": "70312",
    "village": "PATOWONUA",
    "postal_code": "93916"
  },
  {
    "village_code": "70341",
    "village": "PITULUA",
    "postal_code": "93915"
  },
  {
    "village_code": "70340",
    "village": "PITULUA DUA (II)",
    "postal_code": "93916"
  },
  {
    "village_code": "70372",
    "village": "PONGGIHA",
    "postal_code": "93912"
  },
  {
    "village_code": "70392",
    "village": "PUCAK MONAPA",
    "postal_code": "93916"
  },
  {
    "village_code": "70507",
    "village": "RANTE LIMBUNG",
    "postal_code": "93916"
  },
  {
    "village_code": "70631",
    "village": "SULAHO",
    "postal_code": "93916"
  },
  {
    "village_code": "70791",
    "village": "TOJABI",
    "postal_code": "93916"
  },
  {
    "village_code": "70836",
    "village": "TOTALLANG",
    "postal_code": "93916"
  },
  {
    "village_code": "71035",
    "village": "WATULIU (WATULIWU)",
    "postal_code": "93916"
  }
]