[
  {
    "village_code": "50255",
    "village": "AMBENGAN",
    "postal_code": "81161"
  },
  {
    "village_code": "50457",
    "village": "GITGIT",
    "postal_code": "81161"
  },
  {
    "village_code": "50503",
    "village": "KAYUPUTIH",
    "postal_code": "81161"
  },
  {
    "village_code": "50629",
    "village": "PADANGBULIA",
    "postal_code": "81161"
  },
  {
    "village_code": "50637",
    "village": "PANCASARI",
    "postal_code": "81161"
  },
  {
    "village_code": "50647",
    "village": "PANJI",
    "postal_code": "81161"
  },
  {
    "village_code": "50646",
    "village": "PANJI ANOM",
    "postal_code": "81161"
  },
  {
    "village_code": "50655",
    "village": "PEGADUNGAN",
    "postal_code": "81161"
  },
  {
    "village_code": "50656",
    "village": "PEGAYAMAN",
    "postal_code": "81161"
  },
  {
    "village_code": "50744",
    "village": "SAMBANGAN",
    "postal_code": "81161"
  },
  {
    "village_code": "50778",
    "village": "SELAT",
    "postal_code": "81161"
  },
  {
    "village_code": "50817",
    "village": "SILANGJANA",
    "postal_code": "81161"
  },
  {
    "village_code": "50836",
    "village": "SUKASADA",
    "postal_code": "81161"
  },
  {
    "village_code": "50877",
    "village": "TEGAL LINGGAH (TEGALINGGAH)",
    "postal_code": "81161"
  },
  {
    "village_code": "50944",
    "village": "WANAGIRI",
    "postal_code": "81161"
  }
]