[
  {
    "village_code": "50284",
    "village": "BANJAR ASEM",
    "postal_code": "81153"
  },
  {
    "village_code": "50352",
    "village": "BESTALA",
    "postal_code": "81153"
  },
  {
    "village_code": "50375",
    "village": "BUBUNAN",
    "postal_code": "81153"
  },
  {
    "village_code": "50465",
    "village": "GUNUNGSARI",
    "postal_code": "81153"
  },
  {
    "village_code": "50475",
    "village": "JOANYAR",
    "postal_code": "81153"
  },
  {
    "village_code": "50482",
    "village": "KALIANGET",
    "postal_code": "81153"
  },
  {
    "village_code": "50485",
    "village": "KALISADA",
    "postal_code": "81153"
  },
  {
    "village_code": "50562",
    "village": "LOKAPAKSA",
    "postal_code": "81153"
  },
  {
    "village_code": "50586",
    "village": "MAYONG",
    "postal_code": "81153"
  },
  {
    "village_code": "50609",
    "village": "MUNDUK BESTALA",
    "postal_code": "81153"
  },
  {
    "village_code": "50642",
    "village": "PANGKUNGPARUK",
    "postal_code": "81153"
  },
  {
    "village_code": "50649",
    "village": "PATEMOH (PATEMON)",
    "postal_code": "81153"
  },
  {
    "village_code": "50689",
    "village": "PENGASTULAN",
    "postal_code": "81153"
  },
  {
    "village_code": "50735",
    "village": "RANGDU",
    "postal_code": "81153"
  },
  {
    "village_code": "50740",
    "village": "RINGDIKIT",
    "postal_code": "81153"
  },
  {
    "village_code": "50805",
    "village": "SERIRIT",
    "postal_code": "81153"
  },
  {
    "village_code": "50842",
    "village": "SULANYAH",
    "postal_code": "81153"
  },
  {
    "village_code": "50865",
    "village": "TANGGUWISIA",
    "postal_code": "81153"
  },
  {
    "village_code": "50935",
    "village": "ULARAN",
    "postal_code": "81153"
  },
  {
    "village_code": "50937",
    "village": "UMEANYAR",
    "postal_code": "81153"
  },
  {
    "village_code": "50941",
    "village": "UNGGAHAN",
    "postal_code": "81153"
  }
]