[
  {
    "village_code": "50326",
    "village": "BEBETIN",
    "postal_code": "81171"
  },
  {
    "village_code": "50388",
    "village": "BUNGKULAN",
    "postal_code": "81171"
  },
  {
    "village_code": "50446",
    "village": "GALUNGAN",
    "postal_code": "81171"
  },
  {
    "village_code": "50456",
    "village": "GIRI EMAS",
    "postal_code": "81171"
  },
  {
    "village_code": "50468",
    "village": "JAGARAGA",
    "postal_code": "81171"
  },
  {
    "village_code": "50524",
    "village": "KEROBOKAN",
    "postal_code": "81171"
  },
  {
    "village_code": "50558",
    "village": "LEMUKIH",
    "postal_code": "81171"
  },
  {
    "village_code": "50604",
    "village": "MENYALI",
    "postal_code": "81171"
  },
  {
    "village_code": "50757",
    "village": "SANGSIT",
    "postal_code": "81171"
  },
  {
    "village_code": "50764",
    "village": "SAWAN",
    "postal_code": "81171"
  },
  {
    "village_code": "50772",
    "village": "SEKUMPUL",
    "postal_code": "81171"
  },
  {
    "village_code": "50818",
    "village": "SINABUN",
    "postal_code": "81171"
  },
  {
    "village_code": "50833",
    "village": "SUDAJI",
    "postal_code": "81171"
  },
  {
    "village_code": "50853",
    "village": "SUWUG",
    "postal_code": "81171"
  }
]