[
  {
    "village_code": "40324",
    "village": "BABATAGUNG",
    "postal_code": "62291"
  },
  {
    "village_code": "41572",
    "village": "DEKET KULON",
    "postal_code": "62291"
  },
  {
    "village_code": "41573",
    "village": "DEKET WETAN",
    "postal_code": "62291"
  },
  {
    "village_code": "41615",
    "village": "DINOYO",
    "postal_code": "62291"
  },
  {
    "village_code": "41624",
    "village": "DLANGGU",
    "postal_code": "62291"
  },
  {
    "village_code": "44042",
    "village": "LALADAN",
    "postal_code": "62291"
  },
  {
    "village_code": "45305",
    "village": "PANDANPANCUR",
    "postal_code": "62291"
  },
  {
    "village_code": "45757",
    "village": "PLOSOBUDEN",
    "postal_code": "62291"
  },
  {
    "village_code": "46181",
    "village": "REJOSARI",
    "postal_code": "62291"
  },
  {
    "village_code": "46198",
    "village": "REJOTENGAH (TEJOTENGAH)",
    "postal_code": "62291"
  },
  {
    "village_code": "46711",
    "village": "SIDOBINANGUN",
    "postal_code": "62291"
  },
  {
    "village_code": "46779",
    "village": "SIDOMULYO",
    "postal_code": "62291"
  },
  {
    "village_code": "46812",
    "village": "SIDOREJO",
    "postal_code": "62291"
  },
  {
    "village_code": "47037",
    "village": "SRIRANDE",
    "postal_code": "62291"
  },
  {
    "village_code": "47074",
    "village": "SUGIHWARAS",
    "postal_code": "62291"
  },
  {
    "village_code": "48275",
    "village": "TUKKERTO",
    "postal_code": "62291"
  },
  {
    "village_code": "48490",
    "village": "WEDUNI",
    "postal_code": "62291"
  }
]