[
  {
    "village_code": "40647",
    "village": "BANJARWATI",
    "postal_code": "62264"
  },
  {
    "village_code": "41022",
    "village": "BLIMBING",
    "postal_code": "62264"
  },
  {
    "village_code": "41655",
    "village": "DRAJAT",
    "postal_code": "62264"
  },
  {
    "village_code": "42815",
    "village": "KANDANG SEMANGKON",
    "postal_code": "62264"
  },
  {
    "village_code": "43446",
    "village": "KEMANTREN",
    "postal_code": "62264"
  },
  {
    "village_code": "43904",
    "village": "KRANJI",
    "postal_code": "62264"
  },
  {
    "village_code": "45105",
    "village": "PACIRAN",
    "postal_code": "62264"
  },
  {
    "village_code": "45256",
    "village": "PALOH",
    "postal_code": "62264"
  },
  {
    "village_code": "46621",
    "village": "SENDANGAGUNG",
    "postal_code": "62264"
  },
  {
    "village_code": "46624",
    "village": "SENDANGDUWUR",
    "postal_code": "62264"
  },
  {
    "village_code": "46742",
    "village": "SIDOKELAR",
    "postal_code": "62264"
  },
  {
    "village_code": "46753",
    "village": "SIDOKUMPUL",
    "postal_code": "62264"
  },
  {
    "village_code": "47557",
    "village": "SUMURGAYAM",
    "postal_code": "62264"
  },
  {
    "village_code": "48168",
    "village": "TLOGOSADANG",
    "postal_code": "62264"
  },
  {
    "village_code": "48328",
    "village": "TUNGGUL",
    "postal_code": "62264"
  },
  {
    "village_code": "48422",
    "village": "WARULOR",
    "postal_code": "62264"
  },
  {
    "village_code": "48494",
    "village": "WERU",
    "postal_code": "62264"
  }
]