[
  {
    "village_code": "43271",
    "village": "KEDUKBEMBEM",
    "postal_code": "62283"
  },
  {
    "village_code": "43396",
    "village": "KEDUNGSOKO",
    "postal_code": "62283"
  },
  {
    "village_code": "44343",
    "village": "MANTUP",
    "postal_code": "62283"
  },
  {
    "village_code": "44614",
    "village": "MOJOSARI",
    "postal_code": "62283"
  },
  {
    "village_code": "45706",
    "village": "PLABUHANREJO",
    "postal_code": "62283"
  },
  {
    "village_code": "46267",
    "village": "RUMPUK",
    "postal_code": "62283"
  },
  {
    "village_code": "46787",
    "village": "SIDOMULYO",
    "postal_code": "62283"
  },
  {
    "village_code": "47107",
    "village": "SUKOBENDU",
    "postal_code": "62283"
  },
  {
    "village_code": "47222",
    "village": "SUKOSARI",
    "postal_code": "62283"
  },
  {
    "village_code": "47332",
    "village": "SUMBERAGUNG",
    "postal_code": "62283"
  },
  {
    "village_code": "47364",
    "village": "SUMBERBENDO",
    "postal_code": "62283"
  },
  {
    "village_code": "47381",
    "village": "SUMBERDADI",
    "postal_code": "62283"
  },
  {
    "village_code": "47459",
    "village": "SUMBERKEREP",
    "postal_code": "62283"
  },
  {
    "village_code": "48265",
    "village": "TUGU",
    "postal_code": "62283"
  },
  {
    "village_code": "48332",
    "village": "TUNGGUNJAGIR",
    "postal_code": "62283"
  }
]