[
  {
    "village_code": "31504",
    "village": "BANMATI",
    "postal_code": "57551"
  },
  {
    "village_code": "31650",
    "village": "BEGAJAH",
    "postal_code": "57551"
  },
  {
    "village_code": "32029",
    "village": "BULAKAN",
    "postal_code": "57551"
  },
  {
    "village_code": "32034",
    "village": "BULAKREJO",
    "postal_code": "57551"
  },
  {
    "village_code": "32369",
    "village": "COMBONGAN",
    "postal_code": "57519"
  },
  {
    "village_code": "32609",
    "village": "DUKUH",
    "postal_code": "57524"
  },
  {
    "village_code": "32748",
    "village": "GAYAM",
    "postal_code": "57514"
  },
  {
    "village_code": "33546",
    "village": "JETIS",
    "postal_code": "57511"
  },
  {
    "village_code": "33602",
    "village": "JOHO",
    "postal_code": "57513"
  },
  {
    "village_code": "34898",
    "village": "KENEP",
    "postal_code": "57551"
  },
  {
    "village_code": "35261",
    "village": "KRIWEN",
    "postal_code": "57551"
  },
  {
    "village_code": "35697",
    "village": "MANDAN",
    "postal_code": "57516"
  },
  {
    "village_code": "38350",
    "village": "SONOREJO",
    "postal_code": "57551"
  },
  {
    "village_code": "38447",
    "village": "SUKOHARJO",
    "postal_code": "57512"
  }
]