[
  {
    "village_code": "31674",
    "village": "BEKONANG",
    "postal_code": "57554"
  },
  {
    "village_code": "32212",
    "village": "CANGKOL",
    "postal_code": "57554"
  },
  {
    "village_code": "32481",
    "village": "DEMAKAN",
    "postal_code": "57554"
  },
  {
    "village_code": "32605",
    "village": "DUKUH",
    "postal_code": "57554"
  },
  {
    "village_code": "32669",
    "village": "GADINGAN",
    "postal_code": "57554"
  },
  {
    "village_code": "33596",
    "village": "JOHO",
    "postal_code": "57554"
  },
  {
    "village_code": "35129",
    "village": "KLUMPRIT",
    "postal_code": "57554"
  },
  {
    "village_code": "35171",
    "village": "KRAGILAN",
    "postal_code": "57554"
  },
  {
    "village_code": "35412",
    "village": "LABAN",
    "postal_code": "57554"
  },
  {
    "village_code": "36530",
    "village": "PALUR",
    "postal_code": "57554"
  },
  {
    "village_code": "37076",
    "village": "PLUMBON",
    "postal_code": "57554"
  },
  {
    "village_code": "37706",
    "village": "SAPEN",
    "postal_code": "57554"
  },
  {
    "village_code": "38917",
    "village": "TEGALMADE",
    "postal_code": "57554"
  },
  {
    "village_code": "39286",
    "village": "TRIYAGAN",
    "postal_code": "57554"
  },
  {
    "village_code": "39587",
    "village": "WIRUN",
    "postal_code": "57554"
  }
]