[
  {
    "village_code": "31699",
    "village": "BENDOSARI",
    "postal_code": "57528"
  },
  {
    "village_code": "32146",
    "village": "CABEYAN",
    "postal_code": "57528"
  },
  {
    "village_code": "32877",
    "village": "GENTAN",
    "postal_code": "57528"
  },
  {
    "village_code": "33263",
    "village": "JAGAN",
    "postal_code": "57528"
  },
  {
    "village_code": "33618",
    "village": "JOMBOR",
    "postal_code": "57521"
  },
  {
    "village_code": "35754",
    "village": "MANISHARJO",
    "postal_code": "57528"
  },
  {
    "village_code": "35895",
    "village": "MERTAN",
    "postal_code": "57528"
  },
  {
    "village_code": "35981",
    "village": "MOJOREJO",
    "postal_code": "57528"
  },
  {
    "village_code": "36040",
    "village": "MULUR",
    "postal_code": "57528"
  },
  {
    "village_code": "36527",
    "village": "PALUHOMBO",
    "postal_code": "57528"
  },
  {
    "village_code": "37250",
    "village": "PUHGOGOR",
    "postal_code": "57528"
  },
  {
    "village_code": "38106",
    "village": "SIDOREJO",
    "postal_code": "57527"
  },
  {
    "village_code": "38419",
    "village": "SUGIHAN",
    "postal_code": "57528"
  },
  {
    "village_code": "39227",
    "village": "TORIYO",
    "postal_code": "57528"
  }
]