[
  {
    "village_code": "50981",
    "village": "BABUSSALAM",
    "postal_code": "83363"
  },
  {
    "village_code": "51009",
    "village": "BANYU URIP",
    "postal_code": "83363"
  },
  {
    "village_code": "51044",
    "village": "BELEKE",
    "postal_code": "83363"
  },
  {
    "village_code": "51126",
    "village": "DASAN GERES",
    "postal_code": "83363"
  },
  {
    "village_code": "51129",
    "village": "DASAN TAPEN",
    "postal_code": "83363"
  },
  {
    "village_code": "51160",
    "village": "GAPUK",
    "postal_code": "83363"
  },
  {
    "village_code": "51178",
    "village": "GERUNG SELATAN",
    "postal_code": "83363"
  },
  {
    "village_code": "51179",
    "village": "GERUNG UTARA",
    "postal_code": "83363"
  },
  {
    "village_code": "51185",
    "village": "GIRI TEMBESI",
    "postal_code": "83363"
  },
  {
    "village_code": "51287",
    "village": "KEBUNAYU",
    "postal_code": "83363"
  },
  {
    "village_code": "51521",
    "village": "MESANGGOK",
    "postal_code": "83363"
  },
  {
    "village_code": "51915",
    "village": "SUKAMAKMUR",
    "postal_code": "83363"
  },
  {
    "village_code": "51937",
    "village": "TAMAN AYU",
    "postal_code": "83363"
  },
  {
    "village_code": "51980",
    "village": "TEMPOS",
    "postal_code": "83363"
  }
]