[
  {
    "village_code": "50983",
    "village": "BADRAIN",
    "postal_code": "83371"
  },
  {
    "village_code": "51022",
    "village": "BATU KUTA",
    "postal_code": "83371"
  },
  {
    "village_code": "51093",
    "village": "BUWUN SEJATI",
    "postal_code": "83371"
  },
  {
    "village_code": "51130",
    "village": "DASAN TERENG",
    "postal_code": "83371"
  },
  {
    "village_code": "51175",
    "village": "GERIMAK INDAH",
    "postal_code": "83371"
  },
  {
    "village_code": "51187",
    "village": "GOLONG",
    "postal_code": "83371"
  },
  {
    "village_code": "51342",
    "village": "KRAMA JAYA",
    "postal_code": "83371"
  },
  {
    "village_code": "51406",
    "village": "LEBAH SEMPAGA",
    "postal_code": "83371"
  },
  {
    "village_code": "51417",
    "village": "LEMBUAK",
    "postal_code": "83371"
  },
  {
    "village_code": "51508",
    "village": "MEKARSARI",
    "postal_code": "83371"
  },
  {
    "village_code": "51565",
    "village": "NARMADA",
    "postal_code": "83371"
  },
  {
    "village_code": "51590",
    "village": "NYUR LEMBANG",
    "postal_code": "83371"
  },
  {
    "village_code": "51616",
    "village": "PAKUAN",
    "postal_code": "83371"
  },
  {
    "village_code": "51674",
    "village": "PERESAK",
    "postal_code": "83371"
  },
  {
    "village_code": "51680",
    "village": "PERU (KERU)",
    "postal_code": "83371"
  },
  {
    "village_code": "51811",
    "village": "SEDAU",
    "postal_code": "83371"
  },
  {
    "village_code": "51827",
    "village": "SELAT",
    "postal_code": "83371"
  },
  {
    "village_code": "51842",
    "village": "SEMBUNG",
    "postal_code": "83371"
  },
  {
    "village_code": "51868",
    "village": "SESAOT",
    "postal_code": "83371"
  },
  {
    "village_code": "51929",
    "village": "SURANADI",
    "postal_code": "83371"
  },
  {
    "village_code": "51946",
    "village": "TANAH / TANAK BEAK",
    "postal_code": "83371"
  }
]