[
  {
    "village_code": "50991",
    "village": "BAGIK POLAK",
    "postal_code": "83361"
  },
  {
    "village_code": "50990",
    "village": "BAGIK POLAK BARAT",
    "postal_code": "83361"
  },
  {
    "village_code": "50996",
    "village": "BAJUR",
    "postal_code": "83361"
  },
  {
    "village_code": "51049",
    "village": "BENGKEL",
    "postal_code": "83361"
  },
  {
    "village_code": "51272",
    "village": "KARANG BONGKOT",
    "postal_code": "83361"
  },
  {
    "village_code": "51350",
    "village": "KURANJI",
    "postal_code": "83361"
  },
  {
    "village_code": "51349",
    "village": "KURANJI DALANG",
    "postal_code": "83361"
  },
  {
    "village_code": "51368",
    "village": "LABUAPI",
    "postal_code": "83361"
  },
  {
    "village_code": "51518",
    "village": "MEREMBU",
    "postal_code": "83361"
  },
  {
    "village_code": "51672",
    "village": "PERAMPUAN",
    "postal_code": "83361"
  },
  {
    "village_code": "51977",
    "village": "TELAGAWARU",
    "postal_code": "83361"
  },
  {
    "village_code": "51990",
    "village": "TERONG TAWAH",
    "postal_code": "83361"
  }
]