[
  {
    "village_code": "13714",
    "village": "BEKALAR",
    "postal_code": "28686"
  },
  {
    "village_code": "13722",
    "village": "BELUTU",
    "postal_code": "28686"
  },
  {
    "village_code": "13941",
    "village": "JAMBAI MAKMUR",
    "postal_code": "28686"
  },
  {
    "village_code": "13986",
    "village": "KANDIS",
    "postal_code": "28686"
  },
  {
    "village_code": "13985",
    "village": "KANDIS KOTA",
    "postal_code": "28686"
  },
  {
    "village_code": "14193",
    "village": "LIBO JAYA",
    "postal_code": "28686"
  },
  {
    "village_code": "14510",
    "village": "PENCING BEKUTO",
    "postal_code": "28686"
  },
  {
    "village_code": "14734",
    "village": "SAM SAM",
    "postal_code": "28686"
  },
  {
    "village_code": "14898",
    "village": "SIMPANG BELUTU",
    "postal_code": "28686"
  },
  {
    "village_code": "15025",
    "village": "SUNGAI GONDANG",
    "postal_code": "28686"
  },
  {
    "village_code": "15256",
    "village": "TELAGA SAM-SAM",
    "postal_code": "28686"
  }
]