[
  {
    "village_code": "6488",
    "village": "AEK GER GER SIDODADI",
    "postal_code": "21187"
  },
  {
    "village_code": "6885",
    "village": "BANGUN SORDANG",
    "postal_code": "21187"
  },
  {
    "village_code": "7456",
    "village": "DUSUN ULU",
    "postal_code": "21187"
  },
  {
    "village_code": "8114",
    "village": "HUTA PARIK",
    "postal_code": "21187"
  },
  {
    "village_code": "8335",
    "village": "KAMPUNG LALANG",
    "postal_code": "21187"
  },
  {
    "village_code": "9496",
    "village": "PAGAR BOSI",
    "postal_code": "21187"
  },
  {
    "village_code": "10322",
    "village": "PULO PITU MARIHAT",
    "postal_code": "21187"
  },
  {
    "village_code": "10435",
    "village": "RIAH POSO",
    "postal_code": "21187"
  },
  {
    "village_code": "10621",
    "village": "SAYUR MATINGGI",
    "postal_code": "21187"
  },
  {
    "village_code": "10674",
    "village": "SEI MERBOU",
    "postal_code": "21187"
  },
  {
    "village_code": "11504",
    "village": "SIRINGAN RINGAN",
    "postal_code": "21187"
  },
  {
    "village_code": "11667",
    "village": "SORDANG BOLON",
    "postal_code": "21187"
  },
  {
    "village_code": "12007",
    "village": "TANJUNG RAPUAN",
    "postal_code": "21187"
  },
  {
    "village_code": "12077",
    "village": "TARATAK NAGODANG",
    "postal_code": "21187"
  },
  {
    "village_code": "12140",
    "village": "TELUK TAPIAN",
    "postal_code": "21187"
  },
  {
    "village_code": "12199",
    "village": "TINJOAN (TINJOWAN)",
    "postal_code": "21187"
  },
  {
    "village_code": "12333",
    "village": "UJUNG PADANG",
    "postal_code": "21187"
  }
]