[
  {
    "village_code": "6715",
    "village": "BAH BOLON",
    "postal_code": "21162"
  },
  {
    "village_code": "6746",
    "village": "BAHAPAL RAYA",
    "postal_code": "21162"
  },
  {
    "village_code": "7339",
    "village": "DALIG RAYA",
    "postal_code": "21162"
  },
  {
    "village_code": "7391",
    "village": "DOLOK HULUAN",
    "postal_code": "21162"
  },
  {
    "village_code": "9132",
    "village": "MEREK RAYA",
    "postal_code": "21162"
  },
  {
    "village_code": "10052",
    "village": "PEMATANG RAYA",
    "postal_code": "21162"
  },
  {
    "village_code": "10426",
    "village": "RAYA BAYU",
    "postal_code": "21162"
  },
  {
    "village_code": "10427",
    "village": "RAYA HULUAN",
    "postal_code": "21162"
  },
  {
    "village_code": "10428",
    "village": "RAYA USANG",
    "postal_code": "21162"
  },
  {
    "village_code": "11484",
    "village": "SIPORKAS",
    "postal_code": "21162"
  },
  {
    "village_code": "11659",
    "village": "SONDI RAYA",
    "postal_code": "21162"
  }
]