[
  {
    "village_code": "6868",
    "village": "BANGUN PANE",
    "postal_code": "21163"
  },
  {
    "village_code": "7295",
    "village": "BUTU BAYU PANEI RAJA",
    "postal_code": "21163"
  },
  {
    "village_code": "7425",
    "village": "DOLOK SARIBU",
    "postal_code": "21163"
  },
  {
    "village_code": "9788",
    "village": "PARIK SABUNGAN",
    "postal_code": "21163"
  },
  {
    "village_code": "9799",
    "village": "PARJALANGAN",
    "postal_code": "21163"
  },
  {
    "village_code": "10942",
    "village": "SIBUNTUON",
    "postal_code": "21163"
  },
  {
    "village_code": "11150",
    "village": "SILABAH JAYA",
    "postal_code": "21163"
  },
  {
    "village_code": "11368",
    "village": "SINAMAN LABAH",
    "postal_code": "21163"
  },
  {
    "village_code": "11512",
    "village": "SIRUBE-RUBE GUNUNG PURBA",
    "postal_code": "21163"
  },
  {
    "village_code": "12185",
    "village": "TIGARAS",
    "postal_code": "21163"
  },
  {
    "village_code": "12224",
    "village": "TOGU DOMU NAULI",
    "postal_code": "21163"
  }
]