[
  {
    "village_code": "69035",
    "village": "AERE",
    "postal_code": "93573"
  },
  {
    "village_code": "69047",
    "village": "ALADADIO",
    "postal_code": "93573"
  },
  {
    "village_code": "69167",
    "village": "ATOLANU",
    "postal_code": "93573"
  },
  {
    "village_code": "69176",
    "village": "AWIU",
    "postal_code": "93573"
  },
  {
    "village_code": "69325",
    "village": "BOU",
    "postal_code": "93573"
  },
  {
    "village_code": "69430",
    "village": "INOTU",
    "postal_code": "93573"
  },
  {
    "village_code": "69434",
    "village": "IWOIMEA JAYA",
    "postal_code": "93573"
  },
  {
    "village_code": "69436",
    "village": "IWOIMENGGURA",
    "postal_code": "93573"
  },
  {
    "village_code": "69713",
    "village": "LALOLERE",
    "postal_code": "93573"
  },
  {
    "village_code": "69757",
    "village": "LAMBANDIA",
    "postal_code": "93573"
  },
  {
    "village_code": "69972",
    "village": "LERE JAYA",
    "postal_code": "93573"
  },
  {
    "village_code": "70009",
    "village": "LOWA",
    "postal_code": "93573"
  },
  {
    "village_code": "70154",
    "village": "MOKUPA",
    "postal_code": "93573"
  },
  {
    "village_code": "70321",
    "village": "PEKOREA",
    "postal_code": "93573"
  },
  {
    "village_code": "70326",
    "village": "PENANGGO JAYA",
    "postal_code": "93573"
  },
  {
    "village_code": "70327",
    "village": "PENANGGOOSI",
    "postal_code": "93573"
  },
  {
    "village_code": "70366",
    "village": "POMBUREA",
    "postal_code": "93573"
  },
  {
    "village_code": "70693",
    "village": "TAORE",
    "postal_code": "93573"
  },
  {
    "village_code": "70759",
    "village": "TINETE",
    "postal_code": "93573"
  },
  {
    "village_code": "71137",
    "village": "WONUAMBUTEO",
    "postal_code": "93573"
  }
]