[
  {
    "village_code": "69129",
    "village": "ANGGALOOSI",
    "postal_code": "93573"
  },
  {
    "village_code": "69169",
    "village": "ATULA",
    "postal_code": "93573"
  },
  {
    "village_code": "69361",
    "village": "DANGIA",
    "postal_code": "93573"
  },
  {
    "village_code": "69404",
    "village": "GUNUNG JAYA",
    "postal_code": "93573"
  },
  {
    "village_code": "69645",
    "village": "LADONGI (JAYA)",
    "postal_code": "93573"
  },
  {
    "village_code": "69740",
    "village": "LALOWOSULA / LALOWOSUKA",
    "postal_code": "93573"
  },
  {
    "village_code": "69958",
    "village": "LEMBAH SUBUR",
    "postal_code": "93573"
  },
  {
    "village_code": "70365",
    "village": "POMBEYOHA",
    "postal_code": "93573"
  },
  {
    "village_code": "70420",
    "village": "PUTEMATA",
    "postal_code": "93573"
  },
  {
    "village_code": "70510",
    "village": "RARAA",
    "postal_code": "93573"
  },
  {
    "village_code": "70968",
    "village": "WANDE",
    "postal_code": "93573"
  },
  {
    "village_code": "71105",
    "village": "WELALA",
    "postal_code": "93573"
  },
  {
    "village_code": "71158",
    "village": "WUNGGOLOKO / WUNGGOLOLEO",
    "postal_code": "93573"
  }
]