[
  {
    "village_code": "69373",
    "village": "DONGGALA",
    "postal_code": "93552"
  },
  {
    "village_code": "69435",
    "village": "IWOIMENDA",
    "postal_code": "93552"
  },
  {
    "village_code": "69437",
    "village": "IWOIMOPURO",
    "postal_code": "93552"
  },
  {
    "village_code": "69643",
    "village": "LADAHAI",
    "postal_code": "93552"
  },
  {
    "village_code": "69717",
    "village": "LALONAHA",
    "postal_code": "93552"
  },
  {
    "village_code": "69726",
    "village": "LALONGGOPI",
    "postal_code": "93552"
  },
  {
    "village_code": "69765",
    "village": "LAMBOPINI",
    "postal_code": "93552"
  },
  {
    "village_code": "69814",
    "village": "LANA",
    "postal_code": "93552"
  },
  {
    "village_code": "69835",
    "village": "LANGGOMALI",
    "postal_code": "93552"
  },
  {
    "village_code": "69874",
    "village": "LAPAO-PAO",
    "postal_code": "93552"
  },
  {
    "village_code": "69906",
    "village": "LASIROKU",
    "postal_code": "93552"
  },
  {
    "village_code": "70191",
    "village": "MUARA LAPAO PAO",
    "postal_code": "93552"
  },
  {
    "village_code": "70545",
    "village": "SAMAENRE",
    "postal_code": "93552"
  },
  {
    "village_code": "70661",
    "village": "TAMBORASI",
    "postal_code": "93552"
  },
  {
    "village_code": "70801",
    "village": "TOLOWE PONDRE",
    "postal_code": "93552"
  },
  {
    "village_code": "70866",
    "village": "ULU KALO",
    "postal_code": "93552"
  },
  {
    "village_code": "70869",
    "village": "ULU LAPAO-PAO",
    "postal_code": "93552"
  },
  {
    "village_code": "70876",
    "village": "ULU WOLO",
    "postal_code": "93552"
  },
  {
    "village_code": "71120",
    "village": "WOLO",
    "postal_code": "93552"
  }
]