[
  {
    "village_code": "69407",
    "village": "GUNUNG SARI",
    "postal_code": "93563"
  },
  {
    "village_code": "69521",
    "village": "KASTURA",
    "postal_code": "93563"
  },
  {
    "village_code": "69598",
    "village": "KUKUTIO",
    "postal_code": "93563"
  },
  {
    "village_code": "69812",
    "village": "LAMUNDE",
    "postal_code": "93563"
  },
  {
    "village_code": "70006",
    "village": "LONGGOSIPI",
    "postal_code": "93563"
  },
  {
    "village_code": "70076",
    "village": "MATA OSU",
    "postal_code": "93563"
  },
  {
    "village_code": "70330",
    "village": "PEOHO",
    "postal_code": "93563"
  },
  {
    "village_code": "70353",
    "village": "POLENGA (TIRAWUTA)",
    "postal_code": "93563"
  },
  {
    "village_code": "70635",
    "village": "SUMBER REZEKI",
    "postal_code": "93563"
  },
  {
    "village_code": "70671",
    "village": "TANDEBURA (TANDAI BURA)",
    "postal_code": "93563"
  },
  {
    "village_code": "71029",
    "village": "WATUBANGGO",
    "postal_code": "93563"
  },
  {
    "village_code": "71123",
    "village": "WOLULU",
    "postal_code": "93563"
  }
]