[
  {
    "village_code": "69703",
    "village": "LALINGATO",
    "postal_code": "93572"
  },
  {
    "village_code": "69890",
    "village": "LARA",
    "postal_code": "93572"
  },
  {
    "village_code": "69998",
    "village": "LOKA",
    "postal_code": "93572"
  },
  {
    "village_code": "70252",
    "village": "ORAWA",
    "postal_code": "93572"
  },
  {
    "village_code": "70377",
    "village": "PONI PONIKI",
    "postal_code": "93572"
  },
  {
    "village_code": "70513",
    "village": "RATE-RATE",
    "postal_code": "93572"
  },
  {
    "village_code": "70521",
    "village": "ROKO ROKO",
    "postal_code": "93572"
  },
  {
    "village_code": "70605",
    "village": "SIMBUNE",
    "postal_code": "93572"
  },
  {
    "village_code": "70704",
    "village": "TASAEHA / TASAHEA",
    "postal_code": "93572"
  },
  {
    "village_code": "70709",
    "village": "TAWAINALU",
    "postal_code": "93572"
  },
  {
    "village_code": "70770",
    "village": "TIRAWUTA",
    "postal_code": "93572"
  },
  {
    "village_code": "70852",
    "village": "TUMBUDADIO",
    "postal_code": "93572"
  },
  {
    "village_code": "71115",
    "village": "WOIHA",
    "postal_code": "93572"
  }
]