[
  {
    "village_code": "54",
    "village": "ALUE BAROH",
    "postal_code": "24393"
  },
  {
    "village_code": "88",
    "village": "ALUE CAMPLI",
    "postal_code": "24393"
  },
  {
    "village_code": "158",
    "village": "ALUE KIRAN",
    "postal_code": "24393"
  },
  {
    "village_code": "537",
    "village": "BANTAYAN",
    "postal_code": "24393"
  },
  {
    "village_code": "936",
    "village": "BLANG PHA",
    "postal_code": "24393"
  },
  {
    "village_code": "1003",
    "village": "BLANG TUE",
    "postal_code": "24393"
  },
  {
    "village_code": "1313",
    "village": "COT KAFIRATON (KAPIRATON)",
    "postal_code": "24393"
  },
  {
    "village_code": "1395",
    "village": "COT PATISAH",
    "postal_code": "24393"
  },
  {
    "village_code": "1441",
    "village": "COT TRUENG",
    "postal_code": "24393"
  },
  {
    "village_code": "1505",
    "village": "DARUL AMAN",
    "postal_code": "24393"
  },
  {
    "village_code": "2458",
    "village": "KEUDE SIMPANG JALAN",
    "postal_code": "24393"
  },
  {
    "village_code": "3339",
    "village": "LHOK GEULITUET (GEULETUET)",
    "postal_code": "24393"
  },
  {
    "village_code": "3382",
    "village": "LHOK PUUK",
    "postal_code": "24393"
  },
  {
    "village_code": "3383",
    "village": "LHOK RAMBIDENG",
    "postal_code": "24393"
  },
  {
    "village_code": "3544",
    "village": "MANE KAWAN",
    "postal_code": "24393"
  },
  {
    "village_code": "3582",
    "village": "MATANG ANOU",
    "postal_code": "24393"
  },
  {
    "village_code": "3608",
    "village": "MATANG JEULIKAT",
    "postal_code": "24393"
  },
  {
    "village_code": "3612",
    "village": "MATANG KARIENG",
    "postal_code": "24393"
  },
  {
    "village_code": "3626",
    "village": "MATANG LADA",
    "postal_code": "24393"
  },
  {
    "village_code": "3644",
    "village": "MATANG PANYANG",
    "postal_code": "24393"
  },
  {
    "village_code": "3654",
    "village": "MATANG PUNTONG",
    "postal_code": "24393"
  },
  {
    "village_code": "4016",
    "village": "MEUNASAH SAGOU / SAGOE",
    "postal_code": "24393"
  },
  {
    "village_code": "4073",
    "village": "MEUREUBO / MEUREBO PUNTONG",
    "postal_code": "24393"
  },
  {
    "village_code": "4599",
    "village": "PAYA DUA UJONG",
    "postal_code": "24393"
  },
  {
    "village_code": "4600",
    "village": "PAYA DUA URAM",
    "postal_code": "24393"
  },
  {
    "village_code": "5614",
    "village": "SIMPANG PEUT",
    "postal_code": "24393"
  },
  {
    "village_code": "5850",
    "village": "TANJONG DAMA",
    "postal_code": "24393"
  },
  {
    "village_code": "5876",
    "village": "TANJONG PINEUNG",
    "postal_code": "24393"
  },
  {
    "village_code": "6061",
    "village": "TEUPIN KUYUN",
    "postal_code": "24393"
  },
  {
    "village_code": "6351",
    "village": "ULEE MATANG",
    "postal_code": "24393"
  },
  {
    "village_code": "6364",
    "village": "ULEE RUBEK BARAT",
    "postal_code": "24393"
  },
  {
    "village_code": "6365",
    "village": "ULEE RUBEK TIMUR",
    "postal_code": "24393"
  },
  {
    "village_code": "6368",
    "village": "ULEE TITI",
    "postal_code": "24393"
  }
]