[
  {
    "village_code": "108",
    "village": "ALUE ENTOK",
    "postal_code": "24386"
  },
  {
    "village_code": "251",
    "village": "ALUE THO",
    "postal_code": "24386"
  },
  {
    "village_code": "331",
    "village": "ARON GLUMPANG VII",
    "postal_code": "24386"
  },
  {
    "village_code": "333",
    "village": "ARON PIRAK",
    "postal_code": "24386"
  },
  {
    "village_code": "557",
    "village": "BARO",
    "postal_code": "24386"
  },
  {
    "village_code": "654",
    "village": "BEURANCAN PIRAK",
    "postal_code": "24386"
  },
  {
    "village_code": "679",
    "village": "BEURINGIN",
    "postal_code": "24386"
  },
  {
    "village_code": "862",
    "village": "BLANG KUTA",
    "postal_code": "24386"
  },
  {
    "village_code": "889",
    "village": "BLANG MATANGKULI",
    "postal_code": "24386"
  },
  {
    "village_code": "987",
    "village": "BLANG SUPENG",
    "postal_code": "24386"
  },
  {
    "village_code": "1218",
    "village": "CEUBREUK PIRAK",
    "postal_code": "24386"
  },
  {
    "village_code": "1529",
    "village": "DAYAH BARO",
    "postal_code": "24386"
  },
  {
    "village_code": "1934",
    "village": "GLUMPANG VII",
    "postal_code": "24386"
  },
  {
    "village_code": "2018",
    "village": "HAGU",
    "postal_code": "24386"
  },
  {
    "village_code": "2161",
    "village": "JEUMPA GLUMPANG VII",
    "postal_code": "24386"
  },
  {
    "village_code": "2444",
    "village": "KEUDE MATANGKULI",
    "postal_code": "24386"
  },
  {
    "village_code": "2728",
    "village": "KUNYET MULE",
    "postal_code": "24386"
  },
  {
    "village_code": "3172",
    "village": "LAWANG",
    "postal_code": "24386"
  },
  {
    "village_code": "3272",
    "village": "LEUBOK",
    "postal_code": "24386"
  },
  {
    "village_code": "3632",
    "village": "MATANG ME",
    "postal_code": "24386"
  },
  {
    "village_code": "3633",
    "village": "MATANG MENYE",
    "postal_code": "24386"
  },
  {
    "village_code": "3649",
    "village": "MATANG PEUSANGAN",
    "postal_code": "24386"
  },
  {
    "village_code": "3720",
    "village": "MEE",
    "postal_code": "24386"
  },
  {
    "village_code": "3787",
    "village": "MESJID PIRAK",
    "postal_code": "24386"
  },
  {
    "village_code": "4079",
    "village": "MEURIYA MATANGKULI",
    "postal_code": "24386"
  },
  {
    "village_code": "4149",
    "village": "MUNYE PIRAK",
    "postal_code": "24386"
  },
  {
    "village_code": "4426",
    "village": "PANTEE PIRAK",
    "postal_code": "24386"
  },
  {
    "village_code": "4470",
    "village": "PARANG SIKUREUNG",
    "postal_code": "24386"
  },
  {
    "village_code": "5016",
    "village": "PUNTI GLUMPANG VII",
    "postal_code": "24386"
  },
  {
    "village_code": "5017",
    "village": "PUNTI MATANG KULI",
    "postal_code": "24386"
  },
  {
    "village_code": "5018",
    "village": "PUNTI MATANGKULI",
    "postal_code": "24386"
  },
  {
    "village_code": "5133",
    "village": "RAYEUK MATANGKULI",
    "postal_code": "24386"
  },
  {
    "village_code": "5138",
    "village": "RAYEUK PIRAK",
    "postal_code": "24386"
  },
  {
    "village_code": "5543",
    "village": "SEURIWEUK",
    "postal_code": "24386"
  },
  {
    "village_code": "5646",
    "village": "SIREN",
    "postal_code": "24386"
  },
  {
    "village_code": "5839",
    "village": "TANJONG BABAH KRUENG",
    "postal_code": "24386"
  },
  {
    "village_code": "5854",
    "village": "TANJONG HAJI MUDA",
    "postal_code": "24386"
  },
  {
    "village_code": "5884",
    "village": "TANJONG TEUNGKU ALI",
    "postal_code": "24386"
  },
  {
    "village_code": "6027",
    "village": "TEUNGOH GLUMPANG VII",
    "postal_code": "24386"
  },
  {
    "village_code": "6034",
    "village": "TEUNGOH PIRAK",
    "postal_code": "24386"
  },
  {
    "village_code": "6036",
    "village": "TEUNGOH SEULEUMAK",
    "postal_code": "24386"
  },
  {
    "village_code": "6059",
    "village": "TEUPIN KEUBUE",
    "postal_code": "24386"
  },
  {
    "village_code": "6110",
    "village": "TJ. TEUNGKU KARI",
    "postal_code": "24386"
  },
  {
    "village_code": "6130",
    "village": "TRIENG TEUPIN KEUBUE",
    "postal_code": "24386"
  },
  {
    "village_code": "6168",
    "village": "TUMPOK BARAT",
    "postal_code": "24386"
  },
  {
    "village_code": "6174",
    "village": "TUMPOK PERLAK",
    "postal_code": "24386"
  },
  {
    "village_code": "6204",
    "village": "TUTONG",
    "postal_code": "24386"
  },
  {
    "village_code": "6223",
    "village": "UDE",
    "postal_code": "24386"
  },
  {
    "village_code": "6244",
    "village": "UJONG KULAM",
    "postal_code": "24386"
  }
]