[
  {
    "village_code": "25321",
    "village": "BABAKAN",
    "postal_code": "40381"
  },
  {
    "village_code": "25702",
    "village": "BUMIWANGI",
    "postal_code": "40381"
  },
  {
    "village_code": "26176",
    "village": "CIHEULANG",
    "postal_code": "40381"
  },
  {
    "village_code": "26359",
    "village": "CIKONENG",
    "postal_code": "40381"
  },
  {
    "village_code": "26645",
    "village": "CIPARAY",
    "postal_code": "40381"
  },
  {
    "village_code": "27223",
    "village": "GUNUNGLEUTIK",
    "postal_code": "40381"
  },
  {
    "village_code": "28441",
    "village": "MANGGUNGHARJA",
    "postal_code": "40381"
  },
  {
    "village_code": "28561",
    "village": "MEKAR LAKSANA",
    "postal_code": "40381"
  },
  {
    "village_code": "28681",
    "village": "MEKARSARI",
    "postal_code": "40381"
  },
  {
    "village_code": "29046",
    "village": "PAKUTANDANG",
    "postal_code": "40381"
  },
  {
    "village_code": "29743",
    "village": "SARIMAHI",
    "postal_code": "40381"
  },
  {
    "village_code": "29829",
    "village": "SERANGMEKAR",
    "postal_code": "40381"
  },
  {
    "village_code": "29873",
    "village": "SIGARACIPTA",
    "postal_code": "40381"
  },
  {
    "village_code": "30641",
    "village": "SUMBERSARI",
    "postal_code": "40381"
  }
]