[
  {
    "village_code": "26308",
    "village": "CIKAWAO",
    "postal_code": "40385"
  },
  {
    "village_code": "26345",
    "village": "CIKITU",
    "postal_code": "40385"
  },
  {
    "village_code": "26538",
    "village": "CINANGGELA",
    "postal_code": "40385"
  },
  {
    "village_code": "26683",
    "village": "CIPEUJEUH",
    "postal_code": "40385"
  },
  {
    "village_code": "27162",
    "village": "GIRIMULYA",
    "postal_code": "40385"
  },
  {
    "village_code": "28412",
    "village": "MANDALAHAJI",
    "postal_code": "40385"
  },
  {
    "village_code": "28544",
    "village": "MARUYUNG",
    "postal_code": "40385"
  },
  {
    "village_code": "28619",
    "village": "MEKARJAYA",
    "postal_code": "40385"
  },
  {
    "village_code": "28695",
    "village": "MEKARSARI",
    "postal_code": "40385"
  },
  {
    "village_code": "28830",
    "village": "NAGRAK",
    "postal_code": "40385"
  },
  {
    "village_code": "29141",
    "village": "PANGAUBAN",
    "postal_code": "40385"
  },
  {
    "village_code": "30500",
    "village": "SUKARAME",
    "postal_code": "40385"
  },
  {
    "village_code": "30839",
    "village": "TANJUNGWANGI",
    "postal_code": "40385"
  }
]