[
  {
    "village_code": "69083",
    "village": "AMOHOLA",
    "postal_code": "93891"
  },
  {
    "village_code": "69204",
    "village": "BAKUTARU",
    "postal_code": "93891"
  },
  {
    "village_code": "69294",
    "village": "BISIKORI",
    "postal_code": "93891"
  },
  {
    "village_code": "69691",
    "village": "LAKOMEA",
    "postal_code": "93891"
  },
  {
    "village_code": "69764",
    "village": "LAMBOO",
    "postal_code": "93891"
  },
  {
    "village_code": "69818",
    "village": "LANDIPO",
    "postal_code": "93891"
  },
  {
    "village_code": "69885",
    "village": "LAPUKO",
    "postal_code": "93891"
  },
  {
    "village_code": "70047",
    "village": "MARGA CINTA",
    "postal_code": "93891"
  },
  {
    "village_code": "70176",
    "village": "MORAMO",
    "postal_code": "93891"
  },
  {
    "village_code": "70325",
    "village": "PENAMBEA BARATA",
    "postal_code": "93891"
  },
  {
    "village_code": "70395",
    "village": "PUDARIA JAYA",
    "postal_code": "93891"
  },
  {
    "village_code": "70500",
    "village": "RANOOHA RAYA",
    "postal_code": "93891"
  },
  {
    "village_code": "70590",
    "village": "SELABANGGA",
    "postal_code": "93891"
  },
  {
    "village_code": "70636",
    "village": "SUMBER SARI",
    "postal_code": "93891"
  },
  {
    "village_code": "70662",
    "village": "TAMBOSUPA",
    "postal_code": "93891"
  },
  {
    "village_code": "70886",
    "village": "ULUSENA",
    "postal_code": "93891"
  },
  {
    "village_code": "71023",
    "village": "WATU PORAMBAA",
    "postal_code": "93891"
  },
  {
    "village_code": "71079",
    "village": "WAWONDENGI",
    "postal_code": "93891"
  },
  {
    "village_code": "71099",
    "village": "WAWOSUNGGU",
    "postal_code": "93891"
  },
  {
    "village_code": "71126",
    "village": "WONUA JAYA",
    "postal_code": "93891"
  }
]