[
  {
    "village_code": "69164",
    "village": "ATARI INDAH",
    "postal_code": "93885"
  },
  {
    "village_code": "69165",
    "village": "ATARI JAYA",
    "postal_code": "93885"
  },
  {
    "village_code": "69506",
    "village": "KAPUWILA",
    "postal_code": "93885"
  },
  {
    "village_code": "69699",
    "village": "LALEMBU JAYA",
    "postal_code": "93885"
  },
  {
    "village_code": "69733",
    "village": "LALOUESAMBA",
    "postal_code": "93885"
  },
  {
    "village_code": "69756",
    "village": "LAMBANDIA",
    "postal_code": "93885"
  },
  {
    "village_code": "69762",
    "village": "LAMBODI JAYA",
    "postal_code": "93885"
  },
  {
    "village_code": "70142",
    "village": "MERONGGA RAYA",
    "postal_code": "93885"
  },
  {
    "village_code": "70153",
    "village": "MOKUPA JAYA (MAKUPA JAYA)",
    "postal_code": "93885"
  },
  {
    "village_code": "70170",
    "village": "MONDOKE (MANDOKE)",
    "postal_code": "93885"
  },
  {
    "village_code": "70261",
    "village": "PADALEU",
    "postal_code": "93885"
  },
  {
    "village_code": "70386",
    "village": "POTUHO JAYA",
    "postal_code": "93885"
  },
  {
    "village_code": "70441",
    "village": "PUUNANGGA",
    "postal_code": "93885"
  },
  {
    "village_code": "70455",
    "village": "PUUREMA SUBUR",
    "postal_code": "93885"
  },
  {
    "village_code": "70626",
    "village": "SUKA MUKTI",
    "postal_code": "93885"
  },
  {
    "village_code": "70634",
    "village": "SUMBER JAYA",
    "postal_code": "93885"
  },
  {
    "village_code": "70741",
    "village": "TETEINEA JAYA",
    "postal_code": "93885"
  },
  {
    "village_code": "70805",
    "village": "TOMBELEU",
    "postal_code": "93885"
  }
]