[
  {
    "village_code": "69173",
    "village": "AWALO",
    "postal_code": "93875"
  },
  {
    "village_code": "69286",
    "village": "BENUA",
    "postal_code": "93875"
  },
  {
    "village_code": "69284",
    "village": "BENUA UTAMA",
    "postal_code": "93875"
  },
  {
    "village_code": "69419",
    "village": "HORODOPI",
    "postal_code": "93875"
  },
  {
    "village_code": "69591",
    "village": "KOSAMBI",
    "postal_code": "93875"
  },
  {
    "village_code": "69750",
    "village": "LAMARA",
    "postal_code": "93875"
  },
  {
    "village_code": "70279",
    "village": "PALAWEWU (PALOWEWU)",
    "postal_code": "93875"
  },
  {
    "village_code": "70412",
    "village": "PUOSU (PUUOSU)",
    "postal_code": "93875"
  },
  {
    "village_code": "70448",
    "village": "PUUNGGAWU KAWU (PUNGGAWUKAWU)",
    "postal_code": "93875"
  },
  {
    "village_code": "70467",
    "village": "PUUWEHUKO",
    "postal_code": "93875"
  },
  {
    "village_code": "70739",
    "village": "TETEHAKA",
    "postal_code": "93875"
  },
  {
    "village_code": "70859",
    "village": "UELAWA",
    "postal_code": "93875"
  }
]