[
  {
    "village_code": "69355",
    "village": "CEMPEDAK",
    "postal_code": "93892"
  },
  {
    "village_code": "69576",
    "village": "KONDONO",
    "postal_code": "93892"
  },
  {
    "village_code": "69628",
    "village": "LABOTAONE",
    "postal_code": "93892"
  },
  {
    "village_code": "69631",
    "village": "LABUAN BEROPA",
    "postal_code": "93892"
  },
  {
    "village_code": "69861",
    "village": "LAONTI",
    "postal_code": "93892"
  },
  {
    "village_code": "69942",
    "village": "LAWISATA",
    "postal_code": "93892"
  },
  {
    "village_code": "70025",
    "village": "MALARINGGI",
    "postal_code": "93892"
  },
  {
    "village_code": "70066",
    "village": "MATA BONDU",
    "postal_code": "93892"
  },
  {
    "village_code": "70203",
    "village": "NAMU",
    "postal_code": "93892"
  },
  {
    "village_code": "70329",
    "village": "PEO INDAH",
    "postal_code": "93892"
  },
  {
    "village_code": "70428",
    "village": "PUUDIRANGGA (PUUNDIRANGGA)",
    "postal_code": "93892"
  },
  {
    "village_code": "70531",
    "village": "RUMBIA RUMBIA",
    "postal_code": "93892"
  },
  {
    "village_code": "70562",
    "village": "SANGI-SANGI",
    "postal_code": "93892"
  },
  {
    "village_code": "70657",
    "village": "TAMBEANGA",
    "postal_code": "93892"
  },
  {
    "village_code": "70660",
    "village": "TAMBOLOSU",
    "postal_code": "93892"
  },
  {
    "village_code": "70848",
    "village": "TUE TUE",
    "postal_code": "93892"
  },
  {
    "village_code": "70873",
    "village": "ULU SAWA",
    "postal_code": "93892"
  },
  {
    "village_code": "70966",
    "village": "WANDAEHA",
    "postal_code": "93892"
  },
  {
    "village_code": "71046",
    "village": "WATUNDOLU (BATU JAYA)",
    "postal_code": "93892"
  },
  {
    "village_code": "71139",
    "village": "WORU WORU",
    "postal_code": "93892"
  }
]