[
  {
    "village_code": "55331",
    "village": "BATA LUAR",
    "postal_code": "79674"
  },
  {
    "village_code": "55339",
    "village": "BATU BEGIGI",
    "postal_code": "79674"
  },
  {
    "village_code": "55428",
    "village": "BINA JAYA",
    "postal_code": "79674"
  },
  {
    "village_code": "55429",
    "village": "BINA KARYA",
    "postal_code": "79674"
  },
  {
    "village_code": "55756",
    "village": "KERANJIK",
    "postal_code": "79674"
  },
  {
    "village_code": "55877",
    "village": "LOKA JAYA",
    "postal_code": "79674"
  },
  {
    "village_code": "55894",
    "village": "MADONG RAYA",
    "postal_code": "79674"
  },
  {
    "village_code": "55930",
    "village": "MARIS PERMAI",
    "postal_code": "79674"
  },
  {
    "village_code": "56326",
    "village": "PELITA KANAYA",
    "postal_code": "79674"
  },
  {
    "village_code": "56914",
    "village": "SUKA MAJU",
    "postal_code": "79674"
  },
  {
    "village_code": "56994",
    "village": "TANJUNG BERINGIN RAYA",
    "postal_code": "79674"
  },
  {
    "village_code": "57005",
    "village": "TANJUNG GUNUNG",
    "postal_code": "79674"
  }
]