[
  {
    "village_code": "12399",
    "village": "AIA AMO",
    "postal_code": "27572"
  },
  {
    "village_code": "12704",
    "village": "KAMANG",
    "postal_code": "27572"
  },
  {
    "village_code": "12861",
    "village": "KUNANGAN PARIK RANTANG",
    "postal_code": "27572"
  },
  {
    "village_code": "12937",
    "village": "LUBUK TARANTANG",
    "postal_code": "27572"
  },
  {
    "village_code": "12973",
    "village": "MALORO",
    "postal_code": "27572"
  },
  {
    "village_code": "13008",
    "village": "MUARO TAKUANG",
    "postal_code": "27572"
  },
  {
    "village_code": "13056",
    "village": "PADANG TAROK",
    "postal_code": "27572"
  },
  {
    "village_code": "13251",
    "village": "SIAUR",
    "postal_code": "27572"
  },
  {
    "village_code": "13351",
    "village": "SUNGAI BATUANG",
    "postal_code": "27572"
  },
  {
    "village_code": "13366",
    "village": "SUNGAI LANSEK",
    "postal_code": "27572"
  },
  {
    "village_code": "13469",
    "village": "TANJUNG KALIANG",
    "postal_code": "27572"
  }
]