[
  {
    "village_code": "12859",
    "village": "KUMANIS",
    "postal_code": "27563"
  },
  {
    "village_code": "12975",
    "village": "MANGGANTI",
    "postal_code": "27563"
  },
  {
    "village_code": "13277",
    "village": "SILANTAI",
    "postal_code": "27563"
  },
  {
    "village_code": "13321",
    "village": "SISAWAH",
    "postal_code": "27563"
  },
  {
    "village_code": "13343",
    "village": "SUMPUR KUDUS",
    "postal_code": "27563"
  },
  {
    "village_code": "13342",
    "village": "SUMPUR KUDUS SELATAN",
    "postal_code": "27563"
  },
  {
    "village_code": "13439",
    "village": "TAMPARUNGO",
    "postal_code": "27563"
  },
  {
    "village_code": "13451",
    "village": "TANJUANG LABUAH",
    "postal_code": "27563"
  },
  {
    "village_code": "13466",
    "village": "TANJUNG BONAI AUR",
    "postal_code": "27563"
  },
  {
    "village_code": "13465",
    "village": "TANJUNG BONAI AUR SELATAN",
    "postal_code": "27563"
  },
  {
    "village_code": "13539",
    "village": "UNGGAN",
    "postal_code": "27563"
  }
]