[
  {
    "village_code": "40202",
    "village": "AKKOR",
    "postal_code": "69362"
  },
  {
    "village_code": "40261",
    "village": "ANGSANAH",
    "postal_code": "69362"
  },
  {
    "village_code": "40693",
    "village": "BANYUPELLE",
    "postal_code": "69362"
  },
  {
    "village_code": "42635",
    "village": "KACOK",
    "postal_code": "69362"
  },
  {
    "village_code": "44073",
    "village": "LARANGAN BADUNG",
    "postal_code": "69362"
  },
  {
    "village_code": "45250",
    "village": "PALENGAAN DAJA",
    "postal_code": "69362"
  },
  {
    "village_code": "45251",
    "village": "PALENGAAN LAOK",
    "postal_code": "69362"
  },
  {
    "village_code": "45271",
    "village": "PANAAN",
    "postal_code": "69362"
  },
  {
    "village_code": "45865",
    "village": "POTOAN DAJA",
    "postal_code": "69362"
  },
  {
    "village_code": "45866",
    "village": "POTOAN LAOK",
    "postal_code": "69362"
  },
  {
    "village_code": "46203",
    "village": "REK KERREK",
    "postal_code": "69362"
  },
  {
    "village_code": "46244",
    "village": "ROMBUH",
    "postal_code": "69362"
  }
]