[
  {
    "village_code": "40233",
    "village": "AMBENDER",
    "postal_code": "69361"
  },
  {
    "village_code": "41202",
    "village": "BULANGAN BARAT",
    "postal_code": "69361"
  },
  {
    "village_code": "41203",
    "village": "BULANGAN BRANTA",
    "postal_code": "69361"
  },
  {
    "village_code": "41204",
    "village": "BULANGAN HAJI",
    "postal_code": "69361"
  },
  {
    "village_code": "41205",
    "village": "BULANGAN TIMUR",
    "postal_code": "69361"
  },
  {
    "village_code": "45254",
    "village": "PALESANGGAR",
    "postal_code": "69361"
  },
  {
    "village_code": "45438",
    "village": "PASANGGAR",
    "postal_code": "69361"
  },
  {
    "village_code": "45521",
    "village": "PEGANTENAN (PAGANTENAN)",
    "postal_code": "69361"
  },
  {
    "village_code": "45710",
    "village": "PLAKPAK",
    "postal_code": "69361"
  },
  {
    "village_code": "47852",
    "village": "TANJUNG",
    "postal_code": "69361"
  },
  {
    "village_code": "47939",
    "village": "TEBUL BARAT",
    "postal_code": "69361"
  },
  {
    "village_code": "47940",
    "village": "TEBUL TIMUR",
    "postal_code": "69361"
  },
  {
    "village_code": "48140",
    "village": "TLAGAH (TALAGAH)",
    "postal_code": "69361"
  }
]