[
  {
    "village_code": "40336",
    "village": "BADDURIH",
    "postal_code": "69323"
  },
  {
    "village_code": "40735",
    "village": "BARURAMBAT TIMUR",
    "postal_code": "69321"
  },
  {
    "village_code": "41162",
    "village": "BUDAGAN (BUDDAGAN)",
    "postal_code": "69323"
  },
  {
    "village_code": "41165",
    "village": "BUDDIH",
    "postal_code": "69323"
  },
  {
    "village_code": "41273",
    "village": "BUNDER",
    "postal_code": "69323"
  },
  {
    "village_code": "41536",
    "village": "DASOK",
    "postal_code": "69323"
  },
  {
    "village_code": "41708",
    "village": "DURBUK",
    "postal_code": "69323"
  },
  {
    "village_code": "42346",
    "village": "JARIN",
    "postal_code": "69323"
  },
  {
    "village_code": "44097",
    "village": "LAWANGAN DAYA",
    "postal_code": "69323"
  },
  {
    "village_code": "44150",
    "village": "LEMPER",
    "postal_code": "69323"
  },
  {
    "village_code": "44264",
    "village": "MAJUNGAN",
    "postal_code": "69323"
  },
  {
    "village_code": "44720",
    "village": "MURTAJIH",
    "postal_code": "69323"
  },
  {
    "village_code": "45125",
    "village": "PADELEGAN (PEDELEGAN)",
    "postal_code": "69323"
  },
  {
    "village_code": "45126",
    "village": "PADEMAWU BARAT",
    "postal_code": "69323"
  },
  {
    "village_code": "45127",
    "village": "PADEMAWU TIMUR",
    "postal_code": "69323"
  },
  {
    "village_code": "45137",
    "village": "PAGAGAN",
    "postal_code": "69323"
  },
  {
    "village_code": "45898",
    "village": "PREKBUN",
    "postal_code": "69323"
  },
  {
    "village_code": "46657",
    "village": "SENTOL",
    "postal_code": "69323"
  },
  {
    "village_code": "47008",
    "village": "SOPA\\AH",
    "postal_code": "69323"
  },
  {
    "village_code": "47532",
    "village": "SUMEDANGAN",
    "postal_code": "69323"
  },
  {
    "village_code": "47768",
    "village": "TAMBUNG",
    "postal_code": "69323"
  },
  {
    "village_code": "47849",
    "village": "TANJUNG",
    "postal_code": "69323"
  }
]