[
  {
    "village_code": "40371",
    "village": "BAJUR",
    "postal_code": "69353"
  },
  {
    "village_code": "46100",
    "village": "RAGANG",
    "postal_code": "69353"
  },
  {
    "village_code": "46357",
    "village": "SANA LAOK",
    "postal_code": "69353"
  },
  {
    "village_code": "47320",
    "village": "SUMBER WARU",
    "postal_code": "69353"
  },
  {
    "village_code": "47773",
    "village": "TAMPOJUNG GUWA",
    "postal_code": "69353"
  },
  {
    "village_code": "47774",
    "village": "TAMPOJUNG PREGI",
    "postal_code": "69353"
  },
  {
    "village_code": "47775",
    "village": "TAMPOJUNG TENGAH",
    "postal_code": "69353"
  },
  {
    "village_code": "47776",
    "village": "TAMPOJUNG TENGGINA",
    "postal_code": "69353"
  },
  {
    "village_code": "47988",
    "village": "TEGANGSER LAOK (TAGANGSER LAOK)",
    "postal_code": "69353"
  },
  {
    "village_code": "48179",
    "village": "TLONTO ARES",
    "postal_code": "69353"
  },
  {
    "village_code": "48410",
    "village": "WARU BARAT",
    "postal_code": "69353"
  },
  {
    "village_code": "48412",
    "village": "WARU TIMUR",
    "postal_code": "69353"
  }
]