[
  {
    "village_code": "31316",
    "village": "BALAMOA",
    "postal_code": "52471"
  },
  {
    "village_code": "31649",
    "village": "BEDUG",
    "postal_code": "52471"
  },
  {
    "village_code": "31843",
    "village": "BOGARES KIDUL",
    "postal_code": "52471"
  },
  {
    "village_code": "31844",
    "village": "BOGARES LOR",
    "postal_code": "52471"
  },
  {
    "village_code": "32386",
    "village": "CURUG",
    "postal_code": "52471"
  },
  {
    "village_code": "32503",
    "village": "DEPOK",
    "postal_code": "52471"
  },
  {
    "village_code": "32513",
    "village": "DERMASANDI",
    "postal_code": "52471"
  },
  {
    "village_code": "32515",
    "village": "DERMASUCI",
    "postal_code": "52471"
  },
  {
    "village_code": "32615",
    "village": "DUKUHJATI KIDUL",
    "postal_code": "52471"
  },
  {
    "village_code": "32626",
    "village": "DUKUHSEMBUNG",
    "postal_code": "52471"
  },
  {
    "village_code": "33092",
    "village": "GROBOG KULON",
    "postal_code": "52471"
  },
  {
    "village_code": "33093",
    "village": "GROBOG WETAN",
    "postal_code": "52471"
  },
  {
    "village_code": "33483",
    "village": "JENGGAWUR",
    "postal_code": "52471"
  },
  {
    "village_code": "33856",
    "village": "KALIKANGKUNG",
    "postal_code": "52471"
  },
  {
    "village_code": "34891",
    "village": "KENDALSERUT",
    "postal_code": "52471"
  },
  {
    "village_code": "36496",
    "village": "PAKETIBAN",
    "postal_code": "52471"
  },
  {
    "village_code": "36610",
    "village": "PANGKAH",
    "postal_code": "52471"
  },
  {
    "village_code": "36752",
    "village": "PECABEAN",
    "postal_code": "52471"
  },
  {
    "village_code": "36874",
    "village": "PENER",
    "postal_code": "52471"
  },
  {
    "village_code": "36915",
    "village": "PENUSUPAN",
    "postal_code": "52471"
  },
  {
    "village_code": "37315",
    "village": "PURBAYASA",
    "postal_code": "52471"
  },
  {
    "village_code": "37430",
    "village": "RANCAWIRU",
    "postal_code": "52471"
  },
  {
    "village_code": "38667",
    "village": "TALOK",
    "postal_code": "52471"
  }
]