[
  {
    "village_code": "31724",
    "village": "BENGLE",
    "postal_code": "52193"
  },
  {
    "village_code": "32220",
    "village": "CANGKRING",
    "postal_code": "52193"
  },
  {
    "village_code": "32453",
    "village": "DAWUHAN",
    "postal_code": "52193"
  },
  {
    "village_code": "32621",
    "village": "DUKUHMALANG",
    "postal_code": "52193"
  },
  {
    "village_code": "32828",
    "village": "GEMBONG KULON",
    "postal_code": "52193"
  },
  {
    "village_code": "32922",
    "village": "GETASKEREP",
    "postal_code": "52193"
  },
  {
    "village_code": "33733",
    "village": "KAJEN",
    "postal_code": "52193"
  },
  {
    "village_code": "33742",
    "village": "KALADAWA",
    "postal_code": "52193"
  },
  {
    "village_code": "33818",
    "village": "KALIGAYAM",
    "postal_code": "52193"
  },
  {
    "village_code": "34519",
    "village": "KEBASEN",
    "postal_code": "52193"
  },
  {
    "village_code": "35446",
    "village": "LANGGEN",
    "postal_code": "52193"
  },
  {
    "village_code": "36403",
    "village": "PACUL",
    "postal_code": "52193"
  },
  {
    "village_code": "36677",
    "village": "PASANGAN",
    "postal_code": "52193"
  },
  {
    "village_code": "36784",
    "village": "PEGIRIKAN",
    "postal_code": "52193"
  },
  {
    "village_code": "36813",
    "village": "PEKIRINGAN",
    "postal_code": "52193"
  },
  {
    "village_code": "36959",
    "village": "PESAYANGAN",
    "postal_code": "52193"
  },
  {
    "village_code": "38665",
    "village": "TALANG",
    "postal_code": "52193"
  },
  {
    "village_code": "38962",
    "village": "TEGALWANGI",
    "postal_code": "52193"
  },
  {
    "village_code": "39439",
    "village": "WANGANDAWA",
    "postal_code": "52193"
  }
]