[
  {
    "village_code": "73689",
    "village": "AKELAMO RAYA (AKELAMO KAO)",
    "postal_code": "97752"
  },
  {
    "village_code": "73748",
    "village": "BARUMADEHE",
    "postal_code": "97764"
  },
  {
    "village_code": "73779",
    "village": "BOBANE IGO (BOBANEIGO)",
    "postal_code": "97752"
  },
  {
    "village_code": "73877",
    "village": "DUM DUM",
    "postal_code": "97752"
  },
  {
    "village_code": "73938",
    "village": "GAMSUNGI",
    "postal_code": "97752"
  },
  {
    "village_code": "74122",
    "village": "KUNTUM MEKAR",
    "postal_code": "97764"
  },
  {
    "village_code": "74211",
    "village": "MAKAELING",
    "postal_code": "97764"
  },
  {
    "village_code": "74349",
    "village": "PASIR PUTIH",
    "postal_code": "97752"
  },
  {
    "village_code": "74614",
    "village": "TETEWANG",
    "postal_code": "97752"
  },
  {
    "village_code": "74627",
    "village": "TIOWOR",
    "postal_code": "97764"
  },
  {
    "village_code": "74629",
    "village": "TOBANOMA",
    "postal_code": "97764"
  }
]