[
  {
    "village_code": "73762",
    "village": "BERINGIN JAYA",
    "postal_code": "97761"
  },
  {
    "village_code": "73785",
    "village": "BOBI SINGO",
    "postal_code": "97761"
  },
  {
    "village_code": "73852",
    "village": "DODOWO",
    "postal_code": "97761"
  },
  {
    "village_code": "74029",
    "village": "JARE (JERE)",
    "postal_code": "97761"
  },
  {
    "village_code": "74034",
    "village": "JERE TUA",
    "postal_code": "97761"
  },
  {
    "village_code": "74143",
    "village": "LALONGA",
    "postal_code": "97761"
  },
  {
    "village_code": "74172",
    "village": "LIMAU",
    "postal_code": "97761"
  },
  {
    "village_code": "74367",
    "village": "PELITA",
    "postal_code": "97761"
  },
  {
    "village_code": "74430",
    "village": "SALIMULI",
    "postal_code": "97761"
  },
  {
    "village_code": "74433",
    "village": "SALUTA",
    "postal_code": "97761"
  },
  {
    "village_code": "74649",
    "village": "TOGASA",
    "postal_code": "97761"
  },
  {
    "village_code": "74714",
    "village": "TUTUMALOLEO",
    "postal_code": "97761"
  }
]