[
  {
    "village_code": "73777",
    "village": "BOBALE",
    "postal_code": "97764"
  },
  {
    "village_code": "73797",
    "village": "BORI",
    "postal_code": "97764"
  },
  {
    "village_code": "73801",
    "village": "BOULAMO",
    "postal_code": "97764"
  },
  {
    "village_code": "73842",
    "village": "DARU",
    "postal_code": "97764"
  },
  {
    "village_code": "73862",
    "village": "DORO",
    "postal_code": "97764"
  },
  {
    "village_code": "73873",
    "village": "DOWONGIMAITI",
    "postal_code": "97764"
  },
  {
    "village_code": "73930",
    "village": "GAMLAHA",
    "postal_code": "97764"
  },
  {
    "village_code": "73988",
    "village": "GULO",
    "postal_code": "97764"
  },
  {
    "village_code": "74362",
    "village": "PEDIWANG (PIDIWANG)",
    "postal_code": "97764"
  },
  {
    "village_code": "74710",
    "village": "TUNUO",
    "postal_code": "97764"
  },
  {
    "village_code": "74772",
    "village": "WARUDU",
    "postal_code": "97764"
  },
  {
    "village_code": "74775",
    "village": "WATETO",
    "postal_code": "97764"
  }
]