[
  {
    "village_code": "69026",
    "village": "ABELI",
    "postal_code": "93234"
  },
  {
    "village_code": "69127",
    "village": "ANGGALOMELAI (ANGGOLOMELAI)",
    "postal_code": "93234"
  },
  {
    "village_code": "69283",
    "village": "BENUA NIRAE",
    "postal_code": "93234"
  },
  {
    "village_code": "69348",
    "village": "BUNGKUTOKO",
    "postal_code": "93234"
  },
  {
    "village_code": "69886",
    "village": "LAPULU",
    "postal_code": "93234"
  },
  {
    "village_code": "70201",
    "village": "NAMBO",
    "postal_code": "93236"
  },
  {
    "village_code": "70335",
    "village": "PETOAHA",
    "postal_code": "93236"
  },
  {
    "village_code": "70345",
    "village": "POASIA",
    "postal_code": "93235"
  },
  {
    "village_code": "70396",
    "village": "PUDAY (PUDAI)",
    "postal_code": "93234"
  },
  {
    "village_code": "70552",
    "village": "SAMBULI",
    "postal_code": "93238"
  },
  {
    "village_code": "70650",
    "village": "TALIA",
    "postal_code": "93235"
  },
  {
    "village_code": "70782",
    "village": "TOBIMEITA",
    "postal_code": "93237"
  },
  {
    "village_code": "70810",
    "village": "TONDONGGEU",
    "postal_code": "93238"
  }
]