[
  {
    "village_code": "55238",
    "village": "ALAM PAKUAN",
    "postal_code": "78871"
  },
  {
    "village_code": "55505",
    "village": "DEMIT",
    "postal_code": "78871"
  },
  {
    "village_code": "55609",
    "village": "JAGO BERSATU",
    "postal_code": "78871"
  },
  {
    "village_code": "56027",
    "village": "MERIMBANG JAYA",
    "postal_code": "78871"
  },
  {
    "village_code": "56043",
    "village": "MUARA JEKAK",
    "postal_code": "78871"
  },
  {
    "village_code": "56337",
    "village": "PENDAMARAN INDAH",
    "postal_code": "78871"
  },
  {
    "village_code": "56356",
    "village": "PENJAWAAN",
    "postal_code": "78871"
  },
  {
    "village_code": "56384",
    "village": "PETAI PATAH",
    "postal_code": "78871"
  },
  {
    "village_code": "56431",
    "village": "RANDAU",
    "postal_code": "78871"
  },
  {
    "village_code": "56429",
    "village": "RANDAU JUNGKAL",
    "postal_code": "78871"
  },
  {
    "village_code": "56505",
    "village": "SANDAI KANAN",
    "postal_code": "78871"
  },
  {
    "village_code": "56506",
    "village": "SANDAI KIRI",
    "postal_code": "78871"
  }
]