[
  {
    "village_code": "55273",
    "village": "AUR GADING",
    "postal_code": "78874"
  },
  {
    "village_code": "55340",
    "village": "BATU BERANSAH",
    "postal_code": "78874"
  },
  {
    "village_code": "55352",
    "village": "BATU TAJAM",
    "postal_code": "78874"
  },
  {
    "village_code": "55370",
    "village": "BELABAN TUJUH",
    "postal_code": "78874"
  },
  {
    "village_code": "55410",
    "village": "BERINGIN RAYO",
    "postal_code": "78874"
  },
  {
    "village_code": "55632",
    "village": "JELAYAN",
    "postal_code": "78874"
  },
  {
    "village_code": "55649",
    "village": "JUNGKAL",
    "postal_code": "78874"
  },
  {
    "village_code": "55658",
    "village": "KALIMAS BARU",
    "postal_code": "78874"
  },
  {
    "village_code": "55899",
    "village": "MAHAWA",
    "postal_code": "78874"
  },
  {
    "village_code": "56091",
    "village": "NANGA KELAMPAI",
    "postal_code": "78874"
  },
  {
    "village_code": "56195",
    "village": "NATAI PANJANG",
    "postal_code": "78874"
  },
  {
    "village_code": "56334",
    "village": "PEMUATAN JAYA",
    "postal_code": "78874"
  },
  {
    "village_code": "56341",
    "village": "PENGATAPAN RAYA",
    "postal_code": "78874"
  },
  {
    "village_code": "56385",
    "village": "PETEBANG JAYA",
    "postal_code": "78874"
  },
  {
    "village_code": "56558",
    "village": "SEGAR WANGI",
    "postal_code": "78874"
  },
  {
    "village_code": "56794",
    "village": "SENGKAHARAK",
    "postal_code": "78874"
  },
  {
    "village_code": "56816",
    "village": "SEPAUHAN JAYA",
    "postal_code": "78874"
  },
  {
    "village_code": "56830",
    "village": "SERENGKAH",
    "postal_code": "78874"
  },
  {
    "village_code": "56829",
    "village": "SERENGKAH KANAN",
    "postal_code": "78874"
  },
  {
    "village_code": "56903",
    "village": "SUKA DAMAI",
    "postal_code": "78874"
  },
  {
    "village_code": "56999",
    "village": "TANJUNG BEULANG",
    "postal_code": "78874"
  },
  {
    "village_code": "57025",
    "village": "TANJUNG MALOI",
    "postal_code": "78874"
  },
  {
    "village_code": "57165",
    "village": "TITI BARU",
    "postal_code": "78874"
  },
  {
    "village_code": "57185",
    "village": "TUMBANG TITI",
    "postal_code": "78874"
  }
]