[
  {
    "village_code": "55409",
    "village": "BERINGIN JAYA",
    "postal_code": "78874"
  },
  {
    "village_code": "55613",
    "village": "JAIRAN JAYA",
    "postal_code": "78874"
  },
  {
    "village_code": "55692",
    "village": "KARYA MUKTI",
    "postal_code": "78874"
  },
  {
    "village_code": "55749",
    "village": "KEPULUK",
    "postal_code": "78874"
  },
  {
    "village_code": "55905",
    "village": "MAKMUR ABADI",
    "postal_code": "78874"
  },
  {
    "village_code": "55957",
    "village": "MEKAR JAYA",
    "postal_code": "78874"
  },
  {
    "village_code": "56386",
    "village": "PIANSAK",
    "postal_code": "78874"
  },
  {
    "village_code": "56645",
    "village": "SEI / SUNGAI MELAYU",
    "postal_code": "78874"
  },
  {
    "village_code": "56643",
    "village": "SEI / SUNGAI MELAYU BARU",
    "postal_code": "78874"
  },
  {
    "village_code": "56644",
    "village": "SEI / SUNGAI MELAYU JAYA",
    "postal_code": "78874"
  },
  {
    "village_code": "56915",
    "village": "SUKA MULIA / MULYA",
    "postal_code": "78874"
  }
]