[
  {
    "village_code": "31342",
    "village": "BALONG",
    "postal_code": "59453"
  },
  {
    "village_code": "32008",
    "village": "BUCU",
    "postal_code": "59453"
  },
  {
    "village_code": "32260",
    "village": "CEPOGO",
    "postal_code": "59453"
  },
  {
    "village_code": "32516",
    "village": "DERMOLO",
    "postal_code": "59453"
  },
  {
    "village_code": "32594",
    "village": "DUDAKAWU",
    "postal_code": "59453"
  },
  {
    "village_code": "33556",
    "village": "JINGGOTAN",
    "postal_code": "59453"
  },
  {
    "village_code": "33763",
    "village": "KALIAMAN",
    "postal_code": "59453"
  },
  {
    "village_code": "34036",
    "village": "KANCILAN",
    "postal_code": "59453"
  },
  {
    "village_code": "36864",
    "village": "PENDEM",
    "postal_code": "59453"
  },
  {
    "village_code": "38494",
    "village": "SUMANDING",
    "postal_code": "59453"
  },
  {
    "village_code": "39303",
    "village": "TUBANAN",
    "postal_code": "59453"
  }
]