[
  {
    "village_code": "58819",
    "village": "ANJIR BARU",
    "postal_code": "72272"
  },
  {
    "village_code": "58900",
    "village": "BAKARANGAN",
    "postal_code": "72272"
  },
  {
    "village_code": "59030",
    "village": "BATU BULAN",
    "postal_code": "72272"
  },
  {
    "village_code": "59107",
    "village": "BINAWARA",
    "postal_code": "72272"
  },
  {
    "village_code": "59177",
    "village": "DADAP KUSAN RAYA",
    "postal_code": "72272"
  },
  {
    "village_code": "59195",
    "village": "DARASAN BINJAI (DERASAN BINJAI)",
    "postal_code": "72272"
  },
  {
    "village_code": "59251",
    "village": "GUNTUNG",
    "postal_code": "72272"
  },
  {
    "village_code": "59321",
    "village": "HARAPAN JAYA",
    "postal_code": "72272"
  },
  {
    "village_code": "59334",
    "village": "HATI IF",
    "postal_code": "72272"
  },
  {
    "village_code": "59480",
    "village": "KARANG MULYA",
    "postal_code": "72272"
  },
  {
    "village_code": "59486",
    "village": "KARANG SARI INDAH",
    "postal_code": "72272"
  },
  {
    "village_code": "59622",
    "village": "LASUNG",
    "postal_code": "72272"
  },
  {
    "village_code": "59731",
    "village": "MANGKALAPI",
    "postal_code": "72272"
  },
  {
    "village_code": "59749",
    "village": "MANUNTUNG",
    "postal_code": "72272"
  },
  {
    "village_code": "59869",
    "village": "PACAKAN",
    "postal_code": "72272"
  },
  {
    "village_code": "60365",
    "village": "SEI / SUNGAI RUKAM",
    "postal_code": "72272"
  },
  {
    "village_code": "60581",
    "village": "TAMUNIH",
    "postal_code": "72272"
  },
  {
    "village_code": "60635",
    "village": "TAPUS",
    "postal_code": "72272"
  },
  {
    "village_code": "60689",
    "village": "TELUK KEPAYANG",
    "postal_code": "72272"
  },
  {
    "village_code": "60714",
    "village": "TIBARAU PANJANG",
    "postal_code": "72272"
  },
  {
    "village_code": "60777",
    "village": "WONOREJO",
    "postal_code": "72272"
  }
]