[
  {
    "village_code": "58990",
    "village": "BAROQAH",
    "postal_code": "72213"
  },
  {
    "village_code": "59027",
    "village": "BATU AMPAR",
    "postal_code": "72213"
  },
  {
    "village_code": "59097",
    "village": "BERSUJUD",
    "postal_code": "72213"
  },
  {
    "village_code": "59252",
    "village": "GUNUNG ANTASARI",
    "postal_code": "72213"
  },
  {
    "village_code": "59257",
    "village": "GUNUNG BESAR",
    "postal_code": "72213"
  },
  {
    "village_code": "59452",
    "village": "KAMPUNG BARU",
    "postal_code": "72212"
  },
  {
    "village_code": "59791",
    "village": "MEKAR SARI",
    "postal_code": "72211"
  },
  {
    "village_code": "60121",
    "village": "PULAU PANJANG",
    "postal_code": "72213"
  },
  {
    "village_code": "60224",
    "village": "SARI GADUNG",
    "postal_code": "72211"
  },
  {
    "village_code": "60279",
    "village": "SEI / SUNGAI DUA",
    "postal_code": "72211"
  },
  {
    "village_code": "60396",
    "village": "SEJAHTERA",
    "postal_code": "72213"
  },
  {
    "village_code": "60743",
    "village": "TUNGKARAN PANGERAN",
    "postal_code": "72213"
  }
]