[
  {
    "village_code": "59048",
    "village": "BATULICIN IRIGASI",
    "postal_code": "72211"
  },
  {
    "village_code": "59322",
    "village": "HARAPAN MAJU",
    "postal_code": "72211"
  },
  {
    "village_code": "59466",
    "village": "KARANG BINTANG",
    "postal_code": "72211"
  },
  {
    "village_code": "59485",
    "village": "KARANG REJO",
    "postal_code": "72211"
  },
  {
    "village_code": "59683",
    "village": "MADU RETNO",
    "postal_code": "72211"
  },
  {
    "village_code": "59746",
    "village": "MANUNGGAL",
    "postal_code": "72211"
  },
  {
    "village_code": "59939",
    "village": "PANDAN SARI",
    "postal_code": "72211"
  },
  {
    "village_code": "60057",
    "village": "PEMATANG ULIN",
    "postal_code": "72211"
  },
  {
    "village_code": "60186",
    "village": "REJO WINANGUN",
    "postal_code": "72211"
  },
  {
    "village_code": "60404",
    "village": "SELA SELILAU",
    "postal_code": "72211"
  },
  {
    "village_code": "60495",
    "village": "SUMBER WANGI",
    "postal_code": "72211"
  }
]