[
  {
    "village_code": "64089",
    "village": "ANGGASAN",
    "postal_code": "94552"
  },
  {
    "village_code": "64175",
    "village": "BAMBAPUN",
    "postal_code": "94552"
  },
  {
    "village_code": "64732",
    "village": "LAIS",
    "postal_code": "94552"
  },
  {
    "village_code": "64909",
    "village": "LUOK MANIPI",
    "postal_code": "94552"
  },
  {
    "village_code": "64924",
    "village": "MALALA",
    "postal_code": "94552"
  },
  {
    "village_code": "64950",
    "village": "MALOMBA",
    "postal_code": "94552"
  },
  {
    "village_code": "64953",
    "village": "MALULU",
    "postal_code": "94552"
  },
  {
    "village_code": "65134",
    "village": "OGOGASANG",
    "postal_code": "94552"
  },
  {
    "village_code": "65135",
    "village": "OGOGILI",
    "postal_code": "94552"
  },
  {
    "village_code": "65145",
    "village": "OGOWELE",
    "postal_code": "94552"
  },
  {
    "village_code": "65432",
    "village": "SALUMBIA",
    "postal_code": "94552"
  },
  {
    "village_code": "65738",
    "village": "TINABOGAN",
    "postal_code": "94552"
  }
]