[
  {
    "village_code": "73687",
    "village": "AKEKOLANO",
    "postal_code": "97852"
  },
  {
    "village_code": "73704",
    "village": "AMPERA",
    "postal_code": "97852"
  },
  {
    "village_code": "73731",
    "village": "BALBAR",
    "postal_code": "97852"
  },
  {
    "village_code": "73804",
    "village": "BUKIT DURIAN",
    "postal_code": "97852"
  },
  {
    "village_code": "73917",
    "village": "GALALA",
    "postal_code": "97852"
  },
  {
    "village_code": "73967",
    "village": "GOROJOU",
    "postal_code": "97852"
  },
  {
    "village_code": "73994",
    "village": "GURAPING",
    "postal_code": "97852"
  },
  {
    "village_code": "74056",
    "village": "KAIYASA",
    "postal_code": "97852"
  },
  {
    "village_code": "74131",
    "village": "KUSU",
    "postal_code": "97852"
  },
  {
    "village_code": "74320",
    "village": "OBA",
    "postal_code": "97852"
  },
  {
    "village_code": "74510",
    "village": "SOFIFI",
    "postal_code": "97852"
  },
  {
    "village_code": "74514",
    "village": "SOMAHODE",
    "postal_code": "97852"
  }
]