[
  {
    "village_code": "22261",
    "village": "HENI HARONG",
    "postal_code": "34879"
  },
  {
    "village_code": "22406",
    "village": "KEAGUNGAN",
    "postal_code": "34879"
  },
  {
    "village_code": "22617",
    "village": "LOMBOK",
    "postal_code": "34879"
  },
  {
    "village_code": "22615",
    "village": "LOMBOK SELATAN",
    "postal_code": "34879"
  },
  {
    "village_code": "22616",
    "village": "LOMBOK TIMUR",
    "postal_code": "34879"
  },
  {
    "village_code": "22957",
    "village": "PANCUR MAS",
    "postal_code": "34879"
  },
  {
    "village_code": "23529",
    "village": "SUKA BANJAR",
    "postal_code": "34879"
  },
  {
    "village_code": "23526",
    "village": "SUKA BANJAR II UJUNG REMBUN",
    "postal_code": "34879"
  },
  {
    "village_code": "23540",
    "village": "SUKA MAJU",
    "postal_code": "34879"
  },
  {
    "village_code": "23908",
    "village": "TAWAN SUKA MULYA",
    "postal_code": "34879"
  },
  {
    "village_code": "24034",
    "village": "UJUNG",
    "postal_code": "34879"
  }
]