[
  {
    "village_code": "58776",
    "village": "AGUNG",
    "postal_code": "71514"
  },
  {
    "village_code": "58972",
    "village": "BANYU TAJUN",
    "postal_code": "71515"
  },
  {
    "village_code": "59231",
    "village": "GARUNGGUNG",
    "postal_code": "71515"
  },
  {
    "village_code": "59343",
    "village": "HIKUN",
    "postal_code": "71515"
  },
  {
    "village_code": "59376",
    "village": "JANGKUNG",
    "postal_code": "71512"
  },
  {
    "village_code": "59407",
    "village": "JUAI",
    "postal_code": "71515"
  },
  {
    "village_code": "59445",
    "village": "KAMBITIN",
    "postal_code": "71515"
  },
  {
    "village_code": "59444",
    "village": "KAMBITIN RAYA",
    "postal_code": "71515"
  },
  {
    "village_code": "59557",
    "village": "KITANG",
    "postal_code": "71515"
  },
  {
    "village_code": "59692",
    "village": "MAHE SEBERANG",
    "postal_code": "71515"
  },
  {
    "village_code": "59917",
    "village": "PAMARANGAN KIWA",
    "postal_code": "71515"
  },
  {
    "village_code": "60103",
    "village": "PUAIN KIWA",
    "postal_code": "71515"
  },
  {
    "village_code": "60336",
    "village": "SEI / SUNGAI PIMPING",
    "postal_code": "71515"
  },
  {
    "village_code": "38797",
    "village": "TANJUNG",
    "postal_code": "71513"
  },
  {
    "village_code": "60772",
    "village": "WAYAU",
    "postal_code": "71515"
  }
]