[
  {
    "village_code": "58807",
    "village": "AMPUKUNG",
    "postal_code": "71552"
  },
  {
    "village_code": "58891",
    "village": "BAHUNGIN",
    "postal_code": "71552"
  },
  {
    "village_code": "59119",
    "village": "BINTURU",
    "postal_code": "71552"
  },
  {
    "village_code": "59489",
    "village": "KARANGAN PUTIH",
    "postal_code": "71552"
  },
  {
    "village_code": "59769",
    "village": "MASINTAN",
    "postal_code": "71552"
  },
  {
    "village_code": "59908",
    "village": "PALIAT",
    "postal_code": "71552"
  },
  {
    "village_code": "60007",
    "village": "PASAR PANAS",
    "postal_code": "71552"
  },
  {
    "village_code": "60105",
    "village": "PUDAK STEGAL",
    "postal_code": "71552"
  },
  {
    "village_code": "60131",
    "village": "PULAU",
    "postal_code": "71552"
  },
  {
    "village_code": "60272",
    "village": "SEI / SUNGAI BULUH",
    "postal_code": "71552"
  },
  {
    "village_code": "60534",
    "village": "TAKULAT",
    "postal_code": "71552"
  },
  {
    "village_code": "60671",
    "village": "TELAGAITAR",
    "postal_code": "71552"
  }
]