[
  {
    "village_code": "59130",
    "village": "BONGKANG",
    "postal_code": "71572"
  },
  {
    "village_code": "59170",
    "village": "CATUR KARYA",
    "postal_code": "71572"
  },
  {
    "village_code": "59281",
    "village": "HALONG",
    "postal_code": "71572"
  },
  {
    "village_code": "59341",
    "village": "HAYUP",
    "postal_code": "71572"
  },
  {
    "village_code": "59530",
    "village": "KEMBANGKUNING",
    "postal_code": "71572"
  },
  {
    "village_code": "59646",
    "village": "LOK BATU",
    "postal_code": "71572"
  },
  {
    "village_code": "59691",
    "village": "MAHE PASAR",
    "postal_code": "71572"
  },
  {
    "village_code": "59763",
    "village": "MARINDI",
    "postal_code": "71572"
  },
  {
    "village_code": "59859",
    "village": "NAWIN",
    "postal_code": "71572"
  },
  {
    "village_code": "60422",
    "village": "SERADANG",
    "postal_code": "71572"
  },
  {
    "village_code": "60502",
    "village": "SUPUT",
    "postal_code": "71572"
  },
  {
    "village_code": "60506",
    "village": "SURIYAN",
    "postal_code": "71572"
  },
  {
    "village_code": "60774",
    "village": "WIRANG",
    "postal_code": "71572"
  }
]