[
  {
    "village_code": "73771",
    "village": "BILIFITU",
    "postal_code": "97854"
  },
  {
    "village_code": "73840",
    "village": "DAMULI",
    "postal_code": "97854"
  },
  {
    "village_code": "73950",
    "village": "GEMIA",
    "postal_code": "97854"
  },
  {
    "village_code": "74221",
    "village": "MALIFORO",
    "postal_code": "97854"
  },
  {
    "village_code": "74250",
    "village": "MASURE",
    "postal_code": "97854"
  },
  {
    "village_code": "74312",
    "village": "NURSIFA",
    "postal_code": "97854"
  },
  {
    "village_code": "74332",
    "village": "PALO",
    "postal_code": "97854"
  },
  {
    "village_code": "74339",
    "village": "PANTURA JAYA",
    "postal_code": "97854"
  },
  {
    "village_code": "74369",
    "village": "PENITI",
    "postal_code": "97854"
  },
  {
    "village_code": "74422",
    "village": "SAKAM",
    "postal_code": "97854"
  },
  {
    "village_code": "74611",
    "village": "TEPELEO BATUDUA",
    "postal_code": "97854"
  },
  {
    "village_code": "74622",
    "village": "TILOPE (TEPELEO)",
    "postal_code": "97854"
  }
]