[
  {
    "village_code": "25500",
    "village": "BATUMALANG",
    "postal_code": "46395"
  },
  {
    "village_code": "26521",
    "village": "CIMERAK",
    "postal_code": "46395"
  },
  {
    "village_code": "26643",
    "village": "CIPARANTI",
    "postal_code": "46395"
  },
  {
    "village_code": "27984",
    "village": "KERTAHARJA",
    "postal_code": "46395"
  },
  {
    "village_code": "28011",
    "village": "KERTAMUKTI",
    "postal_code": "46395"
  },
  {
    "village_code": "28223",
    "village": "LEGOKJAWA",
    "postal_code": "46395"
  },
  {
    "village_code": "28309",
    "village": "LIMUSGEDE",
    "postal_code": "46395"
  },
  {
    "village_code": "28545",
    "village": "MASAWAH",
    "postal_code": "46395"
  },
  {
    "village_code": "28679",
    "village": "MEKARSARI",
    "postal_code": "46395"
  },
  {
    "village_code": "29988",
    "village": "SINDANGSARI",
    "postal_code": "46395"
  },
  {
    "village_code": "30236",
    "village": "SUKAJAYA",
    "postal_code": "46395"
  }
]