[
  {
    "village_code": "75217",
    "village": "BALINGGUP",
    "postal_code": "98918"
  },
  {
    "village_code": "75285",
    "village": "BELABAGA",
    "postal_code": "98918"
  },
  {
    "village_code": "75327",
    "village": "BIAK",
    "postal_code": "98918"
  },
  {
    "village_code": "75680",
    "village": "DOLOGOBAK",
    "postal_code": "98918"
  },
  {
    "village_code": "75942",
    "village": "GILIBE",
    "postal_code": "98918"
  },
  {
    "village_code": "75944",
    "village": "GILILOME",
    "postal_code": "98918"
  },
  {
    "village_code": "75983",
    "village": "GOLAPAGA",
    "postal_code": "98918"
  },
  {
    "village_code": "76022",
    "village": "GUMBRU",
    "postal_code": "98918"
  },
  {
    "village_code": "76648",
    "village": "KILILUMO",
    "postal_code": "98918"
  },
  {
    "village_code": "77062",
    "village": "LUMO",
    "postal_code": "98918"
  },
  {
    "village_code": "77115",
    "village": "MALOINGGEN",
    "postal_code": "98918"
  },
  {
    "village_code": "77301",
    "village": "MEWOLUK",
    "postal_code": "98918"
  },
  {
    "village_code": "77302",
    "village": "MEWUT",
    "postal_code": "98918"
  },
  {
    "village_code": "77560",
    "village": "NGGININIK",
    "postal_code": "98918"
  },
  {
    "village_code": "77572",
    "village": "NINGGINERI",
    "postal_code": "98918"
  },
  {
    "village_code": "77678",
    "village": "OGOLUK",
    "postal_code": "98918"
  },
  {
    "village_code": "78653",
    "village": "TIGIR",
    "postal_code": "98918"
  },
  {
    "village_code": "78700",
    "village": "TIOLOME",
    "postal_code": "98918"
  },
  {
    "village_code": "78888",
    "village": "UTIKME",
    "postal_code": "98918"
  },
  {
    "village_code": "78976",
    "village": "WALIBA",
    "postal_code": "98918"
  },
  {
    "village_code": "79065",
    "village": "WANUME",
    "postal_code": "98918"
  },
  {
    "village_code": "79351",
    "village": "WURABAK",
    "postal_code": "98918"
  },
  {
    "village_code": "79356",
    "village": "WURAMBURU",
    "postal_code": "98918"
  }
]