[
  {
    "village_code": "66052",
    "village": "ANRANG",
    "postal_code": "92552"
  },
  {
    "village_code": "66103",
    "village": "BAJIMINASA",
    "postal_code": "92552"
  },
  {
    "village_code": "66276",
    "village": "BATUKAROPA",
    "postal_code": "92552"
  },
  {
    "village_code": "66470",
    "village": "BONTO MATENE",
    "postal_code": "92552"
  },
  {
    "village_code": "66507",
    "village": "BONTOBANGUN",
    "postal_code": "92552"
  },
  {
    "village_code": "66514",
    "village": "BONTOHARU",
    "postal_code": "92552"
  },
  {
    "village_code": "66532",
    "village": "BONTOLOHE",
    "postal_code": "92552"
  },
  {
    "village_code": "66539",
    "village": "BONTOMANAI",
    "postal_code": "92552"
  },
  {
    "village_code": "66640",
    "village": "BULOLOHE",
    "postal_code": "92552"
  },
  {
    "village_code": "67045",
    "village": "KARAMA",
    "postal_code": "92552"
  },
  {
    "village_code": "67867",
    "village": "PALAMPANG",
    "postal_code": "92552"
  },
  {
    "village_code": "67926",
    "village": "PANGALLOANG",
    "postal_code": "92552"
  },
  {
    "village_code": "68539",
    "village": "SWATANI",
    "postal_code": "92552"
  },
  {
    "village_code": "68636",
    "village": "TANAH HARAPAN",
    "postal_code": "92552"
  },
  {
    "village_code": "68864",
    "village": "TOPANDA",
    "postal_code": "92552"
  }
]