[
  {
    "village_code": "66240",
    "village": "BATANG",
    "postal_code": "92572"
  },
  {
    "village_code": "66426",
    "village": "BONTO BARUA",
    "postal_code": "92572"
  },
  {
    "village_code": "66431",
    "village": "BONTO BULAENG",
    "postal_code": "92572"
  },
  {
    "village_code": "66462",
    "village": "BONTO MARANNU",
    "postal_code": "92572"
  },
  {
    "village_code": "66488",
    "village": "BONTO TANGNGA",
    "postal_code": "92572"
  },
  {
    "village_code": "66617",
    "village": "BUHUNG BUNDANG",
    "postal_code": "92572"
  },
  {
    "village_code": "66739",
    "village": "CARAMMING",
    "postal_code": "92572"
  },
  {
    "village_code": "66823",
    "village": "DWI TIRO",
    "postal_code": "92572"
  },
  {
    "village_code": "66824",
    "village": "EKATIRO",
    "postal_code": "92572"
  },
  {
    "village_code": "67187",
    "village": "LAMANDA",
    "postal_code": "92572"
  },
  {
    "village_code": "67858",
    "village": "PAKUBALAHO",
    "postal_code": "92572"
  },
  {
    "village_code": "68597",
    "village": "TAMALANREA",
    "postal_code": "92572"
  },
  {
    "village_code": "68879",
    "village": "TRITIRO",
    "postal_code": "92572"
  }
]