[
  {
    "village_code": "69317",
    "village": "BONEGUNU",
    "postal_code": "93673"
  },
  {
    "village_code": "69349",
    "village": "BURANGA",
    "postal_code": "93673"
  },
  {
    "village_code": "69358",
    "village": "DAMAI LABORONA",
    "postal_code": "93673"
  },
  {
    "village_code": "69383",
    "village": "EEN SUMALA",
    "postal_code": "93673"
  },
  {
    "village_code": "69406",
    "village": "GUNUNG SARI",
    "postal_code": "93673"
  },
  {
    "village_code": "69547",
    "village": "KOBORUNO",
    "postal_code": "93673"
  },
  {
    "village_code": "69549",
    "village": "KOEPISINO",
    "postal_code": "93673"
  },
  {
    "village_code": "69611",
    "village": "LAANOIPI",
    "postal_code": "93673"
  },
  {
    "village_code": "69827",
    "village": "LANGERE",
    "postal_code": "93673"
  },
  {
    "village_code": "70218",
    "village": "NGAPA\\EA",
    "postal_code": "93673"
  },
  {
    "village_code": "70506",
    "village": "RANTE GOLA",
    "postal_code": "93673"
  },
  {
    "village_code": "70525",
    "village": "RONTA",
    "postal_code": "93673"
  },
  {
    "village_code": "70707",
    "village": "TATOMBULI",
    "postal_code": "93673"
  },
  {
    "village_code": "70987",
    "village": "WAODE ANGKALO",
    "postal_code": "93673"
  },
  {
    "village_code": "70989",
    "village": "WAODE KALOWO",
    "postal_code": "93673"
  }
]