[
  {
    "village_code": "55407",
    "village": "BERINGIN BARU",
    "postal_code": "79181"
  },
  {
    "village_code": "55570",
    "village": "GERANTUNG",
    "postal_code": "79181"
  },
  {
    "village_code": "55574",
    "village": "GOA BOMA",
    "postal_code": "79181"
  },
  {
    "village_code": "55612",
    "village": "JAHANDUNG",
    "postal_code": "79181"
  },
  {
    "village_code": "55951",
    "village": "MEKAR BARU",
    "postal_code": "79181"
  },
  {
    "village_code": "56038",
    "village": "MONTERADO",
    "postal_code": "79181"
  },
  {
    "village_code": "56198",
    "village": "NEK GINAP",
    "postal_code": "79181"
  },
  {
    "village_code": "56442",
    "village": "RANTAU",
    "postal_code": "79181"
  },
  {
    "village_code": "56788",
    "village": "SENDORENG",
    "postal_code": "79181"
  },
  {
    "village_code": "56836",
    "village": "SERINDU",
    "postal_code": "79181"
  },
  {
    "village_code": "56854",
    "village": "SIAGA (NYEMPEN)",
    "postal_code": "79181"
  }
]