[
  {
    "village_code": "57352",
    "village": "BATU TUNGGAL",
    "postal_code": "74162"
  },
  {
    "village_code": "57421",
    "village": "BUKIT JAYA",
    "postal_code": "74162"
  },
  {
    "village_code": "57875",
    "village": "MERAMBANG",
    "postal_code": "74162"
  },
  {
    "village_code": "57927",
    "village": "NANGA KEMUJAN",
    "postal_code": "74162"
  },
  {
    "village_code": "57928",
    "village": "NANGA KORING",
    "postal_code": "74162"
  },
  {
    "village_code": "57931",
    "village": "NANGA PALIKODAN",
    "postal_code": "74162"
  },
  {
    "village_code": "57950",
    "village": "NUANGAN",
    "postal_code": "74162"
  },
  {
    "village_code": "58046",
    "village": "PEDONGATAN",
    "postal_code": "74162"
  },
  {
    "village_code": "58319",
    "village": "SEPONDAM",
    "postal_code": "74162"
  },
  {
    "village_code": "58359",
    "village": "SUKAMAJU",
    "postal_code": "74162"
  },
  {
    "village_code": "58386",
    "village": "SUNGKUP",
    "postal_code": "74162"
  },
  {
    "village_code": "58547",
    "village": "TOKA",
    "postal_code": "74162"
  }
]