[
  {
    "village_code": "62304",
    "village": "AMPRENG",
    "postal_code": "95694"
  },
  {
    "village_code": "62870",
    "village": "KOPIWANGKER",
    "postal_code": "95694"
  },
  {
    "village_code": "62883",
    "village": "KOYAWAS",
    "postal_code": "95694"
  },
  {
    "village_code": "63015",
    "village": "LOWIAN",
    "postal_code": "95694"
  },
  {
    "village_code": "63275",
    "village": "NOONGAN I",
    "postal_code": "95694"
  },
  {
    "village_code": "63276",
    "village": "NOONGAN II",
    "postal_code": "95694"
  },
  {
    "village_code": "63277",
    "village": "NOONGAN III",
    "postal_code": "95694"
  },
  {
    "village_code": "63366",
    "village": "PASLATEH (PASLATEN)",
    "postal_code": "95694"
  },
  {
    "village_code": "63518",
    "village": "RARANON",
    "postal_code": "95694"
  },
  {
    "village_code": "63521",
    "village": "RARINGIS",
    "postal_code": "95694"
  },
  {
    "village_code": "63519",
    "village": "RARINGIS SELATAN",
    "postal_code": "95694"
  },
  {
    "village_code": "63520",
    "village": "RARINGIS UTARA",
    "postal_code": "95694"
  },
  {
    "village_code": "63905",
    "village": "TOUNELET",
    "postal_code": "95694"
  },
  {
    "village_code": "63930",
    "village": "TUMARATAS I",
    "postal_code": "95694"
  },
  {
    "village_code": "63931",
    "village": "TUMARATAS II",
    "postal_code": "95694"
  },
  {
    "village_code": "63978",
    "village": "WALEWANGKO",
    "postal_code": "95694"
  }
]