[
  {
    "village_code": "62719",
    "village": "KAMANGTA",
    "postal_code": "95661"
  },
  {
    "village_code": "62792",
    "village": "KEMBES DUA",
    "postal_code": "95661"
  },
  {
    "village_code": "62793",
    "village": "KEMBES SATU",
    "postal_code": "95661"
  },
  {
    "village_code": "62837",
    "village": "KOKA",
    "postal_code": "95661"
  },
  {
    "village_code": "63550",
    "village": "RUMENGKOR",
    "postal_code": "95661"
  },
  {
    "village_code": "63548",
    "village": "RUMENGKOR DUA",
    "postal_code": "95661"
  },
  {
    "village_code": "63549",
    "village": "RUMENGKOR SATU",
    "postal_code": "95661"
  },
  {
    "village_code": "63601",
    "village": "SAWANGAN",
    "postal_code": "95661"
  },
  {
    "village_code": "63671",
    "village": "SULUAN",
    "postal_code": "95661"
  },
  {
    "village_code": "63812",
    "village": "TIKELA",
    "postal_code": "95661"
  },
  {
    "village_code": "63859",
    "village": "TOMBULUAN",
    "postal_code": "95661"
  }
]