[
  {
    "village_code": "62761",
    "village": "KATINGGOLAN",
    "postal_code": "95612"
  },
  {
    "village_code": "62798",
    "village": "KENDIS",
    "postal_code": "95613"
  },
  {
    "village_code": "62823",
    "village": "KINIAR",
    "postal_code": "95611"
  },
  {
    "village_code": "62978",
    "village": "LININGAAN",
    "postal_code": "95612"
  },
  {
    "village_code": "63021",
    "village": "LUAAN",
    "postal_code": "95614"
  },
  {
    "village_code": "63052",
    "village": "MAKALONSOUW",
    "postal_code": "95612"
  },
  {
    "village_code": "63353",
    "village": "PAPAKELAN",
    "postal_code": "95612"
  },
  {
    "village_code": "63511",
    "village": "RANOWANGKO",
    "postal_code": "95613"
  },
  {
    "village_code": "63704",
    "village": "TALER",
    "postal_code": "95611"
  },
  {
    "village_code": "63900",
    "village": "TOULOUR",
    "postal_code": "95611"
  },
  {
    "village_code": "64021",
    "village": "WENGKOL",
    "postal_code": "95613"
  }
]