[
  {
    "village_code": "72534",
    "village": "AMAHUSU",
    "postal_code": "97117"
  },
  {
    "village_code": "72603",
    "village": "BENTENG",
    "postal_code": "97117"
  },
  {
    "village_code": "72911",
    "village": "KUDAMATI",
    "postal_code": "97116"
  },
  {
    "village_code": "72954",
    "village": "LATUHALAT",
    "postal_code": "97118"
  },
  {
    "village_code": "73042",
    "village": "MANGGA DUA",
    "postal_code": "97114"
  },
  {
    "village_code": "73158",
    "village": "NUSANIWE",
    "postal_code": "97117"
  },
  {
    "village_code": "73157",
    "village": "NUSANIWE I",
    "postal_code": "97117"
  },
  {
    "village_code": "73306",
    "village": "SEILALE",
    "postal_code": "97118"
  },
  {
    "village_code": "73333",
    "village": "SILALE",
    "postal_code": "97111"
  },
  {
    "village_code": "73467",
    "village": "URIMESSING (URIMESING) DESA",
    "postal_code": "97113"
  },
  {
    "village_code": "73468",
    "village": "URIMESSING (URIMESING) KELURAHAN",
    "postal_code": "97113"
  },
  {
    "village_code": "73536",
    "village": "WAIHAONG",
    "postal_code": "97112"
  },
  {
    "village_code": "73552",
    "village": "WAINITU (WAINATU)",
    "postal_code": "97115"
  }
]