[
  {
    "village_code": "21724",
    "village": "BANGUN SARI",
    "postal_code": "35353"
  },
  {
    "village_code": "22245",
    "village": "HALANGAN RATU",
    "postal_code": "35353"
  },
  {
    "village_code": "22304",
    "village": "KAGUNGAN RATU",
    "postal_code": "35353"
  },
  {
    "village_code": "22327",
    "village": "KALIREJO",
    "postal_code": "35353"
  },
  {
    "village_code": "22366",
    "village": "KARANG REJO",
    "postal_code": "35353"
  },
  {
    "village_code": "22621",
    "village": "LUMBI REJO",
    "postal_code": "35353"
  },
  {
    "village_code": "22820",
    "village": "NEGARASAKA",
    "postal_code": "35353"
  },
  {
    "village_code": "22841",
    "village": "NEGERI KATON / KATUN",
    "postal_code": "35353"
  },
  {
    "village_code": "22865",
    "village": "NEGERI ULANGAN JAYA",
    "postal_code": "35353"
  },
  {
    "village_code": "23010",
    "village": "PEJAMBON",
    "postal_code": "35353"
  },
  {
    "village_code": "23090",
    "village": "PONCOKRESNO",
    "postal_code": "35353"
  },
  {
    "village_code": "23106",
    "village": "PUJORAHAYU",
    "postal_code": "35353"
  },
  {
    "village_code": "23143",
    "village": "PURWOREJO",
    "postal_code": "35353"
  },
  {
    "village_code": "23241",
    "village": "ROWOREJO",
    "postal_code": "35353"
  },
  {
    "village_code": "23377",
    "village": "SIDOMULYO",
    "postal_code": "35353"
  },
  {
    "village_code": "23440",
    "village": "SINARBANDUNG",
    "postal_code": "35353"
  },
  {
    "village_code": "23871",
    "village": "TANJUNG REJO",
    "postal_code": "35353"
  },
  {
    "village_code": "23986",
    "village": "TRI RAHAYU",
    "postal_code": "35353"
  },
  {
    "village_code": "24006",
    "village": "TRISNO MAJU",
    "postal_code": "35353"
  }
]