[
  {
    "village_code": "17098",
    "village": "BANDUNG KIRI",
    "postal_code": "31611"
  },
  {
    "village_code": "17099",
    "village": "BANDUNG UJUNG",
    "postal_code": "31611"
  },
  {
    "village_code": "17746",
    "village": "KAYU ARA",
    "postal_code": "31615"
  },
  {
    "village_code": "17982",
    "village": "LUBUK AMAN",
    "postal_code": "31614"
  },
  {
    "village_code": "18002",
    "village": "LUBUK DURIAN",
    "postal_code": "31611"
  },
  {
    "village_code": "18060",
    "village": "LUBUK TANJUNG",
    "postal_code": "31614"
  },
  {
    "village_code": "18258",
    "village": "MUARA ENIM",
    "postal_code": "31611"
  },
  {
    "village_code": "18612",
    "village": "PELITA JAYA",
    "postal_code": "31611"
  },
  {
    "village_code": "19253",
    "village": "SUKAJADI",
    "postal_code": "31613"
  },
  {
    "village_code": "19632",
    "village": "TANJUNG AMAN",
    "postal_code": "31611"
  },
  {
    "village_code": "19697",
    "village": "TANJUNG INDAH",
    "postal_code": "31611"
  }
]