[
  {
    "village_code": "57349",
    "village": "BATU TOJAH",
    "postal_code": "73991"
  },
  {
    "village_code": "57433",
    "village": "BUMBAN TUHUP",
    "postal_code": "73991"
  },
  {
    "village_code": "57461",
    "village": "CINTA BUDIMAN",
    "postal_code": "73991"
  },
  {
    "village_code": "57498",
    "village": "DIRUNG SARARUNG / SARARONG",
    "postal_code": "73991"
  },
  {
    "village_code": "57553",
    "village": "HINGAN TOKUNG",
    "postal_code": "73991"
  },
  {
    "village_code": "57692",
    "village": "KOHONG",
    "postal_code": "73991"
  },
  {
    "village_code": "57758",
    "village": "LIANG NYALING",
    "postal_code": "73991"
  },
  {
    "village_code": "57800",
    "village": "MAKUNJUNG",
    "postal_code": "73991"
  },
  {
    "village_code": "58564",
    "village": "TUMBANG BALOI",
    "postal_code": "73991"
  },
  {
    "village_code": "58571",
    "village": "TUMBANG BAUH",
    "postal_code": "73991"
  },
  {
    "village_code": "58660",
    "village": "TUMBANG MASALO",
    "postal_code": "73991"
  }
]