[
  {
    "village_code": "58839",
    "village": "ANTASAN SEGARA",
    "postal_code": "70581"
  },
  {
    "village_code": "58933",
    "village": "BANGKIT BARU",
    "postal_code": "70581"
  },
  {
    "village_code": "59469",
    "village": "KARANG BUNGA",
    "postal_code": "70581"
  },
  {
    "village_code": "59472",
    "village": "KARANG INDAH",
    "postal_code": "70581"
  },
  {
    "village_code": "59653",
    "village": "LOK RAWA",
    "postal_code": "70581"
  },
  {
    "village_code": "59970",
    "village": "PANTAI HAMBAWANG",
    "postal_code": "70581"
  },
  {
    "village_code": "60133",
    "village": "PUNTIK DALAM",
    "postal_code": "70581"
  },
  {
    "village_code": "60134",
    "village": "PUNTIK LUAR",
    "postal_code": "70581"
  },
  {
    "village_code": "60135",
    "village": "PUNTIK TENGAH",
    "postal_code": "70581"
  },
  {
    "village_code": "60350",
    "village": "SEI / SUNGAI RAMANIA",
    "postal_code": "70581"
  },
  {
    "village_code": "60520",
    "village": "TABING RIMBAH",
    "postal_code": "70581"
  },
  {
    "village_code": "60602",
    "village": "TANIPAH",
    "postal_code": "70581"
  },
  {
    "village_code": "60642",
    "village": "TATAH ALAYUNG",
    "postal_code": "70581"
  },
  {
    "village_code": "60710",
    "village": "TERANTANG",
    "postal_code": "70581"
  }
]