[
  {
    "village_code": "15407",
    "village": "ARGO SARI",
    "postal_code": "37482"
  },
  {
    "village_code": "15532",
    "village": "BUKIT MURAU",
    "postal_code": "37482"
  },
  {
    "village_code": "15545",
    "village": "BUKIT TIGO",
    "postal_code": "37482"
  },
  {
    "village_code": "15547",
    "village": "BUKITBUMI RAYA",
    "postal_code": "37482"
  },
  {
    "village_code": "15549",
    "village": "BUKITTALANG MAS",
    "postal_code": "37482"
  },
  {
    "village_code": "16151",
    "village": "PASAR SINGKUT",
    "postal_code": "37482"
  },
  {
    "village_code": "16171",
    "village": "PAYO LEBAR",
    "postal_code": "37482"
  },
  {
    "village_code": "16238",
    "village": "PERDAMAIAN",
    "postal_code": "37482"
  },
  {
    "village_code": "16447",
    "village": "SENDANG SARI",
    "postal_code": "37482"
  },
  {
    "village_code": "16474",
    "village": "SILIWANGI",
    "postal_code": "37482"
  },
  {
    "village_code": "16492",
    "village": "SIMPANG NIBUNG",
    "postal_code": "37482"
  },
  {
    "village_code": "16577",
    "village": "SUNGAI BENTENG",
    "postal_code": "37482"
  },
  {
    "village_code": "16601",
    "village": "SUNGAI GEDANG",
    "postal_code": "37482"
  }
]