[
  {
    "village_code": "31242",
    "village": "ASEMRUDUNG",
    "postal_code": "58172"
  },
  {
    "village_code": "31423",
    "village": "BANGSRI",
    "postal_code": "58172"
  },
  {
    "village_code": "32925",
    "village": "GEYER",
    "postal_code": "58172"
  },
  {
    "village_code": "33276",
    "village": "JAMBANGAN",
    "postal_code": "58172"
  },
  {
    "village_code": "33680",
    "village": "JUWORO",
    "postal_code": "58172"
  },
  {
    "village_code": "33747",
    "village": "KALANGBANCAR",
    "postal_code": "58172"
  },
  {
    "village_code": "34067",
    "village": "KARANG ANYAR",
    "postal_code": "58172"
  },
  {
    "village_code": "35502",
    "village": "LEDOKDAWAN",
    "postal_code": "58172"
  },
  {
    "village_code": "36001",
    "village": "MONGGOT",
    "postal_code": "58172"
  },
  {
    "village_code": "36332",
    "village": "NGRANDU",
    "postal_code": "58172"
  },
  {
    "village_code": "37427",
    "village": "RAMBAT",
    "postal_code": "58172"
  },
  {
    "village_code": "38269",
    "village": "SOBO",
    "postal_code": "58172"
  },
  {
    "village_code": "38628",
    "village": "SURU",
    "postal_code": "58172"
  }
]