[
  {
    "village_code": "31608",
    "village": "BATURAGUNG",
    "postal_code": "58164"
  },
  {
    "village_code": "32813",
    "village": "GELAPAN",
    "postal_code": "58164"
  },
  {
    "village_code": "32936",
    "village": "GINGGANGTANI",
    "postal_code": "58164"
  },
  {
    "village_code": "33113",
    "village": "GUBUG",
    "postal_code": "58164"
  },
  {
    "village_code": "33382",
    "village": "JATIPECARON",
    "postal_code": "58164"
  },
  {
    "village_code": "33451",
    "village": "JEKETRO",
    "postal_code": "58164"
  },
  {
    "village_code": "34838",
    "village": "KEMIRI",
    "postal_code": "58164"
  },
  {
    "village_code": "35327",
    "village": "KUNJENG",
    "postal_code": "58164"
  },
  {
    "village_code": "35384",
    "village": "KUWARON",
    "postal_code": "58164"
  },
  {
    "village_code": "35949",
    "village": "MLILIR",
    "postal_code": "58164"
  },
  {
    "village_code": "36345",
    "village": "NGROTO",
    "postal_code": "58164"
  },
  {
    "village_code": "36649",
    "village": "PAPANREJO",
    "postal_code": "58164"
  },
  {
    "village_code": "36844",
    "village": "PENADARAN",
    "postal_code": "58164"
  },
  {
    "village_code": "37171",
    "village": "PRANTEN",
    "postal_code": "58164"
  },
  {
    "village_code": "37538",
    "village": "RINGINHARJO",
    "postal_code": "58164"
  },
  {
    "village_code": "37539",
    "village": "RINGINKIDUL",
    "postal_code": "58164"
  },
  {
    "village_code": "37570",
    "village": "ROWOSARI",
    "postal_code": "58164"
  },
  {
    "village_code": "37581",
    "village": "SABAN",
    "postal_code": "58164"
  },
  {
    "village_code": "38708",
    "village": "TAMBAKAN",
    "postal_code": "58164"
  },
  {
    "village_code": "39170",
    "village": "TLOGOMULYO",
    "postal_code": "58164"
  },
  {
    "village_code": "39277",
    "village": "TRISARI",
    "postal_code": "58164"
  }
]