[
  {
    "village_code": "32221",
    "village": "CANGKRING",
    "postal_code": "58165"
  },
  {
    "village_code": "32387",
    "village": "CURUG",
    "postal_code": "58165"
  },
  {
    "village_code": "32689",
    "village": "GAJI",
    "postal_code": "58165"
  },
  {
    "village_code": "32760",
    "village": "GEBANGAN",
    "postal_code": "58165"
  },
  {
    "village_code": "34310",
    "village": "KARANGPASAR",
    "postal_code": "58165"
  },
  {
    "village_code": "34546",
    "village": "KEBONAGUNG",
    "postal_code": "58165"
  },
  {
    "village_code": "34765",
    "village": "KEDUNGWUNGU",
    "postal_code": "58165"
  },
  {
    "village_code": "34773",
    "village": "KEJAWAN",
    "postal_code": "58165"
  },
  {
    "village_code": "35750",
    "village": "MANGUNSARI",
    "postal_code": "58165"
  },
  {
    "village_code": "35816",
    "village": "MEDANI",
    "postal_code": "58165"
  },
  {
    "village_code": "36923",
    "village": "PEPE",
    "postal_code": "58165"
  },
  {
    "village_code": "38477",
    "village": "SUKOREJO",
    "postal_code": "58165"
  },
  {
    "village_code": "38655",
    "village": "TAJEMSARI",
    "postal_code": "58165"
  },
  {
    "village_code": "38763",
    "village": "TANGGIREJO",
    "postal_code": "58165"
  },
  {
    "village_code": "38972",
    "village": "TEGOWANU KULON",
    "postal_code": "58165"
  },
  {
    "village_code": "38973",
    "village": "TEGOWANU WETAN",
    "postal_code": "58165"
  },
  {
    "village_code": "39187",
    "village": "TLOGOREJO",
    "postal_code": "58165"
  },
  {
    "village_code": "39354",
    "village": "TUNJUNGHARJO",
    "postal_code": "58165"
  }
]