[
  {
    "village_code": "66075",
    "village": "ASULI",
    "postal_code": "92982"
  },
  {
    "village_code": "66173",
    "village": "BANTILANG",
    "postal_code": "92982"
  },
  {
    "village_code": "66223",
    "village": "BARUGA",
    "postal_code": "92982"
  },
  {
    "village_code": "66614",
    "village": "BUANGIN",
    "postal_code": "92982"
  },
  {
    "village_code": "66987",
    "village": "KALOSI",
    "postal_code": "92982"
  },
  {
    "village_code": "67223",
    "village": "LANGKEA RAYA",
    "postal_code": "92982"
  },
  {
    "village_code": "67354",
    "village": "LIBUKAN MANDIRI",
    "postal_code": "92982"
  },
  {
    "village_code": "67378",
    "village": "LIOKA",
    "postal_code": "92982"
  },
  {
    "village_code": "67388",
    "village": "LOEHA",
    "postal_code": "92982"
  },
  {
    "village_code": "67446",
    "village": "MAHALONA",
    "postal_code": "92982"
  },
  {
    "village_code": "67622",
    "village": "MASIKU",
    "postal_code": "92982"
  },
  {
    "village_code": "67644",
    "village": "MATOMPI",
    "postal_code": "92982"
  },
  {
    "village_code": "68076",
    "village": "PEKALOA",
    "postal_code": "92982"
  },
  {
    "village_code": "68214",
    "village": "RANTE ANGIN",
    "postal_code": "92982"
  },
  {
    "village_code": "68763",
    "village": "TIMAMPU",
    "postal_code": "92982"
  },
  {
    "village_code": "68805",
    "village": "TOKALIMBO",
    "postal_code": "92982"
  },
  {
    "village_code": "68811",
    "village": "TOLE",
    "postal_code": "92982"
  },
  {
    "village_code": "69001",
    "village": "WAWONDULA",
    "postal_code": "92982"
  }
]