[
  {
    "village_code": "66079",
    "village": "ATUE",
    "postal_code": "92981"
  },
  {
    "village_code": "66127",
    "village": "BALANTANG",
    "postal_code": "92933"
  },
  {
    "village_code": "66221",
    "village": "BARUGA",
    "postal_code": "92932"
  },
  {
    "village_code": "66886",
    "village": "HARAPAN",
    "postal_code": "92981"
  },
  {
    "village_code": "67166",
    "village": "LAKAWALI",
    "postal_code": "92981"
  },
  {
    "village_code": "67165",
    "village": "LAKAWALI PANTAI",
    "postal_code": "91981"
  },
  {
    "village_code": "67257",
    "village": "LASKAP",
    "postal_code": "92935"
  },
  {
    "village_code": "67472",
    "village": "MALILI",
    "postal_code": "91981"
  },
  {
    "village_code": "67553",
    "village": "MANURUNG",
    "postal_code": "92981"
  },
  {
    "village_code": "68008",
    "village": "PASIPASI",
    "postal_code": "91981"
  },
  {
    "village_code": "68148",
    "village": "PONGKERU",
    "postal_code": "92981"
  },
  {
    "village_code": "68179",
    "village": "PUNCAK INDAH",
    "postal_code": "92936"
  },
  {
    "village_code": "68686",
    "village": "TARABBI",
    "postal_code": "92981"
  },
  {
    "village_code": "68954",
    "village": "USSU",
    "postal_code": "92937"
  },
  {
    "village_code": "69009",
    "village": "WEWANGRIU",
    "postal_code": "91981"
  }
]