[
  {
    "village_code": "66095",
    "village": "BAHARI",
    "postal_code": "92971"
  },
  {
    "village_code": "66146",
    "village": "BALOBALO",
    "postal_code": "92971"
  },
  {
    "village_code": "66291",
    "village": "BAWALIPU",
    "postal_code": "92971"
  },
  {
    "village_code": "66751",
    "village": "CENDANA HIJAU",
    "postal_code": "92971"
  },
  {
    "village_code": "66961",
    "village": "KALAENA",
    "postal_code": "92971"
  },
  {
    "village_code": "67025",
    "village": "KANAWATU",
    "postal_code": "92971"
  },
  {
    "village_code": "67116",
    "village": "KOROMBUA",
    "postal_code": "92971"
  },
  {
    "village_code": "67205",
    "village": "LAMPENAI",
    "postal_code": "92971"
  },
  {
    "village_code": "67338",
    "village": "LERA",
    "postal_code": "92971"
  },
  {
    "village_code": "67437",
    "village": "MADANI",
    "postal_code": "92971"
  },
  {
    "village_code": "67575",
    "village": "MARAMBA",
    "postal_code": "92971"
  },
  {
    "village_code": "68093",
    "village": "PEPURO BARAT",
    "postal_code": "92971"
  },
  {
    "village_code": "68260",
    "village": "RINJANI",
    "postal_code": "92971"
  },
  {
    "village_code": "68545",
    "village": "TABAROGE",
    "postal_code": "92971"
  },
  {
    "village_code": "68690",
    "village": "TARENGGE",
    "postal_code": "92971"
  },
  {
    "village_code": "68689",
    "village": "TARENGGE TIMUR",
    "postal_code": "92971"
  }
]