[
  {
    "village_code": "66168",
    "village": "BANGUN JAYA",
    "postal_code": "92972"
  },
  {
    "village_code": "66169",
    "village": "BANGUN KARYA",
    "postal_code": "92972"
  },
  {
    "village_code": "66293",
    "village": "BAYONDO",
    "postal_code": "92972"
  },
  {
    "village_code": "66342",
    "village": "BERINGIN JAYA",
    "postal_code": "92972"
  },
  {
    "village_code": "66989",
    "village": "KALPATARU",
    "postal_code": "92972"
  },
  {
    "village_code": "67342",
    "village": "LESTARI",
    "postal_code": "92972"
  },
  {
    "village_code": "67516",
    "village": "MANDIRI",
    "postal_code": "92972"
  },
  {
    "village_code": "67743",
    "village": "MULYASARI",
    "postal_code": "92972"
  },
  {
    "village_code": "68220",
    "village": "RANTE MARIO",
    "postal_code": "92972"
  },
  {
    "village_code": "68519",
    "village": "SUMBER ALAM",
    "postal_code": "92972"
  },
  {
    "village_code": "68561",
    "village": "TADULAKO",
    "postal_code": "92972"
  },
  {
    "village_code": "68826",
    "village": "TOMONI",
    "postal_code": "92972"
  },
  {
    "village_code": "68911",
    "village": "UJUNG BARU",
    "postal_code": "92972"
  }
]