[
  {
    "village_code": "48699",
    "village": "ANYAR",
    "postal_code": "42166"
  },
  {
    "village_code": "48727",
    "village": "BANDULU",
    "postal_code": "42166"
  },
  {
    "village_code": "48739",
    "village": "BANJARSARI",
    "postal_code": "42166"
  },
  {
    "village_code": "48838",
    "village": "BUNIHARA",
    "postal_code": "42166"
  },
  {
    "village_code": "48969",
    "village": "CIKONENG",
    "postal_code": "42166"
  },
  {
    "village_code": "49161",
    "village": "GROGOL INDAH",
    "postal_code": "42166"
  },
  {
    "village_code": "49409",
    "village": "KOSAMBI RONYOK",
    "postal_code": "42166"
  },
  {
    "village_code": "49573",
    "village": "MEKARSARI",
    "postal_code": "42166"
  },
  {
    "village_code": "49971",
    "village": "SINDANGKARYA",
    "postal_code": "42166"
  },
  {
    "village_code": "49978",
    "village": "SINDANGMANDI",
    "postal_code": "42166"
  },
  {
    "village_code": "50141",
    "village": "TAMBANG AYAM",
    "postal_code": "42166"
  },
  {
    "village_code": "50158",
    "village": "TANJUNGMANIS",
    "postal_code": "42166"
  }
]