[
  {
    "village_code": "48775",
    "village": "BEBERAN",
    "postal_code": "42182"
  },
  {
    "village_code": "48833",
    "village": "BUMIJAYA",
    "postal_code": "42182"
  },
  {
    "village_code": "48911",
    "village": "CIGELAM",
    "postal_code": "42182"
  },
  {
    "village_code": "49050",
    "village": "CIRUAS",
    "postal_code": "42182"
  },
  {
    "village_code": "49078",
    "village": "CITEREP",
    "postal_code": "42182"
  },
  {
    "village_code": "49160",
    "village": "GOSARA",
    "postal_code": "42182"
  },
  {
    "village_code": "49230",
    "village": "KADIKARAN",
    "postal_code": "42182"
  },
  {
    "village_code": "49332",
    "village": "KASERANGAN",
    "postal_code": "42182"
  },
  {
    "village_code": "49367",
    "village": "KEPANDEAN",
    "postal_code": "42182"
  },
  {
    "village_code": "49676",
    "village": "PAMONG",
    "postal_code": "42182"
  },
  {
    "village_code": "49793",
    "village": "PELAWAD",
    "postal_code": "42182"
  },
  {
    "village_code": "49798",
    "village": "PENGGALANG",
    "postal_code": "42182"
  },
  {
    "village_code": "49846",
    "village": "PULO",
    "postal_code": "42182"
  },
  {
    "village_code": "49876",
    "village": "RANJENG",
    "postal_code": "42182"
  },
  {
    "village_code": "49988",
    "village": "SINGAMERTA",
    "postal_code": "42182"
  }
]