[
  {
    "village_code": "48799",
    "village": "BOJONEGARA",
    "postal_code": "42454"
  },
  {
    "village_code": "49312",
    "village": "KARANGKEPUH",
    "postal_code": "42454"
  },
  {
    "village_code": "49379",
    "village": "KERTASANA",
    "postal_code": "42454"
  },
  {
    "village_code": "49458",
    "village": "LAMBANGSARI",
    "postal_code": "42454"
  },
  {
    "village_code": "49525",
    "village": "MANGKUNEGARA",
    "postal_code": "42454"
  },
  {
    "village_code": "49534",
    "village": "MARGAGIRI",
    "postal_code": "42454"
  },
  {
    "village_code": "49556",
    "village": "MEKAR JAYA",
    "postal_code": "42454"
  },
  {
    "village_code": "49667",
    "village": "PAKUNCEN",
    "postal_code": "42454"
  },
  {
    "village_code": "49797",
    "village": "PENGARENGAN",
    "postal_code": "42454"
  },
  {
    "village_code": "50208",
    "village": "UKIRSARI",
    "postal_code": "42454"
  },
  {
    "village_code": "50221",
    "village": "WANAKARTA",
    "postal_code": "42454"
  }
]