[
  {
    "village_code": "49183",
    "village": "HARJATANI",
    "postal_code": "42161"
  },
  {
    "village_code": "49422",
    "village": "KRAMATWATU",
    "postal_code": "42161"
  },
  {
    "village_code": "49477",
    "village": "LEBAKWANA",
    "postal_code": "42161"
  },
  {
    "village_code": "49540",
    "village": "MARGASANA",
    "postal_code": "42161"
  },
  {
    "village_code": "49675",
    "village": "PAMENGKANG",
    "postal_code": "42161"
  },
  {
    "village_code": "49787",
    "village": "PEGADINGAN",
    "postal_code": "42161"
  },
  {
    "village_code": "49790",
    "village": "PEJATEN",
    "postal_code": "42161"
  },
  {
    "village_code": "49792",
    "village": "PELAMUNAN",
    "postal_code": "42161"
  },
  {
    "village_code": "49945",
    "village": "SERDANG",
    "postal_code": "42161"
  },
  {
    "village_code": "50180",
    "village": "TELUK TERATE",
    "postal_code": "42161"
  },
  {
    "village_code": "50190",
    "village": "TERATE",
    "postal_code": "42161"
  },
  {
    "village_code": "50200",
    "village": "TONJONG",
    "postal_code": "42161"
  },
  {
    "village_code": "50201",
    "village": "TOYOMERTO",
    "postal_code": "42161"
  },
  {
    "village_code": "50223",
    "village": "WANAYASA",
    "postal_code": "42161"
  }
]