[
  {
    "village_code": "6487",
    "village": "AEK GARUT",
    "postal_code": "22976"
  },
  {
    "village_code": "6525",
    "village": "AEK MUAL",
    "postal_code": "22976"
  },
  {
    "village_code": "7194",
    "village": "BONAN DOLOK",
    "postal_code": "22976"
  },
  {
    "village_code": "8018",
    "village": "HURABA",
    "postal_code": "22976"
  },
  {
    "village_code": "8015",
    "village": "HURABA II",
    "postal_code": "22976"
  },
  {
    "village_code": "8041",
    "village": "HUTA BARINGIN",
    "postal_code": "22976"
  },
  {
    "village_code": "8067",
    "village": "HUTA GODANG MUDA",
    "postal_code": "22976"
  },
  {
    "village_code": "8121",
    "village": "HUTA PULI",
    "postal_code": "22976"
  },
  {
    "village_code": "8131",
    "village": "HUTA RAJA",
    "postal_code": "22976"
  },
  {
    "village_code": "8858",
    "village": "LUMBAN DOLOK",
    "postal_code": "22976"
  },
  {
    "village_code": "8887",
    "village": "LUMBAN PINASA",
    "postal_code": "22976"
  },
  {
    "village_code": "9166",
    "village": "MUARA BATANG ANGKOLA",
    "postal_code": "22976"
  },
  {
    "village_code": "10246",
    "village": "PINTU PADANG JAE",
    "postal_code": "22976"
  },
  {
    "village_code": "10247",
    "village": "PINTU PADANG JULU",
    "postal_code": "22976"
  },
  {
    "village_code": "10811",
    "village": "SIABU",
    "postal_code": "22976"
  },
  {
    "village_code": "10884",
    "village": "SIBARUANG",
    "postal_code": "22976"
  },
  {
    "village_code": "11103",
    "village": "SIHEPENG",
    "postal_code": "22976"
  },
  {
    "village_code": "11252",
    "village": "SIMANGAMBAT",
    "postal_code": "22976"
  },
  {
    "village_code": "11269",
    "village": "SIMANINGGIR",
    "postal_code": "22976"
  },
  {
    "village_code": "11393",
    "village": "SINONOAN",
    "postal_code": "22976"
  },
  {
    "village_code": "11907",
    "village": "TANGGA BOSI",
    "postal_code": "22976"
  },
  {
    "village_code": "11904",
    "village": "TANGGA BOSI II",
    "postal_code": "22976"
  },
  {
    "village_code": "11905",
    "village": "TANGGA BOSI III",
    "postal_code": "22976"
  },
  {
    "village_code": "12025",
    "village": "TANJUNG SIALANG",
    "postal_code": "22976"
  }
]