[
  {
    "village_code": "6494",
    "village": "AEK GUO",
    "postal_code": "22983"
  },
  {
    "village_code": "6499",
    "village": "AEK HOLBUNG",
    "postal_code": "22983"
  },
  {
    "village_code": "6520",
    "village": "AEK MANGGIS",
    "postal_code": "22983"
  },
  {
    "village_code": "6531",
    "village": "AEK NABARA",
    "postal_code": "22983"
  },
  {
    "village_code": "6539",
    "village": "AEK NANGALI",
    "postal_code": "22983"
  },
  {
    "village_code": "6654",
    "village": "AMPUNG JULU",
    "postal_code": "22983"
  },
  {
    "village_code": "6655",
    "village": "AMPUNG PADANG",
    "postal_code": "22983"
  },
  {
    "village_code": "6656",
    "village": "AMPUNG SIALA",
    "postal_code": "22983"
  },
  {
    "village_code": "6861",
    "village": "BANGKELANG",
    "postal_code": "22983"
  },
  {
    "village_code": "6895",
    "village": "BANJAR MALAYU",
    "postal_code": "22983"
  },
  {
    "village_code": "7010",
    "village": "BATU MADINDING",
    "postal_code": "22983"
  },
  {
    "village_code": "7267",
    "village": "BULU SOMA",
    "postal_code": "22983"
  },
  {
    "village_code": "7688",
    "village": "GUO BATU",
    "postal_code": "22983"
  },
  {
    "village_code": "7695",
    "village": "HADANGKAHAN",
    "postal_code": "22983"
  },
  {
    "village_code": "7758",
    "village": "HATUPANGAN",
    "postal_code": "22983"
  },
  {
    "village_code": "8090",
    "village": "HUTA LOBU",
    "postal_code": "22983"
  },
  {
    "village_code": "8846",
    "village": "LUBUK SAMBA",
    "postal_code": "22983"
  },
  {
    "village_code": "9169",
    "village": "MUARA LAMPUNGAN",
    "postal_code": "22983"
  },
  {
    "village_code": "9187",
    "village": "MUARA SOMA",
    "postal_code": "22983"
  },
  {
    "village_code": "10411",
    "village": "RANTOBI",
    "postal_code": "22983"
  },
  {
    "village_code": "10415",
    "village": "RAO RAO",
    "postal_code": "22983"
  },
  {
    "village_code": "11257",
    "village": "SIMANGUNTONG",
    "postal_code": "22983"
  },
  {
    "village_code": "11478",
    "village": "SIPOGU",
    "postal_code": "22983"
  },
  {
    "village_code": "11664",
    "village": "SOPO TINJAK",
    "postal_code": "22983"
  },
  {
    "village_code": "12080",
    "village": "TARLOLA",
    "postal_code": "22983"
  },
  {
    "village_code": "12230",
    "village": "TOMBANG TALUANG",
    "postal_code": "22983"
  }
]