[
  {
    "village_code": "6963",
    "village": "BATAHAN",
    "postal_code": "22994"
  },
  {
    "village_code": "7225",
    "village": "BOTUNG",
    "postal_code": "22994"
  },
  {
    "village_code": "7517",
    "village": "GADING BAIN",
    "postal_code": "22994"
  },
  {
    "village_code": "7679",
    "village": "GUNUNG TUA MS",
    "postal_code": "22994"
  },
  {
    "village_code": "7680",
    "village": "GUNUNG TUA SM",
    "postal_code": "22994"
  },
  {
    "village_code": "8023",
    "village": "HUSOR TOLANG (UNSOR TOLAN)",
    "postal_code": "22994"
  },
  {
    "village_code": "8038",
    "village": "HUTA BARINGIN TB",
    "postal_code": "22994"
  },
  {
    "village_code": "8056",
    "village": "HUTA DANGKA",
    "postal_code": "22994"
  },
  {
    "village_code": "8106",
    "village": "HUTA PADANG SM",
    "postal_code": "22994"
  },
  {
    "village_code": "8120",
    "village": "HUTA PULI",
    "postal_code": "22994"
  },
  {
    "village_code": "8122",
    "village": "HUTA PUNGKUT JAE",
    "postal_code": "22994"
  },
  {
    "village_code": "8123",
    "village": "HUTA PUNGKUT JULU",
    "postal_code": "22994"
  },
  {
    "village_code": "8124",
    "village": "HUTA PUNGKUT TONGA",
    "postal_code": "22994"
  },
  {
    "village_code": "8138",
    "village": "HUTA RIMBARU SM",
    "postal_code": "22994"
  },
  {
    "village_code": "8961",
    "village": "MANAMBIN",
    "postal_code": "22994"
  },
  {
    "village_code": "9168",
    "village": "MUARA BOTUNG",
    "postal_code": "22994"
  },
  {
    "village_code": "9179",
    "village": "MUARA POTAN",
    "postal_code": "22994"
  },
  {
    "village_code": "9180",
    "village": "MUARA PUNGKUT",
    "postal_code": "22994"
  },
  {
    "village_code": "9181",
    "village": "MUARA SALADI",
    "postal_code": "22994"
  },
  {
    "village_code": "9184",
    "village": "MUARA SIAMBAK",
    "postal_code": "22994"
  },
  {
    "village_code": "9453",
    "village": "PADANG BULAN",
    "postal_code": "22994"
  },
  {
    "village_code": "9498",
    "village": "PAGAR GUNUNG",
    "postal_code": "22994"
  },
  {
    "village_code": "9881",
    "village": "PASAR KOTANOPAN",
    "postal_code": "22994"
  },
  {
    "village_code": "9953",
    "village": "PATIALO",
    "postal_code": "22994"
  },
  {
    "village_code": "10492",
    "village": "SABA DOLOK",
    "postal_code": "22994"
  },
  {
    "village_code": "10616",
    "village": "SAYUR MAINCAT",
    "postal_code": "22994"
  },
  {
    "village_code": "10896",
    "village": "SIBIO-BIO",
    "postal_code": "22994"
  },
  {
    "village_code": "11237",
    "village": "SIMANDOLAN",
    "postal_code": "22994"
  },
  {
    "village_code": "11358",
    "village": "SIMPANG TOLANG JAE",
    "postal_code": "22994"
  },
  {
    "village_code": "11359",
    "village": "SIMPANG TOLANG JULU",
    "postal_code": "22994"
  },
  {
    "village_code": "11388",
    "village": "SINGENGU JAE",
    "postal_code": "22994"
  },
  {
    "village_code": "11389",
    "village": "SINGENGU JULU",
    "postal_code": "22994"
  },
  {
    "village_code": "11859",
    "village": "TAMBANG BUSTAK",
    "postal_code": "22994"
  },
  {
    "village_code": "11872",
    "village": "TAMIANG",
    "postal_code": "22994"
  },
  {
    "village_code": "12210",
    "village": "TOBANG",
    "postal_code": "22994"
  },
  {
    "village_code": "12324",
    "village": "UJUNG MARISI",
    "postal_code": "22994"
  },
  {
    "village_code": "12378",
    "village": "USOR TOLANG",
    "postal_code": "22994"
  }
]