[
  {
    "village_code": "7019",
    "village": "BATU MUNDAM",
    "postal_code": "22989"
  },
  {
    "village_code": "8081",
    "village": "HUTA IMBARU",
    "postal_code": "22989"
  },
  {
    "village_code": "8833",
    "village": "LUBUK KAPUNDUNG",
    "postal_code": "22989"
  },
  {
    "village_code": "8832",
    "village": "LUBUK KAPUNDUNG II",
    "postal_code": "22989"
  },
  {
    "village_code": "8994",
    "village": "MANUNCANG",
    "postal_code": "22989"
  },
  {
    "village_code": "9668",
    "village": "PANUNGGULAN",
    "postal_code": "22989"
  },
  {
    "village_code": "9876",
    "village": "PASAR II SINGKUANG",
    "postal_code": "22989"
  },
  {
    "village_code": "10404",
    "village": "RANTAU PANJANG",
    "postal_code": "22989"
  },
  {
    "village_code": "10533",
    "village": "SALE BARU",
    "postal_code": "22989"
  },
  {
    "village_code": "11141",
    "village": "SIKAPAS",
    "postal_code": "22989"
  },
  {
    "village_code": "11392",
    "village": "SINGKUANG I (PASAR I SINGKUANG)",
    "postal_code": "22989"
  },
  {
    "village_code": "11835",
    "village": "TABUYUNG",
    "postal_code": "22989"
  },
  {
    "village_code": "11839",
    "village": "TAGILANG JULU",
    "postal_code": "22989"
  }
]