[
  {
    "village_code": "7111",
    "village": "BERINGIN / BARINGIN JAYA",
    "postal_code": "22978"
  },
  {
    "village_code": "7137",
    "village": "BINANGA",
    "postal_code": "22978"
  },
  {
    "village_code": "8055",
    "village": "HUTA DAME",
    "postal_code": "22978"
  },
  {
    "village_code": "8154",
    "village": "HUTABARGOT SIMALANG",
    "postal_code": "22978"
  },
  {
    "village_code": "8171",
    "village": "HUTANAINGKAN",
    "postal_code": "22978"
  },
  {
    "village_code": "8230",
    "village": "JAMBUR PADANG MATINGGI",
    "postal_code": "22978"
  },
  {
    "village_code": "8324",
    "village": "KAMPUNG BARU",
    "postal_code": "22978"
  },
  {
    "village_code": "9151",
    "village": "MOMPANG JAE",
    "postal_code": "22978"
  },
  {
    "village_code": "9152",
    "village": "MOMPANG JULU",
    "postal_code": "22978"
  },
  {
    "village_code": "10478",
    "village": "RUMBIO",
    "postal_code": "22978"
  },
  {
    "village_code": "11274",
    "village": "SIMANONDONG",
    "postal_code": "22978"
  },
  {
    "village_code": "11663",
    "village": "SOPO SORIK",
    "postal_code": "22978"
  },
  {
    "village_code": "11784",
    "village": "SUKARAMAI",
    "postal_code": "22978"
  },
  {
    "village_code": "11981",
    "village": "TANJUNG MOMPANG",
    "postal_code": "22978"
  },
  {
    "village_code": "12236",
    "village": "TOR BANUA RAJA",
    "postal_code": "22978"
  }
]