[
  {
    "village_code": "52206",
    "village": "BATU CERMIN",
    "postal_code": "86754"
  },
  {
    "village_code": "52637",
    "village": "GOLO BILAS",
    "postal_code": "86754"
  },
  {
    "village_code": "52668",
    "village": "GOLO MORI",
    "postal_code": "86754"
  },
  {
    "village_code": "52686",
    "village": "GOLO PONGKOR",
    "postal_code": "86754"
  },
  {
    "village_code": "52719",
    "village": "GORONTALO",
    "postal_code": "86754"
  },
  {
    "village_code": "53058",
    "village": "KOMODO",
    "postal_code": "86754"
  },
  {
    "village_code": "53133",
    "village": "LABUAN BAJO",
    "postal_code": "86754"
  },
  {
    "village_code": "53445",
    "village": "MACANG TANGGAR",
    "postal_code": "86754"
  },
  {
    "village_code": "53854",
    "village": "NGGORANG",
    "postal_code": "86754"
  },
  {
    "village_code": "54169",
    "village": "PAPA GARANG",
    "postal_code": "86754"
  },
  {
    "village_code": "54179",
    "village": "PASIR PANJANG",
    "postal_code": "86754"
  },
  {
    "village_code": "54181",
    "village": "PASIR PUTIH",
    "postal_code": "86754"
  },
  {
    "village_code": "54767",
    "village": "TIWU NAMPAR",
    "postal_code": "86754"
  },
  {
    "village_code": "54938",
    "village": "WAE KELAMBU",
    "postal_code": "86754"
  },
  {
    "village_code": "55030",
    "village": "WARLOKA",
    "postal_code": "86754"
  },
  {
    "village_code": "55056",
    "village": "WATU NGGELEK",
    "postal_code": "86754"
  }
]