[
  {
    "village_code": "52257",
    "village": "BENTENG CURU",
    "postal_code": "86752"
  },
  {
    "village_code": "52409",
    "village": "COAL",
    "postal_code": "86752"
  },
  {
    "village_code": "52418",
    "village": "COMPANG KULES",
    "postal_code": "86752"
  },
  {
    "village_code": "52427",
    "village": "COMPANG SUKA",
    "postal_code": "86752"
  },
  {
    "village_code": "52654",
    "village": "GOLO LEWE",
    "postal_code": "86752"
  },
  {
    "village_code": "52689",
    "village": "GOLO RIWU",
    "postal_code": "86752"
  },
  {
    "village_code": "52696",
    "village": "GOLO RUU",
    "postal_code": "86752"
  },
  {
    "village_code": "52706",
    "village": "GOLO WEDONG",
    "postal_code": "86752"
  },
  {
    "village_code": "53039",
    "village": "KOLANG",
    "postal_code": "86752"
  },
  {
    "village_code": "53239",
    "village": "LAWI",
    "postal_code": "86752"
  },
  {
    "village_code": "53353",
    "village": "LEWUR",
    "postal_code": "86752"
  },
  {
    "village_code": "53752",
    "village": "NANTAL",
    "postal_code": "86752"
  },
  {
    "village_code": "54160",
    "village": "PANGGA",
    "postal_code": "86752"
  },
  {
    "village_code": "54377",
    "village": "RANGGU",
    "postal_code": "86752"
  },
  {
    "village_code": "54483",
    "village": "SAMA",
    "postal_code": "86752"
  },
  {
    "village_code": "54727",
    "village": "TENGKU",
    "postal_code": "86752"
  },
  {
    "village_code": "54840",
    "village": "TUENG",
    "postal_code": "86752"
  }
]