[
  {
    "village_code": "52444",
    "village": "DALENG",
    "postal_code": "86753"
  },
  {
    "village_code": "53837",
    "village": "NGANCAR",
    "postal_code": "86753"
  },
  {
    "village_code": "54235",
    "village": "POCO RUTANG",
    "postal_code": "86753"
  },
  {
    "village_code": "54247",
    "village": "PONDO",
    "postal_code": "86753"
  },
  {
    "village_code": "54253",
    "village": "PONG MAJOK",
    "postal_code": "86753"
  },
  {
    "village_code": "54262",
    "village": "PONTO ARA",
    "postal_code": "86753"
  },
  {
    "village_code": "54559",
    "village": "SIRU",
    "postal_code": "86753"
  },
  {
    "village_code": "54665",
    "village": "TANGGE",
    "postal_code": "86753"
  },
  {
    "village_code": "54930",
    "village": "WAE BANGKA",
    "postal_code": "86753"
  },
  {
    "village_code": "54937",
    "village": "WAE KANTA",
    "postal_code": "86753"
  },
  {
    "village_code": "54948",
    "village": "WAE WAKO",
    "postal_code": "86753"
  }
]