[
  {
    "village_code": "51255",
    "village": "KALIMANTONG",
    "postal_code": "84455"
  },
  {
    "village_code": "51390",
    "village": "LAMPOK",
    "postal_code": "84455"
  },
  {
    "village_code": "51391",
    "village": "LAMUNTET",
    "postal_code": "84455"
  },
  {
    "village_code": "51469",
    "village": "MANEMENG",
    "postal_code": "84455"
  },
  {
    "village_code": "51494",
    "village": "MATAIYANG",
    "postal_code": "84455"
  },
  {
    "village_code": "51543",
    "village": "MOTENG",
    "postal_code": "84455"
  },
  {
    "village_code": "51551",
    "village": "MUJAHIDDIN",
    "postal_code": "84455"
  },
  {
    "village_code": "51557",
    "village": "MURA",
    "postal_code": "84455"
  },
  {
    "village_code": "51733",
    "village": "RARAK RONGES",
    "postal_code": "84455"
  },
  {
    "village_code": "51843",
    "village": "SEMINAR SALIT",
    "postal_code": "84455"
  },
  {
    "village_code": "51986",
    "village": "TEPAS SEPAKAT",
    "postal_code": "84455"
  }
]