[
  {
    "village_code": "16990",
    "village": "AIR GADING",
    "postal_code": "32121"
  },
  {
    "village_code": "17155",
    "village": "BATU KUNING",
    "postal_code": "32121"
  },
  {
    "village_code": "17159",
    "village": "BATU PUTIH",
    "postal_code": "32121"
  },
  {
    "village_code": "17626",
    "village": "KARANG AGUNG",
    "postal_code": "32121"
  },
  {
    "village_code": "17660",
    "village": "KARANG ENDAH",
    "postal_code": "32121"
  },
  {
    "village_code": "17938",
    "village": "LAYA",
    "postal_code": "32125"
  },
  {
    "village_code": "18794",
    "village": "PUSAR",
    "postal_code": "32126"
  },
  {
    "village_code": "18917",
    "village": "SAUNG NAGA",
    "postal_code": "32124"
  },
  {
    "village_code": "19267",
    "village": "SUKAMAJU",
    "postal_code": "32124"
  },
  {
    "village_code": "19532",
    "village": "TALANG JAWA",
    "postal_code": "32122"
  },
  {
    "village_code": "19616",
    "village": "TANJUNG AGUNG",
    "postal_code": "32123"
  },
  {
    "village_code": "19705",
    "village": "TANJUNG KARANG",
    "postal_code": "32121"
  }
]