[
  {
    "village_code": "17201",
    "village": "BELIMBING",
    "postal_code": "32191"
  },
  {
    "village_code": "17245",
    "village": "BINDU",
    "postal_code": "32191"
  },
  {
    "village_code": "17305",
    "village": "BUNGLAI",
    "postal_code": "32191"
  },
  {
    "village_code": "17401",
    "village": "DURIAN",
    "postal_code": "32191"
  },
  {
    "village_code": "17615",
    "village": "KAMPAI",
    "postal_code": "32191"
  },
  {
    "village_code": "17658",
    "village": "KARANG DAPO",
    "postal_code": "32191"
  },
  {
    "village_code": "17774",
    "village": "KEDATON",
    "postal_code": "32191"
  },
  {
    "village_code": "17770",
    "village": "KEDATON TIMUR",
    "postal_code": "32191"
  },
  {
    "village_code": "17776",
    "village": "KEDONDONG",
    "postal_code": "32191"
  },
  {
    "village_code": "17822",
    "village": "KEPAYANG",
    "postal_code": "32191"
  },
  {
    "village_code": "18012",
    "village": "LUBUK KEMILING",
    "postal_code": "32191"
  },
  {
    "village_code": "18044",
    "village": "LUBUK RUKAM",
    "postal_code": "32191"
  },
  {
    "village_code": "18086",
    "village": "MAKARTI JAYA",
    "postal_code": "32191"
  },
  {
    "village_code": "18088",
    "village": "MAKARTI TAMA",
    "postal_code": "32191"
  },
  {
    "village_code": "18203",
    "village": "MENDALA",
    "postal_code": "32191"
  },
  {
    "village_code": "18227",
    "village": "MITRA KENCANA",
    "postal_code": "32191"
  },
  {
    "village_code": "18550",
    "village": "PANTI JAYA",
    "postal_code": "32191"
  },
  {
    "village_code": "18659",
    "village": "PENILIKAN / MITRA OGAN",
    "postal_code": "32191"
  },
  {
    "village_code": "18665",
    "village": "PENINJAUAN",
    "postal_code": "32191"
  },
  {
    "village_code": "18831",
    "village": "RANTAU PANJANG",
    "postal_code": "32191"
  },
  {
    "village_code": "18920",
    "village": "SAUNG NAGA",
    "postal_code": "32191"
  },
  {
    "village_code": "19089",
    "village": "SINAR KEDATON",
    "postal_code": "32191"
  },
  {
    "village_code": "19125",
    "village": "SP TIGA",
    "postal_code": "32191"
  },
  {
    "village_code": "19230",
    "village": "SUKA PINDAH",
    "postal_code": "32191"
  }
]