[
  {
    "village_code": "74964",
    "village": "AMPERA",
    "postal_code": "99371"
  },
  {
    "village_code": "75046",
    "village": "ARARE",
    "postal_code": "99371"
  },
  {
    "village_code": "75533",
    "village": "DABE",
    "postal_code": "99371"
  },
  {
    "village_code": "75532",
    "village": "DABE II",
    "postal_code": "99371"
  },
  {
    "village_code": "75869",
    "village": "FITO",
    "postal_code": "99371"
  },
  {
    "village_code": "76569",
    "village": "KEDER II",
    "postal_code": "99371"
  },
  {
    "village_code": "77551",
    "village": "NENGKE",
    "postal_code": "99371"
  },
  {
    "village_code": "77550",
    "village": "NENGKE II (NENGKE BARU)",
    "postal_code": "99371"
  },
  {
    "village_code": "78523",
    "village": "TABRAWAR",
    "postal_code": "99371"
  },
  {
    "village_code": "78676",
    "village": "TIMRON",
    "postal_code": "99371"
  },
  {
    "village_code": "78900",
    "village": "VINYABOR",
    "postal_code": "99371"
  }
]