[
  {
    "village_code": "75071",
    "village": "ARMO",
    "postal_code": "99373"
  },
  {
    "village_code": "75181",
    "village": "BAGAISERWAR",
    "postal_code": "99373"
  },
  {
    "village_code": "75183",
    "village": "BAGAISEWAR II",
    "postal_code": "99373"
  },
  {
    "village_code": "76972",
    "village": "LEMBAH NEIDAM",
    "postal_code": "99373"
  },
  {
    "village_code": "76987",
    "village": "LIKI",
    "postal_code": "99373"
  },
  {
    "village_code": "77195",
    "village": "MARARENA",
    "postal_code": "99373"
  },
  {
    "village_code": "78015",
    "village": "PULAU ARMO",
    "postal_code": "99373"
  },
  {
    "village_code": "78192",
    "village": "SARMI",
    "postal_code": "99373"
  },
  {
    "village_code": "78193",
    "village": "SARMO",
    "postal_code": "99373"
  },
  {
    "village_code": "78217",
    "village": "SAWAR",
    "postal_code": "99373"
  },
  {
    "village_code": "78604",
    "village": "TEFAREWAR",
    "postal_code": "99373"
  }
]