[
  {
    "village_code": "75443",
    "village": "BORA BORA",
    "postal_code": "99372"
  },
  {
    "village_code": "75608",
    "village": "DENANDER",
    "postal_code": "99372"
  },
  {
    "village_code": "75607",
    "village": "DENANDER DUA / II",
    "postal_code": "99372"
  },
  {
    "village_code": "76754",
    "village": "KONDERJAN",
    "postal_code": "99372"
  },
  {
    "village_code": "77746",
    "village": "OMTE (KWEPKE)",
    "postal_code": "99372"
  },
  {
    "village_code": "78112",
    "village": "SAFRON TANE DUA / II",
    "postal_code": "99372"
  },
  {
    "village_code": "78125",
    "village": "SAKRON TANE",
    "postal_code": "99372"
  },
  {
    "village_code": "78142",
    "village": "SAMANENTE",
    "postal_code": "99372"
  },
  {
    "village_code": "78722",
    "village": "TOGONFO (TEMINABOR)",
    "postal_code": "99372"
  },
  {
    "village_code": "78905",
    "village": "WAAF",
    "postal_code": "99372"
  },
  {
    "village_code": "78904",
    "village": "WAAF DUA / II",
    "postal_code": "99372"
  }
]