[
  {
    "village_code": "40407",
    "village": "BALEREJO",
    "postal_code": "63382"
  },
  {
    "village_code": "41054",
    "village": "BOGEM",
    "postal_code": "63382"
  },
  {
    "village_code": "41845",
    "village": "GARON",
    "postal_code": "63382"
  },
  {
    "village_code": "41982",
    "village": "GENENGAN",
    "postal_code": "63382"
  },
  {
    "village_code": "42033",
    "village": "GIRIPURNO",
    "postal_code": "63382"
  },
  {
    "village_code": "42279",
    "village": "JAMBANGAN",
    "postal_code": "63382"
  },
  {
    "village_code": "43028",
    "village": "KARANGREJO",
    "postal_code": "63382"
  },
  {
    "village_code": "43139",
    "village": "KAWEDANAN",
    "postal_code": "63382"
  },
  {
    "village_code": "44321",
    "village": "MANGUNREJO",
    "postal_code": "63382"
  },
  {
    "village_code": "44596",
    "village": "MOJOREJO",
    "postal_code": "63382"
  },
  {
    "village_code": "44768",
    "village": "NGADIREJO",
    "postal_code": "63382"
  },
  {
    "village_code": "44873",
    "village": "NGENTEP",
    "postal_code": "63382"
  },
  {
    "village_code": "45032",
    "village": "NGUNUT",
    "postal_code": "63382"
  },
  {
    "village_code": "45814",
    "village": "POJOK",
    "postal_code": "63382"
  },
  {
    "village_code": "46186",
    "village": "REJOSARI",
    "postal_code": "63382"
  },
  {
    "village_code": "46354",
    "village": "SAMPUNG",
    "postal_code": "63382"
  },
  {
    "village_code": "46532",
    "village": "SELOREJO",
    "postal_code": "63382"
  },
  {
    "village_code": "47072",
    "village": "SUGIHREJO",
    "postal_code": "63382"
  },
  {
    "village_code": "48139",
    "village": "TLADAN",
    "postal_code": "63382"
  },
  {
    "village_code": "48283",
    "village": "TULUNG",
    "postal_code": "63382"
  }
]