[
  {
    "village_code": "40549",
    "village": "BANGUNASRI",
    "postal_code": "63395"
  },
  {
    "village_code": "40601",
    "village": "BANJAREJO",
    "postal_code": "63137"
  },
  {
    "village_code": "40997",
    "village": "BLARAN",
    "postal_code": "63395"
  },
  {
    "village_code": "41064",
    "village": "BOGOREJO",
    "postal_code": "63395"
  },
  {
    "village_code": "42568",
    "village": "JONGGRANG",
    "postal_code": "63395"
  },
  {
    "village_code": "43049",
    "village": "KARANGSONO",
    "postal_code": "63395"
  },
  {
    "village_code": "43747",
    "village": "KLAGEN",
    "postal_code": "63395"
  },
  {
    "village_code": "44299",
    "village": "MANGGE",
    "postal_code": "63395"
  },
  {
    "village_code": "44332",
    "village": "MANJUNG",
    "postal_code": "63395"
  },
  {
    "village_code": "45025",
    "village": "NGUMPUL",
    "postal_code": "63395"
  },
  {
    "village_code": "45359",
    "village": "PANGGUNG",
    "postal_code": "63395"
  },
  {
    "village_code": "46030",
    "village": "PURWODADI",
    "postal_code": "63395"
  },
  {
    "village_code": "46173",
    "village": "REJOMULYO",
    "postal_code": "63395"
  },
  {
    "village_code": "47937",
    "village": "TEBON",
    "postal_code": "63395"
  }
]