[
  {
    "village_code": "40729",
    "village": "BARON",
    "postal_code": "63319"
  },
  {
    "village_code": "41234",
    "village": "BULUKERTO",
    "postal_code": "63315"
  },
  {
    "village_code": "41346",
    "village": "CANDIREJO",
    "postal_code": "63319"
  },
  {
    "village_code": "43195",
    "village": "KEBONAGUNG",
    "postal_code": "63317"
  },
  {
    "village_code": "43575",
    "village": "KEPOLOREJO",
    "postal_code": "63311"
  },
  {
    "village_code": "44252",
    "village": "MAGETAN",
    "postal_code": "63319"
  },
  {
    "village_code": "44308",
    "village": "MANGKUJAYAN",
    "postal_code": "63316"
  },
  {
    "village_code": "46064",
    "village": "PURWOSARI",
    "postal_code": "63319"
  },
  {
    "village_code": "46221",
    "village": "RINGINAGUNG",
    "postal_code": "63319"
  },
  {
    "village_code": "46538",
    "village": "SELOSARI",
    "postal_code": "63313"
  },
  {
    "village_code": "47238",
    "village": "SUKOWINANGUN",
    "postal_code": "63319"
  },
  {
    "village_code": "47733",
    "village": "TAMBAKREJO",
    "postal_code": "63319"
  },
  {
    "village_code": "47766",
    "village": "TAMBRAN",
    "postal_code": "63318"
  },
  {
    "village_code": "47911",
    "village": "TAWANGANOM",
    "postal_code": "63312"
  }
]