[
  {
    "village_code": "40795",
    "village": "BAYEM TAMAN",
    "postal_code": "63395"
  },
  {
    "village_code": "40796",
    "village": "BAYEM WETAN",
    "postal_code": "63395"
  },
  {
    "village_code": "42198",
    "village": "GUNUNGAN",
    "postal_code": "63395"
  },
  {
    "village_code": "42269",
    "village": "JAJAR",
    "postal_code": "63395"
  },
  {
    "village_code": "42493",
    "village": "JERUK",
    "postal_code": "63395"
  },
  {
    "village_code": "43001",
    "village": "KARANGMOJO",
    "postal_code": "63395"
  },
  {
    "village_code": "43086",
    "village": "KARTOHARJO (KERTOHARJO)",
    "postal_code": "63395"
  },
  {
    "village_code": "43824",
    "village": "KLURAHAN",
    "postal_code": "63395"
  },
  {
    "village_code": "44660",
    "village": "MRAHU",
    "postal_code": "63395"
  },
  {
    "village_code": "44854",
    "village": "NGELANG",
    "postal_code": "63395"
  },
  {
    "village_code": "45588",
    "village": "PENCOL",
    "postal_code": "63395"
  },
  {
    "village_code": "47233",
    "village": "SUKOWIDI",
    "postal_code": "63395"
  }
]