[
  {
    "village_code": "41058",
    "village": "BOGOARUM",
    "postal_code": "63361"
  },
  {
    "village_code": "41224",
    "village": "BULUGUNUNG",
    "postal_code": "63361"
  },
  {
    "village_code": "41226",
    "village": "BULUHARJO",
    "postal_code": "63361"
  },
  {
    "village_code": "41499",
    "village": "DADI",
    "postal_code": "63361"
  },
  {
    "village_code": "44815",
    "village": "NGANCAR",
    "postal_code": "63361"
  },
  {
    "village_code": "45040",
    "village": "NITIKAN",
    "postal_code": "63361"
  },
  {
    "village_code": "45088",
    "village": "PACALAN",
    "postal_code": "63361"
  },
  {
    "village_code": "45730",
    "village": "PLAOSAN",
    "postal_code": "63361"
  },
  {
    "village_code": "45780",
    "village": "PLUMPUNG",
    "postal_code": "63361"
  },
  {
    "village_code": "46010",
    "village": "PUNTUKDORO",
    "postal_code": "63361"
  },
  {
    "village_code": "46130",
    "village": "RANDUGEDE",
    "postal_code": "63361"
  },
  {
    "village_code": "46382",
    "village": "SARANGAN",
    "postal_code": "63361"
  },
  {
    "village_code": "46622",
    "village": "SENDANGAGUNG",
    "postal_code": "63361"
  },
  {
    "village_code": "46773",
    "village": "SIDOMUKTI",
    "postal_code": "63361"
  },
  {
    "village_code": "47339",
    "village": "SUMBERAGUNG",
    "postal_code": "63361"
  }
]