[
  {
    "village_code": "41736",
    "village": "DUYUNG",
    "postal_code": "63383"
  },
  {
    "village_code": "42560",
    "village": "JOMBLANG",
    "postal_code": "63383"
  },
  {
    "village_code": "43599",
    "village": "KEPUHREJO",
    "postal_code": "63383"
  },
  {
    "village_code": "43607",
    "village": "KERANG",
    "postal_code": "63383"
  },
  {
    "village_code": "43617",
    "village": "KERIK",
    "postal_code": "63383"
  },
  {
    "village_code": "43737",
    "village": "KIRINGAN",
    "postal_code": "63383"
  },
  {
    "village_code": "44009",
    "village": "KUWONHARJO",
    "postal_code": "63383"
  },
  {
    "village_code": "44233",
    "village": "MADIGONDO",
    "postal_code": "63383"
  },
  {
    "village_code": "46426",
    "village": "SAWOJAJAR",
    "postal_code": "63383"
  },
  {
    "village_code": "47622",
    "village": "TAKERAN",
    "postal_code": "63383"
  },
  {
    "village_code": "47918",
    "village": "TAWANGREJO",
    "postal_code": "63383"
  },
  {
    "village_code": "48377",
    "village": "WADUK",
    "postal_code": "63383"
  }
]