[
  {
    "village_code": "16930",
    "village": "1 ILIR",
    "postal_code": "30117"
  },
  {
    "village_code": "16932",
    "village": "10 ILIR",
    "postal_code": "30111"
  },
  {
    "village_code": "16933",
    "village": "11 ILIR",
    "postal_code": "30112"
  },
  {
    "village_code": "16947",
    "village": "2 ILIR",
    "postal_code": "30118"
  },
  {
    "village_code": "16961",
    "village": "3 ILIR",
    "postal_code": "30116"
  },
  {
    "village_code": "16967",
    "village": "5 ILIR",
    "postal_code": "30115"
  },
  {
    "village_code": "16970",
    "village": "8 ILIR",
    "postal_code": "30114"
  },
  {
    "village_code": "16972",
    "village": "9 ILIR",
    "postal_code": "30113"
  },
  {
    "village_code": "17393",
    "village": "DUKU",
    "postal_code": "30111"
  },
  {
    "village_code": "17917",
    "village": "KUTO BATU",
    "postal_code": "30111"
  },
  {
    "village_code": "17937",
    "village": "LAWANG KIDUL",
    "postal_code": "30111"
  },
  {
    "village_code": "19410",
    "village": "SUNGAI BUAH",
    "postal_code": "30111"
  }
]