[
  {
    "village_code": "52290",
    "village": "BIDOA",
    "postal_code": "86464"
  },
  {
    "village_code": "52458",
    "village": "DEGALEA",
    "postal_code": "86464"
  },
  {
    "village_code": "53027",
    "village": "KODAUTE",
    "postal_code": "86464"
  },
  {
    "village_code": "53086",
    "village": "KOTAKEO",
    "postal_code": "86464"
  },
  {
    "village_code": "53084",
    "village": "KOTAKEO DUA",
    "postal_code": "86464"
  },
  {
    "village_code": "53085",
    "village": "KOTAKEO SATU",
    "postal_code": "86464"
  },
  {
    "village_code": "53746",
    "village": "NANGARORO",
    "postal_code": "86464"
  },
  {
    "village_code": "53772",
    "village": "NATAUTE",
    "postal_code": "86464"
  },
  {
    "village_code": "54142",
    "village": "PAGOMOGO",
    "postal_code": "86464"
  },
  {
    "village_code": "54238",
    "village": "PODENURA",
    "postal_code": "86464"
  },
  {
    "village_code": "54437",
    "village": "RITI",
    "postal_code": "86464"
  },
  {
    "village_code": "54793",
    "village": "TONGGO",
    "postal_code": "86464"
  },
  {
    "village_code": "54889",
    "village": "ULUPULU",
    "postal_code": "86464"
  },
  {
    "village_code": "54888",
    "village": "ULUPULU I",
    "postal_code": "86464"
  },
  {
    "village_code": "54923",
    "village": "UTETOTO",
    "postal_code": "86464"
  },
  {
    "village_code": "55149",
    "village": "WOEDOA",
    "postal_code": "86464"
  },
  {
    "village_code": "55151",
    "village": "WOEWUTU",
    "postal_code": "86464"
  },
  {
    "village_code": "55153",
    "village": "WOKODEKORORO",
    "postal_code": "86464"
  },
  {
    "village_code": "55154",
    "village": "WOKOWOE",
    "postal_code": "86464"
  }
]