[
  {
    "village_code": "17033",
    "village": "ARGO MULYO",
    "postal_code": "32385"
  },
  {
    "village_code": "17119",
    "village": "BANJAR REJO",
    "postal_code": "32382"
  },
  {
    "village_code": "17464",
    "village": "GIRI MULYO",
    "postal_code": "32385"
  },
  {
    "village_code": "17712",
    "village": "KARSA JAYA",
    "postal_code": "32385"
  },
  {
    "village_code": "17723",
    "village": "KARYA MAKMUR",
    "postal_code": "32385"
  },
  {
    "village_code": "18075",
    "village": "MADU GONDO",
    "postal_code": "32385"
  },
  {
    "village_code": "18134",
    "village": "MARGO KOYO",
    "postal_code": "32382"
  },
  {
    "village_code": "18511",
    "village": "PANCA TUNGGAL",
    "postal_code": "32382"
  },
  {
    "village_code": "18851",
    "village": "REJOSARI",
    "postal_code": "32382"
  },
  {
    "village_code": "18850",
    "village": "REJOSARI JAYA",
    "postal_code": "32385"
  },
  {
    "village_code": "19041",
    "village": "SIDOREJO",
    "postal_code": "32382"
  },
  {
    "village_code": "19347",
    "village": "SUMBER AGUNG",
    "postal_code": "32382"
  },
  {
    "village_code": "20061",
    "village": "WINDUSARI",
    "postal_code": "32385"
  }
]