[
  {
    "village_code": "17104",
    "village": "BANGUN HARJO",
    "postal_code": "32361"
  },
  {
    "village_code": "17134",
    "village": "BANYUMAS ASRI",
    "postal_code": "32361"
  },
  {
    "village_code": "17705",
    "village": "KARANG TENGAH",
    "postal_code": "32361"
  },
  {
    "village_code": "17777",
    "village": "KEDU",
    "postal_code": "32361"
  },
  {
    "village_code": "17779",
    "village": "KEDUNG REJO",
    "postal_code": "32361"
  },
  {
    "village_code": "17897",
    "village": "KUMPUL REJO",
    "postal_code": "32361"
  },
  {
    "village_code": "17964",
    "village": "LIMANSARI",
    "postal_code": "32361"
  },
  {
    "village_code": "18224",
    "village": "METRO REJO",
    "postal_code": "32361"
  },
  {
    "village_code": "18651",
    "village": "PENGANDONAN",
    "postal_code": "32361"
  },
  {
    "village_code": "18848",
    "village": "REJODADI",
    "postal_code": "32361"
  },
  {
    "village_code": "18883",
    "village": "ROWODADI",
    "postal_code": "32361"
  },
  {
    "village_code": "19138",
    "village": "SRI KATON",
    "postal_code": "32361"
  },
  {
    "village_code": "19205",
    "village": "SUKA MAJU",
    "postal_code": "32361"
  },
  {
    "village_code": "19335",
    "village": "SUKODADI",
    "postal_code": "32361"
  },
  {
    "village_code": "19338",
    "village": "SUKOHARJO",
    "postal_code": "32361"
  },
  {
    "village_code": "19353",
    "village": "SUMBER ASRI",
    "postal_code": "32361"
  },
  {
    "village_code": "19358",
    "village": "SUMBER HARJO",
    "postal_code": "32361"
  },
  {
    "village_code": "19380",
    "village": "SUMBER MULYO",
    "postal_code": "32361"
  },
  {
    "village_code": "19401",
    "village": "SUMEDANG SARI",
    "postal_code": "32361"
  },
  {
    "village_code": "19581",
    "village": "TAMBAK BOYO",
    "postal_code": "32361"
  },
  {
    "village_code": "19834",
    "village": "TANJUNGMAS",
    "postal_code": "32361"
  },
  {
    "village_code": "19836",
    "village": "TANJUNGSARI",
    "postal_code": "32361"
  },
  {
    "village_code": "19872",
    "village": "TEKOREJO (TOKOREJO)",
    "postal_code": "32361"
  }
]