[
  {
    "village_code": "17322",
    "village": "CAMPANG TIGA ILIR",
    "postal_code": "32384"
  },
  {
    "village_code": "17323",
    "village": "CAMPANG TIGA JAYA",
    "postal_code": "32384"
  },
  {
    "village_code": "17324",
    "village": "CAMPANG TIGA ULU",
    "postal_code": "32384"
  },
  {
    "village_code": "17333",
    "village": "CEMPAKA",
    "postal_code": "32384"
  },
  {
    "village_code": "17478",
    "village": "GUNUNG BATU",
    "postal_code": "32384"
  },
  {
    "village_code": "17486",
    "village": "GUNUNG JATI",
    "postal_code": "32384"
  },
  {
    "village_code": "17532",
    "village": "HARISAN JAYA",
    "postal_code": "32384"
  },
  {
    "village_code": "17905",
    "village": "KURIPAN",
    "postal_code": "32384"
  },
  {
    "village_code": "18195",
    "village": "MELUAI INDAH",
    "postal_code": "32384"
  },
  {
    "village_code": "18385",
    "village": "NEGERI SAKTI",
    "postal_code": "32384"
  },
  {
    "village_code": "19241",
    "village": "SUKABUMI",
    "postal_code": "32384"
  },
  {
    "village_code": "19299",
    "village": "SUKARAJA",
    "postal_code": "32384"
  },
  {
    "village_code": "19999",
    "village": "ULAK BARU",
    "postal_code": "32384"
  }
]