[
  {
    "village_code": "6605",
    "village": "AIR GENTING",
    "postal_code": "21272"
  },
  {
    "village_code": "6613",
    "village": "AIR TELUK HESSA",
    "postal_code": "21272"
  },
  {
    "village_code": "7356",
    "village": "DANAU SIJABUT",
    "postal_code": "21272"
  },
  {
    "village_code": "7774",
    "village": "HESSA AIR GENTING",
    "postal_code": "21272"
  },
  {
    "village_code": "7775",
    "village": "HESSA PERLOMPONGAN",
    "postal_code": "21272"
  },
  {
    "village_code": "10119",
    "village": "PERKEBUNAN AIR BATU I-II",
    "postal_code": "21272"
  },
  {
    "village_code": "10120",
    "village": "PERKEBUNAN AIR BATU III-IV",
    "postal_code": "21272"
  },
  {
    "village_code": "10165",
    "village": "PERKEBUNAN PULAHAN",
    "postal_code": "21272"
  },
  {
    "village_code": "10236",
    "village": "PINANGGIRIPAN",
    "postal_code": "21272"
  },
  {
    "village_code": "10294",
    "village": "PULAU PULE",
    "postal_code": "21272"
  },
  {
    "village_code": "10731",
    "village": "SEI / SUNGAI ALIM ULU",
    "postal_code": "21272"
  },
  {
    "village_code": "11127",
    "village": "SIJABUT TERATAI",
    "postal_code": "21272"
  }
]