[
  {
    "village_code": "20118",
    "village": "AIR NAPAL",
    "postal_code": "38373"
  },
  {
    "village_code": "20367",
    "village": "DUSUN PUKUR",
    "postal_code": "38373"
  },
  {
    "village_code": "20685",
    "village": "LUBUK TANJUNG",
    "postal_code": "38373"
  },
  {
    "village_code": "20900",
    "village": "PASAR BEMBA",
    "postal_code": "38373"
  },
  {
    "village_code": "20905",
    "village": "PASAR KERKAP",
    "postal_code": "38373"
  },
  {
    "village_code": "20915",
    "village": "PASAR PALIK",
    "postal_code": "38373"
  },
  {
    "village_code": "20925",
    "village": "PASAR TEBAT",
    "postal_code": "38373"
  },
  {
    "village_code": "21093",
    "village": "SELUBUK",
    "postal_code": "38373"
  },
  {
    "village_code": "21342",
    "village": "TALANG JARANG",
    "postal_code": "38373"
  },
  {
    "village_code": "21350",
    "village": "TALANG KERING",
    "postal_code": "38373"
  },
  {
    "village_code": "21512",
    "village": "TEBING KANDANG",
    "postal_code": "38373"
  },
  {
    "village_code": "21531",
    "village": "TEPI LAUT (TEPIAN LAUT)",
    "postal_code": "38373"
  }
]