[
  {
    "village_code": "196",
    "village": "ALUE PADEE",
    "postal_code": "23766"
  },
  {
    "village_code": "210",
    "village": "ALUE PISANG",
    "postal_code": "23766"
  },
  {
    "village_code": "876",
    "village": "BLANG MAKMUR",
    "postal_code": "23766"
  },
  {
    "village_code": "925",
    "village": "BLANG PANYANG",
    "postal_code": "23766"
  },
  {
    "village_code": "1838",
    "village": "GELANGGANG GAJAH",
    "postal_code": "23766"
  },
  {
    "village_code": "2050",
    "village": "IE MAMEH",
    "postal_code": "23766"
  },
  {
    "village_code": "2286",
    "village": "KAMPUNG TENGAH",
    "postal_code": "23766"
  },
  {
    "village_code": "2471",
    "village": "KEUDEE BARO",
    "postal_code": "23766"
  },
  {
    "village_code": "2552",
    "village": "KOTA BAHAGIA",
    "postal_code": "23766"
  },
  {
    "village_code": "2585",
    "village": "KRUENG BATEE",
    "postal_code": "23766"
  },
  {
    "village_code": "2680",
    "village": "KUALA TERUBUE",
    "postal_code": "23766"
  },
  {
    "village_code": "2985",
    "village": "LAMA TUHA",
    "postal_code": "23766"
  },
  {
    "village_code": "3336",
    "village": "LHOK GAJAH",
    "postal_code": "23766"
  },
  {
    "village_code": "3409",
    "village": "LHUNG GELUMPANG",
    "postal_code": "23766"
  },
  {
    "village_code": "4130",
    "village": "MUKA BLANG",
    "postal_code": "23766"
  },
  {
    "village_code": "4255",
    "village": "PADANG SIKABU",
    "postal_code": "23766"
  },
  {
    "village_code": "4431",
    "village": "PANTO CUT",
    "postal_code": "23766"
  },
  {
    "village_code": "4482",
    "village": "PASAR KUTA BAHAGIA",
    "postal_code": "23766"
  }
]