[
  {
    "village_code": "675",
    "village": "BEURINGEN (BERINGIN)",
    "postal_code": "24186"
  },
  {
    "village_code": "792",
    "village": "BLANG CUT",
    "postal_code": "24186"
  },
  {
    "village_code": "1026",
    "village": "BUANGAN",
    "postal_code": "24186"
  },
  {
    "village_code": "1550",
    "village": "DAYAH HUSEN (USIEN)",
    "postal_code": "24186"
  },
  {
    "village_code": "1555",
    "village": "DAYAH KRUET",
    "postal_code": "24186"
  },
  {
    "village_code": "1713",
    "village": "GAMPONG BLANG",
    "postal_code": "24186"
  },
  {
    "village_code": "1903",
    "village": "GEUNTENG",
    "postal_code": "24186"
  },
  {
    "village_code": "3140",
    "village": "LANCOK",
    "postal_code": "24186"
  },
  {
    "village_code": "3390",
    "village": "LHOK SANDENG",
    "postal_code": "24186"
  },
  {
    "village_code": "3473",
    "village": "LUENG BIMBA",
    "postal_code": "24186"
  },
  {
    "village_code": "3877",
    "village": "MEUNASAH BIE",
    "postal_code": "24186"
  },
  {
    "village_code": "3925",
    "village": "MEUNASAH JURONG",
    "postal_code": "24186"
  },
  {
    "village_code": "3944",
    "village": "MEUNASAH KULAM RENTANG",
    "postal_code": "24186"
  },
  {
    "village_code": "3965",
    "village": "MEUNASAH MANCANG",
    "postal_code": "24186"
  },
  {
    "village_code": "4009",
    "village": "MEUNASAH RAYA",
    "postal_code": "24186"
  },
  {
    "village_code": "4028",
    "village": "MEUNASAH TEUNGOH",
    "postal_code": "24186"
  },
  {
    "village_code": "4378",
    "village": "PANTE BEUREUNE",
    "postal_code": "24186"
  },
  {
    "village_code": "5297",
    "village": "SARAHMANE",
    "postal_code": "24186"
  },
  {
    "village_code": "5532",
    "village": "SEUNONG",
    "postal_code": "24186"
  }
]