[
  {
    "village_code": "17040",
    "village": "ARISAN JAYA",
    "postal_code": "30653"
  },
  {
    "village_code": "17613",
    "village": "KAMAL",
    "postal_code": "30653"
  },
  {
    "village_code": "18756",
    "village": "PULAU NEGARA",
    "postal_code": "30653"
  },
  {
    "village_code": "18910",
    "village": "SARANGLANG",
    "postal_code": "30653"
  },
  {
    "village_code": "18996",
    "village": "SERIBANDING (SERI BANDUNG)",
    "postal_code": "30653"
  },
  {
    "village_code": "19218",
    "village": "SUKA MERINDU",
    "postal_code": "30653"
  },
  {
    "village_code": "19552",
    "village": "TALANG PANGERAN ILIR",
    "postal_code": "30653"
  },
  {
    "village_code": "19553",
    "village": "TALANG PANGERAN ULU",
    "postal_code": "30653"
  },
  {
    "village_code": "20008",
    "village": "ULAK KEMBAHANG I",
    "postal_code": "30653"
  },
  {
    "village_code": "20009",
    "village": "ULAK KEMBAHANG II",
    "postal_code": "30653"
  },
  {
    "village_code": "20026",
    "village": "ULAK PETANGISAN",
    "postal_code": "30653"
  }
]