[
  {
    "village_code": "17108",
    "village": "BANGUN JAYA",
    "postal_code": "30664"
  },
  {
    "village_code": "17307",
    "village": "BURAI",
    "postal_code": "30664"
  },
  {
    "village_code": "17966",
    "village": "LIMBANG JAYA I",
    "postal_code": "30664"
  },
  {
    "village_code": "17967",
    "village": "LIMBANG JAYA II",
    "postal_code": "30664"
  },
  {
    "village_code": "18495",
    "village": "PAJAR / FAJAR BULAN",
    "postal_code": "30664"
  },
  {
    "village_code": "18972",
    "village": "SENTUL",
    "postal_code": "30664"
  },
  {
    "village_code": "18974",
    "village": "SENURO BARAT",
    "postal_code": "30664"
  },
  {
    "village_code": "18975",
    "village": "SENURO TIMUR",
    "postal_code": "30664"
  },
  {
    "village_code": "18987",
    "village": "SERI BANDUNG",
    "postal_code": "30664"
  },
  {
    "village_code": "18994",
    "village": "SERI TANJUNG",
    "postal_code": "30664"
  },
  {
    "village_code": "19634",
    "village": "TANJUNG ATAP",
    "postal_code": "30664"
  },
  {
    "village_code": "19633",
    "village": "TANJUNG ATAP BARAT",
    "postal_code": "30664"
  },
  {
    "village_code": "19639",
    "village": "TANJUNG BARU PETAI",
    "postal_code": "30664"
  },
  {
    "village_code": "19657",
    "village": "TANJUNG BATU",
    "postal_code": "30664"
  },
  {
    "village_code": "19655",
    "village": "TANJUNG BATU SEBERANG",
    "postal_code": "30664"
  },
  {
    "village_code": "19656",
    "village": "TANJUNG BATU TIMUR",
    "postal_code": "30664"
  },
  {
    "village_code": "19735",
    "village": "TANJUNG LAUT",
    "postal_code": "30664"
  },
  {
    "village_code": "19777",
    "village": "TANJUNG PINANG I",
    "postal_code": "30664"
  },
  {
    "village_code": "19778",
    "village": "TANJUNG PINANG II",
    "postal_code": "30664"
  },
  {
    "village_code": "19820",
    "village": "TANJUNG TAMBAK",
    "postal_code": "30664"
  },
  {
    "village_code": "19819",
    "village": "TANJUNG TAMBAK BARU",
    "postal_code": "30664"
  }
]