[
  {
    "village_code": "17313",
    "village": "CAHAYA MARGA",
    "postal_code": "30653"
  },
  {
    "village_code": "17531",
    "village": "HARIMAU TANDANG",
    "postal_code": "30653"
  },
  {
    "village_code": "17624",
    "village": "KAPUK",
    "postal_code": "30653"
  },
  {
    "village_code": "17942",
    "village": "LEBAK PERING",
    "postal_code": "30653"
  },
  {
    "village_code": "18083",
    "village": "MAJU JAYA",
    "postal_code": "30653"
  },
  {
    "village_code": "18157",
    "village": "MAYAPATI",
    "postal_code": "30653"
  },
  {
    "village_code": "18359",
    "village": "NAIKAN TEMBAKANG",
    "postal_code": "30653"
  },
  {
    "village_code": "18614",
    "village": "PEMATANG BANGSAL",
    "postal_code": "30653"
  },
  {
    "village_code": "18617",
    "village": "PEMATANG BUNGUR",
    "postal_code": "30653"
  },
  {
    "village_code": "18936",
    "village": "SEGAYAM",
    "postal_code": "30653"
  },
  {
    "village_code": "19424",
    "village": "SUNGAI KELI",
    "postal_code": "30653"
  },
  {
    "village_code": "19430",
    "village": "SUNGAI LEBUNG",
    "postal_code": "30653"
  },
  {
    "village_code": "19431",
    "village": "SUNGAI LEMBUNG ULU",
    "postal_code": "30653"
  },
  {
    "village_code": "19441",
    "village": "SUNGAI ONDOK",
    "postal_code": "30653"
  },
  {
    "village_code": "19992",
    "village": "ULAK AUR STANDING",
    "postal_code": "30653"
  }
]