[
  {
    "village_code": "17984",
    "village": "LUBUK BANDUNG",
    "postal_code": "30664"
  },
  {
    "village_code": "18578",
    "village": "PAYA BESAR",
    "postal_code": "30664"
  },
  {
    "village_code": "18582",
    "village": "PAYARAMAN BARAT",
    "postal_code": "30664"
  },
  {
    "village_code": "18583",
    "village": "PAYARAMAN TIMUR",
    "postal_code": "30664"
  },
  {
    "village_code": "18863",
    "village": "RENGAS I",
    "postal_code": "30664"
  },
  {
    "village_code": "18864",
    "village": "RENGAS II",
    "postal_code": "30664"
  },
  {
    "village_code": "18988",
    "village": "SERI KEMBANG I",
    "postal_code": "30664"
  },
  {
    "village_code": "18989",
    "village": "SERI KEMBANG II",
    "postal_code": "30664"
  },
  {
    "village_code": "18990",
    "village": "SERI KEMBANG III",
    "postal_code": "30664"
  },
  {
    "village_code": "19562",
    "village": "TALANG SELEMAN",
    "postal_code": "30664"
  },
  {
    "village_code": "19731",
    "village": "TANJUNG LALANG",
    "postal_code": "30664"
  },
  {
    "village_code": "19851",
    "village": "TEBEDAK I",
    "postal_code": "30664"
  },
  {
    "village_code": "19852",
    "village": "TEBEDAK II",
    "postal_code": "30664"
  }
]