[
  {
    "village_code": "72499",
    "village": "ABEAN",
    "postal_code": "97615"
  },
  {
    "village_code": "72630",
    "village": "DENWET",
    "postal_code": "97615"
  },
  {
    "village_code": "72635",
    "village": "DISUK",
    "postal_code": "97615"
  },
  {
    "village_code": "72783",
    "village": "ISO",
    "postal_code": "97615"
  },
  {
    "village_code": "73052",
    "village": "MARFUN",
    "postal_code": "97615"
  },
  {
    "village_code": "73064",
    "village": "MASTUR",
    "postal_code": "97615"
  },
  {
    "village_code": "73177",
    "village": "OHOILUS",
    "postal_code": "97615"
  },
  {
    "village_code": "73180",
    "village": "OHOINOL",
    "postal_code": "97615"
  },
  {
    "village_code": "73232",
    "village": "RAAT",
    "postal_code": "97615"
  },
  {
    "village_code": "73246",
    "village": "REVAV (REWAV)",
    "postal_code": "97615"
  },
  {
    "village_code": "73270",
    "village": "RUMAT",
    "postal_code": "97615"
  },
  {
    "village_code": "73318",
    "village": "SEMAWI",
    "postal_code": "97615"
  },
  {
    "village_code": "73401",
    "village": "TENBUK",
    "postal_code": "97615"
  },
  {
    "village_code": "73550",
    "village": "WAIN",
    "postal_code": "97615"
  },
  {
    "village_code": "73549",
    "village": "WAIN BARU",
    "postal_code": "97615"
  },
  {
    "village_code": "73614",
    "village": "WATNGON",
    "postal_code": "97615"
  },
  {
    "village_code": "73653",
    "village": "YAFAVUN",
    "postal_code": "97615"
  }
]