[
  {
    "village_code": "72609",
    "village": "BOMBAY",
    "postal_code": "97661"
  },
  {
    "village_code": "72619",
    "village": "DAFTEL",
    "postal_code": "97661"
  },
  {
    "village_code": "72631",
    "village": "DEPUR",
    "postal_code": "97661"
  },
  {
    "village_code": "72651",
    "village": "ELAT",
    "postal_code": "97661"
  },
  {
    "village_code": "72657",
    "village": "ELRALANG",
    "postal_code": "97661"
  },
  {
    "village_code": "72671",
    "village": "FAKO",
    "postal_code": "97661"
  },
  {
    "village_code": "72672",
    "village": "FANGAMAS",
    "postal_code": "97661"
  },
  {
    "village_code": "72716",
    "village": "HARANGUR",
    "postal_code": "97661"
  },
  {
    "village_code": "72845",
    "village": "KARKARIT",
    "postal_code": "97661"
  },
  {
    "village_code": "72974",
    "village": "LER OHOILIM",
    "postal_code": "97661"
  },
  {
    "village_code": "73065",
    "village": "MATAHOLAT",
    "postal_code": "97661"
  },
  {
    "village_code": "73097",
    "village": "NABAHENG",
    "postal_code": "97661"
  },
  {
    "village_code": "73136",
    "village": "NGAT",
    "postal_code": "97661"
  },
  {
    "village_code": "73139",
    "village": "NGEFUIT",
    "postal_code": "97661"
  },
  {
    "village_code": "73138",
    "village": "NGEFUIT ATAS",
    "postal_code": "97661"
  },
  {
    "village_code": "73141",
    "village": "NGURDU",
    "postal_code": "97661"
  },
  {
    "village_code": "73169",
    "village": "OHOIEL",
    "postal_code": "97661"
  },
  {
    "village_code": "73175",
    "village": "OHOILIM",
    "postal_code": "97661"
  },
  {
    "village_code": "73179",
    "village": "OHOINANGAN",
    "postal_code": "97661"
  },
  {
    "village_code": "73188",
    "village": "OHOIWAIT",
    "postal_code": "97661"
  },
  {
    "village_code": "73189",
    "village": "OHOIWANG",
    "postal_code": "97661"
  },
  {
    "village_code": "73235",
    "village": "RAHARENG",
    "postal_code": "97661"
  },
  {
    "village_code": "73234",
    "village": "RAHARENG ATAS",
    "postal_code": "97661"
  },
  {
    "village_code": "73247",
    "village": "REYAMRU",
    "postal_code": "97661"
  },
  {
    "village_code": "73338",
    "village": "SIRBANTE",
    "postal_code": "97661"
  },
  {
    "village_code": "73354",
    "village": "SOINRAT",
    "postal_code": "97661"
  },
  {
    "village_code": "73453",
    "village": "UDAR",
    "postal_code": "97661"
  },
  {
    "village_code": "73567",
    "village": "WAKOL",
    "postal_code": "97661"
  },
  {
    "village_code": "73615",
    "village": "WATSIN",
    "postal_code": "97661"
  },
  {
    "village_code": "73617",
    "village": "WATUAR",
    "postal_code": "97661"
  },
  {
    "village_code": "73621",
    "village": "WAUR",
    "postal_code": "97661"
  },
  {
    "village_code": "73622",
    "village": "WAURTAHAIT",
    "postal_code": "97661"
  },
  {
    "village_code": "73636",
    "village": "WERKA",
    "postal_code": "97661"
  },
  {
    "village_code": "73637",
    "village": "WERMAF",
    "postal_code": "97661"
  },
  {
    "village_code": "73650",
    "village": "WULURAT",
    "postal_code": "97661"
  },
  {
    "village_code": "73659",
    "village": "YAMTEL",
    "postal_code": "97661"
  }
]