[
  {
    "village_code": "20178",
    "village": "BABATAN ILIR",
    "postal_code": "38552"
  },
  {
    "village_code": "20179",
    "village": "BABATAN ULU",
    "postal_code": "38552"
  },
  {
    "village_code": "20196",
    "village": "BANDING AGUNG",
    "postal_code": "38552"
  },
  {
    "village_code": "20324",
    "village": "DARAT SAWAH ILIR (HILIR)",
    "postal_code": "38552"
  },
  {
    "village_code": "20325",
    "village": "DARAT SAWAH ULU (HULU)",
    "postal_code": "38552"
  },
  {
    "village_code": "20354",
    "village": "DURIAN SEGINIM",
    "postal_code": "38552"
  },
  {
    "village_code": "20362",
    "village": "DUSUN BARU",
    "postal_code": "38552"
  },
  {
    "village_code": "20373",
    "village": "DUSUN TENGAH",
    "postal_code": "38552"
  },
  {
    "village_code": "20416",
    "village": "GUNUNG AYU II",
    "postal_code": "38552"
  },
  {
    "village_code": "20581",
    "village": "KOTA AGUNG",
    "postal_code": "38552"
  },
  {
    "village_code": "20586",
    "village": "KOTA BUMI BARU",
    "postal_code": "38552"
  },
  {
    "village_code": "20740",
    "village": "MUARA DANAU",
    "postal_code": "38552"
  },
  {
    "village_code": "20750",
    "village": "MUARA PAYANG",
    "postal_code": "38552"
  },
  {
    "village_code": "20751",
    "village": "MUARA PULUTAN",
    "postal_code": "38552"
  },
  {
    "village_code": "20817",
    "village": "PADANG LEBAR",
    "postal_code": "38552"
  },
  {
    "village_code": "20839",
    "village": "PADANG SIRING",
    "postal_code": "38552"
  },
  {
    "village_code": "20873",
    "village": "PAJAR BULAN",
    "postal_code": "38552"
  },
  {
    "village_code": "20897",
    "village": "PASAR BARU",
    "postal_code": "38552"
  },
  {
    "village_code": "21150",
    "village": "SINDANG BULAN",
    "postal_code": "38552"
  },
  {
    "village_code": "21210",
    "village": "SUKARAJA",
    "postal_code": "38552"
  },
  {
    "village_code": "21410",
    "village": "TANJUNG AGUNG",
    "postal_code": "38552"
  },
  {
    "village_code": "21478",
    "village": "TANJUNG MENANG",
    "postal_code": "38552"
  }
]