[
  {
    "village_code": "20216",
    "village": "BATU AMPAR",
    "postal_code": "38553"
  },
  {
    "village_code": "20286",
    "village": "BUMI AGUNG",
    "postal_code": "38553"
  },
  {
    "village_code": "20353",
    "village": "DURIAN SEBATANG",
    "postal_code": "38553"
  },
  {
    "village_code": "20486",
    "village": "KARANG AGUNG",
    "postal_code": "38553"
  },
  {
    "village_code": "20524",
    "village": "KEBAN AGUNG I",
    "postal_code": "38553"
  },
  {
    "village_code": "20525",
    "village": "KEBAN AGUNG II",
    "postal_code": "38553"
  },
  {
    "village_code": "20526",
    "village": "KEBAN AGUNG III",
    "postal_code": "38553"
  },
  {
    "village_code": "20613",
    "village": "LAWANG AGUNG",
    "postal_code": "38553"
  },
  {
    "village_code": "20670",
    "village": "LUBUK RESAM",
    "postal_code": "38553"
  },
  {
    "village_code": "20758",
    "village": "MUARA TIGA",
    "postal_code": "38553"
  },
  {
    "village_code": "20757",
    "village": "MUARA TIGA ILIR",
    "postal_code": "38553"
  },
  {
    "village_code": "20771",
    "village": "NANTI AGUNG",
    "postal_code": "38553"
  },
  {
    "village_code": "20872",
    "village": "PAJAR BULAN",
    "postal_code": "38553"
  },
  {
    "village_code": "20881",
    "village": "PALAK SIRING",
    "postal_code": "38553"
  },
  {
    "village_code": "21029",
    "village": "RANTAU SIALANG",
    "postal_code": "38553"
  },
  {
    "village_code": "21419",
    "village": "TANJUNG ALAM",
    "postal_code": "38553"
  },
  {
    "village_code": "21438",
    "village": "TANJUNG BESAR",
    "postal_code": "38553"
  },
  {
    "village_code": "21483",
    "village": "TANJUNG NANTI (SUKANANTI)",
    "postal_code": "38553"
  },
  {
    "village_code": "21484",
    "village": "TANJUNG NEGARA",
    "postal_code": "38553"
  }
]