[
  {
    "village_code": "31406",
    "village": "BANGBAYANG",
    "postal_code": "52274"
  },
  {
    "village_code": "31482",
    "village": "BANJARSARI",
    "postal_code": "52274"
  },
  {
    "village_code": "31515",
    "village": "BANTARKAWUNG",
    "postal_code": "52274"
  },
  {
    "village_code": "31520",
    "village": "BANTARWARU",
    "postal_code": "52274"
  },
  {
    "village_code": "32278",
    "village": "CIBENTANG",
    "postal_code": "52274"
  },
  {
    "village_code": "32325",
    "village": "CINANAS",
    "postal_code": "52274"
  },
  {
    "village_code": "32332",
    "village": "CIOMAS",
    "postal_code": "52274"
  },
  {
    "village_code": "33560",
    "village": "JIPANG",
    "postal_code": "52274"
  },
  {
    "village_code": "34309",
    "village": "KARANGPARI",
    "postal_code": "52274"
  },
  {
    "village_code": "34512",
    "village": "KEBANDUNGAN",
    "postal_code": "52274"
  },
  {
    "village_code": "35508",
    "village": "LEGOK",
    "postal_code": "52274"
  },
  {
    "village_code": "36594",
    "village": "PANGEBATAN",
    "postal_code": "52274"
  },
  {
    "village_code": "36882",
    "village": "PENGARASAN",
    "postal_code": "52274"
  },
  {
    "village_code": "38186",
    "village": "SINDANGWANGI",
    "postal_code": "52274"
  },
  {
    "village_code": "38738",
    "village": "TAMBAKSERANG",
    "postal_code": "52274"
  },
  {
    "village_code": "38979",
    "village": "TELAGA",
    "postal_code": "52274"
  },
  {
    "village_code": "39077",
    "village": "TERLAYA",
    "postal_code": "52274"
  },
  {
    "village_code": "39461",
    "village": "WARU",
    "postal_code": "52274"
  }
]