[
  {
    "village_code": "34023",
    "village": "KAMAL",
    "postal_code": "52262"
  },
  {
    "village_code": "34153",
    "village": "KARANGBALE",
    "postal_code": "52262"
  },
  {
    "village_code": "34670",
    "village": "KEDUNGBOKOR",
    "postal_code": "52262"
  },
  {
    "village_code": "35463",
    "village": "LARANGAN",
    "postal_code": "52262"
  },
  {
    "village_code": "35634",
    "village": "LUWUNGGEDE",
    "postal_code": "52262"
  },
  {
    "village_code": "36542",
    "village": "PAMULIHAN",
    "postal_code": "52262"
  },
  {
    "village_code": "37527",
    "village": "RENGASPENDAWA",
    "postal_code": "52262"
  },
  {
    "village_code": "37989",
    "village": "SIANDONG",
    "postal_code": "52262"
  },
  {
    "village_code": "38231",
    "village": "SITANGGAL",
    "postal_code": "52262"
  },
  {
    "village_code": "38256",
    "village": "SLATRI",
    "postal_code": "52262"
  },
  {
    "village_code": "39594",
    "village": "WLAHAR",
    "postal_code": "52262"
  }
]