[
  {
    "village_code": "50976",
    "village": "ANJANI",
    "postal_code": "83652"
  },
  {
    "village_code": "50989",
    "village": "BAGIK PAYUNG",
    "postal_code": "83652"
  },
  {
    "village_code": "50987",
    "village": "BAGIK PAYUNG SELATAN",
    "postal_code": "83652"
  },
  {
    "village_code": "50988",
    "village": "BAGIK PAYUNG TIMUR",
    "postal_code": "83652"
  },
  {
    "village_code": "51062",
    "village": "BINTANG RINJANI",
    "postal_code": "83652"
  },
  {
    "village_code": "51109",
    "village": "DAMES DAMAI",
    "postal_code": "83652"
  },
  {
    "village_code": "51124",
    "village": "DASAN BOROK",
    "postal_code": "83652"
  },
  {
    "village_code": "51161",
    "village": "GAPUK",
    "postal_code": "83652"
  },
  {
    "village_code": "51177",
    "village": "GERUNG PERMAI",
    "postal_code": "83652"
  },
  {
    "village_code": "51313",
    "village": "KERONGKONG",
    "postal_code": "83652"
  },
  {
    "village_code": "51629",
    "village": "PAOK LOMBOK",
    "postal_code": "83652"
  },
  {
    "village_code": "51928",
    "village": "SURALAGA",
    "postal_code": "83652"
  },
  {
    "village_code": "51969",
    "village": "TEBABAN",
    "postal_code": "83652"
  },
  {
    "village_code": "52011",
    "village": "TUMBUH MULIA",
    "postal_code": "83652"
  },
  {
    "village_code": "52029",
    "village": "WARINGIN",
    "postal_code": "83652"
  }
]