[
  {
    "village_code": "50984",
    "village": "BAGIK MANIS",
    "postal_code": "83656"
  },
  {
    "village_code": "51042",
    "village": "BELANTING",
    "postal_code": "83656"
  },
  {
    "village_code": "51104",
    "village": "DADAP",
    "postal_code": "83656"
  },
  {
    "village_code": "51115",
    "village": "DARAKUNCI",
    "postal_code": "83656"
  },
  {
    "village_code": "51379",
    "village": "LABUHAN PANDAN",
    "postal_code": "83656"
  },
  {
    "village_code": "51456",
    "village": "MADAYIN",
    "postal_code": "83656"
  },
  {
    "village_code": "51591",
    "village": "OBEL OBEL",
    "postal_code": "83656"
  },
  {
    "village_code": "51604",
    "village": "PADAK GUAR",
    "postal_code": "83656"
  },
  {
    "village_code": "51779",
    "village": "SAMBELIA",
    "postal_code": "83656"
  },
  {
    "village_code": "51846",
    "village": "SENANGGALIH",
    "postal_code": "83656"
  },
  {
    "village_code": "51906",
    "village": "SUGIAN",
    "postal_code": "83656"
  }
]