[
  {
    "village_code": "51007",
    "village": "BANJARSARI",
    "postal_code": "83614"
  },
  {
    "village_code": "51174",
    "village": "GERES",
    "postal_code": "83615"
  },
  {
    "village_code": "51203",
    "village": "IJOBALIT",
    "postal_code": "83615"
  },
  {
    "village_code": "51316",
    "village": "KERTASARI",
    "postal_code": "83617"
  },
  {
    "village_code": "51339",
    "village": "KORLEKO",
    "postal_code": "83615"
  },
  {
    "village_code": "51338",
    "village": "KORLEKO SELATAN",
    "postal_code": "83615"
  },
  {
    "village_code": "51374",
    "village": "LABUHAN HAJI",
    "postal_code": "83616"
  },
  {
    "village_code": "51661",
    "village": "PENEDAGANDOR",
    "postal_code": "83617"
  },
  {
    "village_code": "51930",
    "village": "SURYA WANGI",
    "postal_code": "83616"
  },
  {
    "village_code": "51957",
    "village": "TANJUNG",
    "postal_code": "83614"
  },
  {
    "village_code": "51991",
    "village": "TEROS",
    "postal_code": "83614"
  },
  {
    "village_code": "51998",
    "village": "TIRTANADI",
    "postal_code": "83615"
  }
]