[
  {
    "village_code": "51112",
    "village": "DANGGEN TIMUR",
    "postal_code": "83618"
  },
  {
    "village_code": "51132",
    "village": "DENGGEN",
    "postal_code": "83618"
  },
  {
    "village_code": "51231",
    "village": "JORONG",
    "postal_code": "83617"
  },
  {
    "village_code": "51297",
    "village": "KELAYU SELATAN",
    "postal_code": "83613"
  },
  {
    "village_code": "51298",
    "village": "KELAYU UTARA",
    "postal_code": "83619"
  },
  {
    "village_code": "51306",
    "village": "KEMBANG SARI",
    "postal_code": "83618"
  },
  {
    "village_code": "51457",
    "village": "MAJIDI",
    "postal_code": "83619"
  },
  {
    "village_code": "51619",
    "village": "PANCOR",
    "postal_code": "83611"
  },
  {
    "village_code": "51728",
    "village": "RAKAM",
    "postal_code": "83619"
  },
  {
    "village_code": "51789",
    "village": "SANDUBAYA",
    "postal_code": "83612"
  },
  {
    "village_code": "51814",
    "village": "SEKARTEJA",
    "postal_code": "83611"
  },
  {
    "village_code": "51833",
    "village": "SELONG KOTA",
    "postal_code": "83619"
  }
]