[
  {
    "village_code": "74835",
    "village": "ABUKEROM",
    "postal_code": "99576"
  },
  {
    "village_code": "74902",
    "village": "AKYAKO",
    "postal_code": "99576"
  },
  {
    "village_code": "75264",
    "village": "BATOM",
    "postal_code": "99576"
  },
  {
    "village_code": "75263",
    "village": "BATOM DUA",
    "postal_code": "99576"
  },
  {
    "village_code": "75292",
    "village": "BELOMO",
    "postal_code": "99576"
  },
  {
    "village_code": "77385",
    "village": "MONGHAM (MOGHAM)",
    "postal_code": "99576"
  },
  {
    "village_code": "77409",
    "village": "MUARA",
    "postal_code": "99576"
  },
  {
    "village_code": "77536",
    "village": "NEEP",
    "postal_code": "99576"
  },
  {
    "village_code": "77716",
    "village": "OKSIP",
    "postal_code": "99576"
  },
  {
    "village_code": "77896",
    "village": "PETENG",
    "postal_code": "99576"
  },
  {
    "village_code": "78099",
    "village": "SABI",
    "postal_code": "99576"
  }
]