[
  {
    "village_code": "74909",
    "village": "ALEMSOM",
    "postal_code": "99573"
  },
  {
    "village_code": "75206",
    "village": "BAKWALIN YUB",
    "postal_code": "99573"
  },
  {
    "village_code": "75355",
    "village": "BINALKOM",
    "postal_code": "99573"
  },
  {
    "village_code": "75433",
    "village": "BONDIK",
    "postal_code": "99573"
  },
  {
    "village_code": "75808",
    "village": "ERADUMAN",
    "postal_code": "99573"
  },
  {
    "village_code": "76251",
    "village": "IMIRYI",
    "postal_code": "99573"
  },
  {
    "village_code": "77453",
    "village": "MURUMAN",
    "postal_code": "99573"
  },
  {
    "village_code": "77868",
    "village": "PAYOL MASUMKON",
    "postal_code": "99573"
  },
  {
    "village_code": "78482",
    "village": "SUMTAMON",
    "postal_code": "99573"
  },
  {
    "village_code": "78571",
    "village": "TAPASIK",
    "postal_code": "99573"
  },
  {
    "village_code": "78574",
    "village": "TAPOB",
    "postal_code": "99573"
  },
  {
    "village_code": "78648",
    "village": "TIBAL",
    "postal_code": "99573"
  }
]