[
  {
    "village_code": "75064",
    "village": "ARINA",
    "postal_code": "99577"
  },
  {
    "village_code": "75066",
    "village": "ARINGGON",
    "postal_code": "99577"
  },
  {
    "village_code": "75447",
    "village": "BORDAMBAN",
    "postal_code": "99577"
  },
  {
    "village_code": "75448",
    "village": "BORME",
    "postal_code": "99577"
  },
  {
    "village_code": "75482",
    "village": "BUKAM",
    "postal_code": "99577"
  },
  {
    "village_code": "75524",
    "village": "CANGDAMBAN",
    "postal_code": "99577"
  },
  {
    "village_code": "76727",
    "village": "KOLGIR",
    "postal_code": "99577"
  },
  {
    "village_code": "76926",
    "village": "KWIME",
    "postal_code": "99577"
  },
  {
    "village_code": "76965",
    "village": "LAYDAMBAN",
    "postal_code": "99577"
  },
  {
    "village_code": "77738",
    "village": "OMBAN",
    "postal_code": "99577"
  },
  {
    "village_code": "77759",
    "village": "ONYA",
    "postal_code": "99577"
  },
  {
    "village_code": "78227",
    "village": "SEBAN",
    "postal_code": "99577"
  },
  {
    "village_code": "78315",
    "village": "SIKIBUR",
    "postal_code": "99577"
  }
]