[
  {
    "village_code": "75140",
    "village": "AUTPAHIK",
    "postal_code": "99574"
  },
  {
    "village_code": "75421",
    "village": "BOMDING",
    "postal_code": "99574"
  },
  {
    "village_code": "76165",
    "village": "HONKUDING",
    "postal_code": "99574"
  },
  {
    "village_code": "77698",
    "village": "OKDILAM",
    "postal_code": "99574"
  },
  {
    "village_code": "77700",
    "village": "OKDUNAM",
    "postal_code": "99574"
  },
  {
    "village_code": "77704",
    "village": "OKHAKA",
    "postal_code": "99574"
  },
  {
    "village_code": "77710",
    "village": "OKMA",
    "postal_code": "99574"
  },
  {
    "village_code": "77714",
    "village": "OKPA",
    "postal_code": "99574"
  },
  {
    "village_code": "77718",
    "village": "OKTAE",
    "postal_code": "99574"
  },
  {
    "village_code": "77866",
    "village": "PAUNE",
    "postal_code": "99574"
  },
  {
    "village_code": "78693",
    "village": "TINIBIL",
    "postal_code": "99574"
  },
  {
    "village_code": "78743",
    "village": "TOMKA",
    "postal_code": "99574"
  }
]