[
  {
    "village_code": "75242",
    "village": "BARAMA",
    "postal_code": "99577"
  },
  {
    "village_code": "75259",
    "village": "BASIRINGE",
    "postal_code": "99577"
  },
  {
    "village_code": "75504",
    "village": "BUNYIRYE",
    "postal_code": "99577"
  },
  {
    "village_code": "75754",
    "village": "EIPUMEK  /  ELPOMEK (ELPUNA)",
    "postal_code": "99577"
  },
  {
    "village_code": "76923",
    "village": "KWEREDALA",
    "postal_code": "99577"
  },
  {
    "village_code": "76933",
    "village": "LALAKON",
    "postal_code": "99577"
  },
  {
    "village_code": "77027",
    "village": "LONDININ",
    "postal_code": "99577"
  },
  {
    "village_code": "77113",
    "village": "MALINGDAM",
    "postal_code": "99577"
  },
  {
    "village_code": "77442",
    "village": "MUNGKONA",
    "postal_code": "99577"
  },
  {
    "village_code": "78272",
    "village": "SERABUM",
    "postal_code": "99577"
  },
  {
    "village_code": "78495",
    "village": "SUPLEYU",
    "postal_code": "99577"
  },
  {
    "village_code": "78549",
    "village": "TALEMU",
    "postal_code": "99577"
  },
  {
    "village_code": "78566",
    "village": "TANIME",
    "postal_code": "99577"
  },
  {
    "village_code": "78959",
    "village": "WAKIDAM",
    "postal_code": "99577"
  }
]