[
  {
    "village_code": "75031",
    "village": "APAINABO",
    "postal_code": "98261"
  },
  {
    "village_code": "75932",
    "village": "GHOYUI",
    "postal_code": "98261"
  },
  {
    "village_code": "76595",
    "village": "KEMON JAYA",
    "postal_code": "98261"
  },
  {
    "village_code": "77125",
    "village": "MAMBUI",
    "postal_code": "98261"
  },
  {
    "village_code": "77618",
    "village": "NUBUAI",
    "postal_code": "98261"
  },
  {
    "village_code": "77841",
    "village": "PARADOI",
    "postal_code": "98261"
  },
  {
    "village_code": "78086",
    "village": "RONGGAIWA",
    "postal_code": "98261"
  },
  {
    "village_code": "78087",
    "village": "RORISI",
    "postal_code": "98261"
  },
  {
    "village_code": "78867",
    "village": "UREIFASEI DUA (II)",
    "postal_code": "98261"
  },
  {
    "village_code": "78868",
    "village": "UREIFASEI SATU (I)",
    "postal_code": "98261"
  },
  {
    "village_code": "78869",
    "village": "UREIFASEI TIGA (III)",
    "postal_code": "98261"
  },
  {
    "village_code": "78880",
    "village": "USAIWA",
    "postal_code": "98261"
  }
]