[
  {
    "village_code": "16984",
    "village": "AIR BELITI",
    "postal_code": "31663"
  },
  {
    "village_code": "17071",
    "village": "BAMASKO",
    "postal_code": "31663"
  },
  {
    "village_code": "17123",
    "village": "BANPRES",
    "postal_code": "31663"
  },
  {
    "village_code": "17391",
    "village": "DHARMA / DARMA SAKTI",
    "postal_code": "31663"
  },
  {
    "village_code": "17578",
    "village": "JAYA BAKTI",
    "postal_code": "31663"
  },
  {
    "village_code": "17582",
    "village": "JAYA TUNGGAL",
    "postal_code": "31663"
  },
  {
    "village_code": "17943",
    "village": "LEBANJAYA",
    "postal_code": "31663"
  },
  {
    "village_code": "18047",
    "village": "LUBUK RUMBAI",
    "postal_code": "31663"
  },
  {
    "village_code": "18707",
    "village": "PETUNANG",
    "postal_code": "31663"
  },
  {
    "village_code": "18860",
    "village": "REMAYU",
    "postal_code": "31663"
  },
  {
    "village_code": "19282",
    "village": "SUKAMULYA",
    "postal_code": "31663"
  }
]