[
  {
    "village_code": "16985",
    "village": "AIR BENING",
    "postal_code": "31655"
  },
  {
    "village_code": "17154",
    "village": "BATU KUCING",
    "postal_code": "31655"
  },
  {
    "village_code": "17195",
    "village": "BELANI",
    "postal_code": "31655"
  },
  {
    "village_code": "17218",
    "village": "BERINGIN MAKMUR I",
    "postal_code": "31655"
  },
  {
    "village_code": "17219",
    "village": "BERINGIN MAKMUR II",
    "postal_code": "31655"
  },
  {
    "village_code": "17220",
    "village": "BERINGIN SAKTI",
    "postal_code": "31655"
  },
  {
    "village_code": "17248",
    "village": "BINGIN TELUK",
    "postal_code": "31655"
  },
  {
    "village_code": "18094",
    "village": "MANDI ANGIN",
    "postal_code": "31655"
  },
  {
    "village_code": "18576",
    "village": "PAUH",
    "postal_code": "31655"
  },
  {
    "village_code": "18575",
    "village": "PAUH I",
    "postal_code": "31655"
  },
  {
    "village_code": "19801",
    "village": "TANJUNG RAYA",
    "postal_code": "31655"
  }
]