[
  {
    "village_code": "17003",
    "village": "AIR LESING",
    "postal_code": "31661"
  },
  {
    "village_code": "17015",
    "village": "AIR SATAN",
    "postal_code": "31661"
  },
  {
    "village_code": "17278",
    "village": "BUMI AGUNG",
    "postal_code": "31661"
  },
  {
    "village_code": "17399",
    "village": "DURIAN REMUK",
    "postal_code": "31661"
  },
  {
    "village_code": "17847",
    "village": "KETUAN JAYA",
    "postal_code": "31661"
  },
  {
    "village_code": "18091",
    "village": "MANA RESMI",
    "postal_code": "31661"
  },
  {
    "village_code": "18238",
    "village": "MUARA BELITI BARU",
    "postal_code": "31661"
  },
  {
    "village_code": "18562",
    "village": "PASAR MUARA BELITI",
    "postal_code": "31661"
  },
  {
    "village_code": "18593",
    "village": "PEDANG (DUSUN PEDANG)",
    "postal_code": "31661"
  },
  {
    "village_code": "18914",
    "village": "SATAN INDAH JAYA",
    "postal_code": "31661"
  },
  {
    "village_code": "19481",
    "village": "SURO (DUSUN SURO)",
    "postal_code": "31661"
  },
  {
    "village_code": "19595",
    "village": "TANAH PERIUK I",
    "postal_code": "31661"
  }
]