[
  {
    "village_code": "17106",
    "village": "BANGUN JAYA",
    "postal_code": "31652"
  },
  {
    "village_code": "17490",
    "village": "GUNUNG KEMBANG BARU",
    "postal_code": "31652"
  },
  {
    "village_code": "17491",
    "village": "GUNUNG KEMBANG LAMA",
    "postal_code": "31652"
  },
  {
    "village_code": "17804",
    "village": "KEMBANG TANJUNG",
    "postal_code": "31652"
  },
  {
    "village_code": "17859",
    "village": "KOTA BARU",
    "postal_code": "31652"
  },
  {
    "village_code": "18037",
    "village": "LUBUK PAUH",
    "postal_code": "31652"
  },
  {
    "village_code": "18166",
    "village": "MEKAR JAYA",
    "postal_code": "31652"
  },
  {
    "village_code": "18349",
    "village": "MULYO HARJO",
    "postal_code": "31652"
  },
  {
    "village_code": "18543",
    "village": "PANGKALAN TARUM LAMA",
    "postal_code": "31652"
  },
  {
    "village_code": "18606",
    "village": "PELAWE",
    "postal_code": "31652"
  },
  {
    "village_code": "18800",
    "village": "RAKSA BUDI",
    "postal_code": "31652"
  },
  {
    "village_code": "18891",
    "village": "SADU",
    "postal_code": "31652"
  },
  {
    "village_code": "18961",
    "village": "SEMBATU JAYA SPI",
    "postal_code": "31652"
  },
  {
    "village_code": "19208",
    "village": "SUKA MAKMUR",
    "postal_code": "31652"
  },
  {
    "village_code": "19413",
    "village": "SUNGAI BUNUT",
    "postal_code": "31652"
  },
  {
    "village_code": "19439",
    "village": "SUNGAI NAIK",
    "postal_code": "31652"
  },
  {
    "village_code": "19585",
    "village": "TAMBANGAN",
    "postal_code": "31652"
  },
  {
    "village_code": "19948",
    "village": "TRIJAYA",
    "postal_code": "31652"
  },
  {
    "village_code": "19953",
    "village": "TRIMUKTI",
    "postal_code": "31652"
  }
]