[
  {
    "village_code": "17202",
    "village": "BELITI JAYA",
    "postal_code": "31663"
  },
  {
    "village_code": "17246",
    "village": "BINGIN JANGGUT",
    "postal_code": "31663"
  },
  {
    "village_code": "17250",
    "village": "BINJAI",
    "postal_code": "31663"
  },
  {
    "village_code": "17728",
    "village": "KARYA MUKTI",
    "postal_code": "31663"
  },
  {
    "village_code": "17734",
    "village": "KARYA SAKTI",
    "postal_code": "31663"
  },
  {
    "village_code": "17735",
    "village": "KARYA TELADAN",
    "postal_code": "31663"
  },
  {
    "village_code": "18030",
    "village": "LUBUK MUDA",
    "postal_code": "31663"
  },
  {
    "village_code": "18063",
    "village": "LUBUK TUA",
    "postal_code": "31663"
  },
  {
    "village_code": "18090",
    "village": "MAMBANG",
    "postal_code": "31663"
  },
  {
    "village_code": "18095",
    "village": "MANDI AUR",
    "postal_code": "31663"
  },
  {
    "village_code": "18097",
    "village": "MANGAN JAYA",
    "postal_code": "31663"
  },
  {
    "village_code": "18128",
    "village": "MARGA SAKTI",
    "postal_code": "31663"
  },
  {
    "village_code": "18179",
    "village": "MEKAR SARI",
    "postal_code": "31663"
  },
  {
    "village_code": "18272",
    "village": "MUARA KELINGI",
    "postal_code": "31663"
  },
  {
    "village_code": "18706",
    "village": "PETRANS JAYA",
    "postal_code": "31663"
  },
  {
    "village_code": "18759",
    "village": "PULAU PANGGUNG",
    "postal_code": "31663"
  },
  {
    "village_code": "19733",
    "village": "TANJUNG LAMA",
    "postal_code": "31663"
  },
  {
    "village_code": "19901",
    "village": "TEMUAN JAYA",
    "postal_code": "31663"
  },
  {
    "village_code": "19902",
    "village": "TEMUAN SARI",
    "postal_code": "31663"
  },
  {
    "village_code": "19964",
    "village": "TUGU SEMPURNA",
    "postal_code": "31663"
  }
]