[
  {
    "village_code": "17291",
    "village": "BUMI REJO",
    "postal_code": "31665"
  },
  {
    "village_code": "17392",
    "village": "DONOREJO (DONOROJO)",
    "postal_code": "31665"
  },
  {
    "village_code": "17466",
    "village": "GIRIYOSO",
    "postal_code": "31665"
  },
  {
    "village_code": "17841",
    "village": "KERTOSONO",
    "postal_code": "31665"
  },
  {
    "village_code": "18132",
    "village": "MARGATANI",
    "postal_code": "31665"
  },
  {
    "village_code": "18133",
    "village": "MARGATUNGGAL",
    "postal_code": "31665"
  },
  {
    "village_code": "18143",
    "village": "MARGOYOSO",
    "postal_code": "31665"
  },
  {
    "village_code": "18391",
    "village": "NGESTIBOGA I",
    "postal_code": "31665"
  },
  {
    "village_code": "18392",
    "village": "NGESTIBOGA II",
    "postal_code": "31665"
  },
  {
    "village_code": "18783",
    "village": "PURWODADI",
    "postal_code": "31665"
  },
  {
    "village_code": "19028",
    "village": "SIDODADI",
    "postal_code": "31665"
  },
  {
    "village_code": "19345",
    "village": "SUKOWONO",
    "postal_code": "31665"
  }
]