[
  {
    "village_code": "40552",
    "village": "BANGUNREJO KIDUL",
    "postal_code": "63254"
  },
  {
    "village_code": "40829",
    "village": "BEGAL",
    "postal_code": "63254"
  },
  {
    "village_code": "41936",
    "village": "GEMARANG",
    "postal_code": "63254"
  },
  {
    "village_code": "42355",
    "village": "JATI GEMBOL",
    "postal_code": "63254"
  },
  {
    "village_code": "42479",
    "village": "JENGGRIK",
    "postal_code": "63254"
  },
  {
    "village_code": "43109",
    "village": "KATIKAN",
    "postal_code": "63254"
  },
  {
    "village_code": "43148",
    "village": "KAWU",
    "postal_code": "63254"
  },
  {
    "village_code": "43329",
    "village": "KEDUNGGALAR",
    "postal_code": "63254"
  },
  {
    "village_code": "45556",
    "village": "PELANG KIDUL",
    "postal_code": "63254"
  },
  {
    "village_code": "45557",
    "village": "PELANG LOR",
    "postal_code": "63254"
  },
  {
    "village_code": "48574",
    "village": "WONOKERTO",
    "postal_code": "63254"
  },
  {
    "village_code": "48604",
    "village": "WONOREJO",
    "postal_code": "63254"
  }
]