[
  {
    "village_code": "40669",
    "village": "BANYU BIRU",
    "postal_code": "63256"
  },
  {
    "village_code": "41972",
    "village": "GENDINGAN",
    "postal_code": "63256"
  },
  {
    "village_code": "42881",
    "village": "KARANG BANYU",
    "postal_code": "63256"
  },
  {
    "village_code": "43136",
    "village": "KAUMAN",
    "postal_code": "63256"
  },
  {
    "village_code": "43162",
    "village": "KAYUTREJO",
    "postal_code": "63256"
  },
  {
    "village_code": "43334",
    "village": "KEDUNGGUDEL",
    "postal_code": "63256"
  },
  {
    "village_code": "46478",
    "village": "SEKAR ALAS",
    "postal_code": "63256"
  },
  {
    "village_code": "46482",
    "village": "SEKAR PUTIH",
    "postal_code": "63256"
  },
  {
    "village_code": "46756",
    "village": "SIDOLAJU",
    "postal_code": "63256"
  },
  {
    "village_code": "46758",
    "village": "SIDOMAKMUR",
    "postal_code": "63256"
  },
  {
    "village_code": "48394",
    "village": "WALIKUKUN",
    "postal_code": "63256"
  },
  {
    "village_code": "48498",
    "village": "WIDODAREN",
    "postal_code": "63256"
  }
]