[
  {
    "village_code": "41149",
    "village": "BRUBUH",
    "postal_code": "63262"
  },
  {
    "village_code": "41563",
    "village": "DAWUNG",
    "postal_code": "63262"
  },
  {
    "village_code": "42030",
    "village": "GIRIMULYO",
    "postal_code": "63262"
  },
  {
    "village_code": "42351",
    "village": "JATEN",
    "postal_code": "63262"
  },
  {
    "village_code": "42539",
    "village": "JOGOROGO",
    "postal_code": "63262"
  },
  {
    "village_code": "43801",
    "village": "KLETEKAN",
    "postal_code": "63262"
  },
  {
    "village_code": "44227",
    "village": "MACANAN",
    "postal_code": "63262"
  },
  {
    "village_code": "44971",
    "village": "NGRAYUDAN",
    "postal_code": "63262"
  },
  {
    "village_code": "46955",
    "village": "SOCO",
    "postal_code": "63262"
  },
  {
    "village_code": "47627",
    "village": "TALANG",
    "postal_code": "63262"
  },
  {
    "village_code": "47870",
    "village": "TANJUNGSARI",
    "postal_code": "63262"
  },
  {
    "village_code": "48365",
    "village": "UMBULREJO",
    "postal_code": "63262"
  }
]