[
  {
    "village_code": "25379",
    "village": "BALONGSARI",
    "postal_code": "41382"
  },
  {
    "village_code": "25866",
    "village": "CIBADAK",
    "postal_code": "41382"
  },
  {
    "village_code": "27171",
    "village": "GOMBONGSARI",
    "postal_code": "41382"
  },
  {
    "village_code": "28161",
    "village": "KUTAWARGI",
    "postal_code": "41382"
  },
  {
    "village_code": "28623",
    "village": "MEKARJAYA",
    "postal_code": "41382"
  },
  {
    "village_code": "29212",
    "village": "PANYINGKIRAN",
    "postal_code": "41382"
  },
  {
    "village_code": "29311",
    "village": "PASIRAWI",
    "postal_code": "41382"
  },
  {
    "village_code": "29337",
    "village": "PASIRKALIKI",
    "postal_code": "41382"
  },
  {
    "village_code": "29499",
    "village": "PURWAMEKAR",
    "postal_code": "41382"
  },
  {
    "village_code": "29788",
    "village": "SEKARWANGI",
    "postal_code": "41382"
  },
  {
    "village_code": "30392",
    "village": "SUKAMERTA",
    "postal_code": "41382"
  },
  {
    "village_code": "30473",
    "village": "SUKAPURA",
    "postal_code": "41382"
  },
  {
    "village_code": "30490",
    "village": "SUKARAJA",
    "postal_code": "41382"
  }
]