[
  {
    "village_code": "25665",
    "village": "BOLANG",
    "postal_code": "41357"
  },
  {
    "village_code": "27104",
    "village": "GEMPOLKARYA",
    "postal_code": "41357"
  },
  {
    "village_code": "28146",
    "village": "KUTAMAKMUR",
    "postal_code": "41357"
  },
  {
    "village_code": "28556",
    "village": "MEDANKARYA",
    "postal_code": "41357"
  },
  {
    "village_code": "29440",
    "village": "PISANGSAMBO",
    "postal_code": "41357"
  },
  {
    "village_code": "29653",
    "village": "SABAJAYA",
    "postal_code": "41357"
  },
  {
    "village_code": "30117",
    "village": "SRIJAYA",
    "postal_code": "41357"
  },
  {
    "village_code": "30118",
    "village": "SRIKAMULYAN",
    "postal_code": "41357"
  },
  {
    "village_code": "30658",
    "village": "SUMURLABAN",
    "postal_code": "41357"
  },
  {
    "village_code": "30744",
    "village": "TAMBAKSARI",
    "postal_code": "41357"
  },
  {
    "village_code": "30745",
    "village": "TAMBAKSUMUR",
    "postal_code": "41357"
  }
]