[
  {
    "village_code": "26881",
    "village": "CIWARINGIN",
    "postal_code": "41383"
  },
  {
    "village_code": "27796",
    "village": "KARANGTANJUNG",
    "postal_code": "41383"
  },
  {
    "village_code": "27846",
    "village": "KARYAMUKTI",
    "postal_code": "41383"
  },
  {
    "village_code": "27913",
    "village": "KEDAWUNG",
    "postal_code": "41383"
  },
  {
    "village_code": "28234",
    "village": "LEMAHABANG",
    "postal_code": "41383"
  },
  {
    "village_code": "28241",
    "village": "LEMAHMUKTI",
    "postal_code": "41383"
  },
  {
    "village_code": "29367",
    "village": "PASIRTANJUNG",
    "postal_code": "41383"
  },
  {
    "village_code": "29467",
    "village": "PULOJAYA",
    "postal_code": "41383"
  },
  {
    "village_code": "29468",
    "village": "PULOKELAPA",
    "postal_code": "41383"
  },
  {
    "village_code": "29469",
    "village": "PULOMULYA",
    "postal_code": "41383"
  },
  {
    "village_code": "31118",
    "village": "WARINGINKARYA",
    "postal_code": "41383"
  }
]