[
  {
    "village_code": "71935",
    "village": "BAMBANGAN",
    "postal_code": "91453"
  },
  {
    "village_code": "72075",
    "village": "KAYUANGIN",
    "postal_code": "91453"
  },
  {
    "village_code": "72109",
    "village": "LAMUNGANG BATU",
    "postal_code": "91453"
  },
  {
    "village_code": "72143",
    "village": "LOMBANG",
    "postal_code": "91453"
  },
  {
    "village_code": "72142",
    "village": "LOMBANG TIMUR",
    "postal_code": "91453"
  },
  {
    "village_code": "72145",
    "village": "LOMBONG",
    "postal_code": "91453"
  },
  {
    "village_code": "72144",
    "village": "LOMBONG TIMUR",
    "postal_code": "91453"
  },
  {
    "village_code": "72161",
    "village": "MALIAYA",
    "postal_code": "91453"
  },
  {
    "village_code": "72164",
    "village": "MALUNDA",
    "postal_code": "91453"
  },
  {
    "village_code": "72192",
    "village": "MEKKATTA",
    "postal_code": "91453"
  },
  {
    "village_code": "72191",
    "village": "MEKKATTA SELATAN",
    "postal_code": "91453"
  },
  {
    "village_code": "72344",
    "village": "SALUTAHONGAN",
    "postal_code": "91453"
  }
]