[
  {
    "village_code": "71942",
    "village": "BANUA SENDANA",
    "postal_code": "91452"
  },
  {
    "village_code": "71978",
    "village": "BINANGA",
    "postal_code": "91452"
  },
  {
    "village_code": "71999",
    "village": "BUKIT SAMANG",
    "postal_code": "91452"
  },
  {
    "village_code": "72103",
    "village": "LALATEDZONG",
    "postal_code": "91452"
  },
  {
    "village_code": "72132",
    "village": "LEPPANGANG",
    "postal_code": "91452"
  },
  {
    "village_code": "72138",
    "village": "LIMBORO RAMBU-RAMBU",
    "postal_code": "91452"
  },
  {
    "village_code": "72140",
    "village": "LIMBUA",
    "postal_code": "91452"
  },
  {
    "village_code": "72206",
    "village": "MOSSO",
    "postal_code": "91452"
  },
  {
    "village_code": "72204",
    "village": "MOSSO DUA",
    "postal_code": "91452"
  },
  {
    "village_code": "72232",
    "village": "PAMINGGALAN",
    "postal_code": "91452"
  },
  {
    "village_code": "72287",
    "village": "PUNDAU",
    "postal_code": "91452"
  },
  {
    "village_code": "72291",
    "village": "PUTTADA",
    "postal_code": "91452"
  },
  {
    "village_code": "68426",
    "village": "SENDANA",
    "postal_code": "91452"
  },
  {
    "village_code": "72419",
    "village": "TALLUBANUA UTARA",
    "postal_code": "91452"
  },
  {
    "village_code": "72420",
    "village": "TALLUM BANUA",
    "postal_code": "91452"
  }
]