[
  {
    "village_code": "13572",
    "village": "ANAK SETATAH",
    "postal_code": "28755"
  },
  {
    "village_code": "13673",
    "village": "BANTAR",
    "postal_code": "28755"
  },
  {
    "village_code": "13753",
    "village": "BINA MAJU",
    "postal_code": "28755"
  },
  {
    "village_code": "13758",
    "village": "BOKOR",
    "postal_code": "28755"
  },
  {
    "village_code": "14185",
    "village": "LEMANG",
    "postal_code": "28755"
  },
  {
    "village_code": "14270",
    "village": "MEKAR BARU",
    "postal_code": "28755"
  },
  {
    "village_code": "14279",
    "village": "MELAI",
    "postal_code": "28755"
  },
  {
    "village_code": "14534",
    "village": "PERMAI",
    "postal_code": "28755"
  },
  {
    "village_code": "14771",
    "village": "SEGOMENG",
    "postal_code": "28755"
  },
  {
    "village_code": "14872",
    "village": "SIALANG PASUNG",
    "postal_code": "28755"
  },
  {
    "village_code": "15014",
    "village": "SUNGAI CINA",
    "postal_code": "28755"
  },
  {
    "village_code": "15255",
    "village": "TELAGA BARU",
    "postal_code": "28755"
  }
]