[
  {
    "village_code": "13678",
    "village": "BARAN MELINTANG",
    "postal_code": "28752"
  },
  {
    "village_code": "13686",
    "village": "BATANG MERANTI",
    "postal_code": "28752"
  },
  {
    "village_code": "13821",
    "village": "CENTAI",
    "postal_code": "28752"
  },
  {
    "village_code": "14057",
    "village": "KETAPANG PERMAI",
    "postal_code": "28752"
  },
  {
    "village_code": "14126",
    "village": "KUALA MERBAU",
    "postal_code": "28752"
  },
  {
    "village_code": "14355",
    "village": "PADANG KAMAL",
    "postal_code": "28752"
  },
  {
    "village_code": "14382",
    "village": "PANGKALAN BALAI",
    "postal_code": "28752"
  },
  {
    "village_code": "14697",
    "village": "RENAK DUNGUN",
    "postal_code": "28752"
  },
  {
    "village_code": "14832",
    "village": "SEMUKUT",
    "postal_code": "28752"
  },
  {
    "village_code": "15227",
    "village": "TANJUNGBUNGA",
    "postal_code": "28752"
  },
  {
    "village_code": "15277",
    "village": "TELUK KETAPANG",
    "postal_code": "28752"
  }
]