[
  {
    "village_code": "52135",
    "village": "BAKIRUK",
    "postal_code": "85762"
  },
  {
    "village_code": "52192",
    "village": "BARADA",
    "postal_code": "85762"
  },
  {
    "village_code": "52197",
    "village": "BARENE",
    "postal_code": "85762"
  },
  {
    "village_code": "52275",
    "village": "BERELIKU",
    "postal_code": "85762"
  },
  {
    "village_code": "52563",
    "village": "FAHILUKA",
    "postal_code": "85762"
  },
  {
    "village_code": "52754",
    "village": "HAREKAKAE",
    "postal_code": "85762"
  },
  {
    "village_code": "52872",
    "village": "KAKANIUK",
    "postal_code": "85762"
  },
  {
    "village_code": "52905",
    "village": "KAMANASA",
    "postal_code": "85762"
  },
  {
    "village_code": "52941",
    "village": "KATERI",
    "postal_code": "85762"
  },
  {
    "village_code": "53017",
    "village": "KLETEK",
    "postal_code": "85762"
  },
  {
    "village_code": "53237",
    "village": "LAWALU",
    "postal_code": "85762"
  },
  {
    "village_code": "53708",
    "village": "NAIMANA",
    "postal_code": "85762"
  },
  {
    "village_code": "54340",
    "village": "RAILOR TAHAK",
    "postal_code": "85762"
  },
  {
    "village_code": "54585",
    "village": "SUAI",
    "postal_code": "85762"
  },
  {
    "village_code": "54894",
    "village": "UMAKATAHAN",
    "postal_code": "85762"
  },
  {
    "village_code": "54902",
    "village": "UMANENLAWALU",
    "postal_code": "85762"
  },
  {
    "village_code": "55111",
    "village": "WEHALI",
    "postal_code": "85762"
  }
]