[
  {
    "village_code": "69191",
    "village": "BAHARI",
    "postal_code": "93793"
  },
  {
    "village_code": "69368",
    "village": "DETE",
    "postal_code": "93793"
  },
  {
    "village_code": "69455",
    "village": "KAHIYANGA (KAHIANGA)",
    "postal_code": "93793"
  },
  {
    "village_code": "69600",
    "village": "KULATI (KULATE)",
    "postal_code": "93793"
  },
  {
    "village_code": "70274",
    "village": "PALAHIDU BARAT",
    "postal_code": "93793"
  },
  {
    "village_code": "70311",
    "village": "PATIPELONG",
    "postal_code": "93793"
  },
  {
    "village_code": "70529",
    "village": "RUKUWA",
    "postal_code": "93793"
  },
  {
    "village_code": "70754",
    "village": "TIMU",
    "postal_code": "93793"
  },
  {
    "village_code": "70818",
    "village": "TONGANO BARAT",
    "postal_code": "93793"
  },
  {
    "village_code": "70819",
    "village": "TONGANO TIMUR",
    "postal_code": "93793"
  },
  {
    "village_code": "71100",
    "village": "WAWOTIMU",
    "postal_code": "93793"
  }
]