[
  {
    "village_code": "13953",
    "village": "JOJOL",
    "postal_code": "28991"
  },
  {
    "village_code": "14581",
    "village": "PULAU HALANG BELAKANG",
    "postal_code": "28991"
  },
  {
    "village_code": "14582",
    "village": "PULAU HALANG HULU",
    "postal_code": "28991"
  },
  {
    "village_code": "14583",
    "village": "PULAU HALANG MUKA",
    "postal_code": "28991"
  },
  {
    "village_code": "14673",
    "village": "RANTAU PANJANG KIRI",
    "postal_code": "28991"
  },
  {
    "village_code": "14672",
    "village": "RANTAU PANJANG KIRI HILIR",
    "postal_code": "28991"
  },
  {
    "village_code": "14792",
    "village": "SEI / SUNGAI MAJO",
    "postal_code": "28991"
  },
  {
    "village_code": "14793",
    "village": "SEI / SUNGAI PANJI PANJI",
    "postal_code": "28991"
  },
  {
    "village_code": "14795",
    "village": "SEI / SUNGAI PINANG",
    "postal_code": "28991"
  },
  {
    "village_code": "15099",
    "village": "SUNGAIMAJO PUSAKO",
    "postal_code": "28991"
  },
  {
    "village_code": "15293",
    "village": "TELUK NILAP",
    "postal_code": "28991"
  },
  {
    "village_code": "15292",
    "village": "TELUK NILAP JAYA",
    "postal_code": "28991"
  }
]