[
  {
    "village_code": "13666",
    "village": "BANJAR XII",
    "postal_code": "28983"
  },
  {
    "village_code": "14285",
    "village": "MENGGALA SAKTI",
    "postal_code": "28983"
  },
  {
    "village_code": "14286",
    "village": "MENGGALA SEMPURNA",
    "postal_code": "28983"
  },
  {
    "village_code": "14342",
    "village": "MUMUGO",
    "postal_code": "28983"
  },
  {
    "village_code": "14341",
    "village": "MUMUGO PEMEKARAN",
    "postal_code": "28983"
  },
  {
    "village_code": "14637",
    "village": "PUTAT",
    "postal_code": "28983"
  },
  {
    "village_code": "14662",
    "village": "RANTAU BAIS",
    "postal_code": "28983"
  },
  {
    "village_code": "14768",
    "village": "SEDINGINAN",
    "postal_code": "28983"
  },
  {
    "village_code": "14811",
    "village": "SEKELADI",
    "postal_code": "28983"
  },
  {
    "village_code": "14810",
    "village": "SEKELADI HILIR",
    "postal_code": "28983"
  },
  {
    "village_code": "14925",
    "village": "SINTONG",
    "postal_code": "28983"
  },
  {
    "village_code": "14922",
    "village": "SINTONG BAKTI",
    "postal_code": "28983"
  },
  {
    "village_code": "14923",
    "village": "SINTONG MAKMUR",
    "postal_code": "28983"
  },
  {
    "village_code": "14924",
    "village": "SINTONG PUSAKA",
    "postal_code": "28983"
  },
  {
    "village_code": "15264",
    "village": "TELUK BEREMBUN",
    "postal_code": "28983"
  },
  {
    "village_code": "15285",
    "village": "TELUK MEGA",
    "postal_code": "28983"
  },
  {
    "village_code": "15364",
    "village": "UJUNG TANJUNG",
    "postal_code": "28983"
  }
]