[
  {
    "village_code": "72567",
    "village": "BALBALU",
    "postal_code": "97572"
  },
  {
    "village_code": "72972",
    "village": "LEMANPOLI",
    "postal_code": "97572"
  },
  {
    "village_code": "73236",
    "village": "RAHERIAT",
    "postal_code": "97572"
  },
  {
    "village_code": "73483",
    "village": "WAEDANGA",
    "postal_code": "97572"
  },
  {
    "village_code": "73494",
    "village": "WAEKOSE",
    "postal_code": "97572"
  },
  {
    "village_code": "73495",
    "village": "WAELANA-LANA",
    "postal_code": "97572"
  },
  {
    "village_code": "73504",
    "village": "WAEMITE",
    "postal_code": "97572"
  },
  {
    "village_code": "73518",
    "village": "WAEREMAN",
    "postal_code": "97572"
  },
  {
    "village_code": "73551",
    "village": "WAINIBE (WAENIBE)",
    "postal_code": "97572"
  },
  {
    "village_code": "73577",
    "village": "WAMANA BARU",
    "postal_code": "97572"
  },
  {
    "village_code": "73579",
    "village": "WAMLANA",
    "postal_code": "97572"
  },
  {
    "village_code": "73604",
    "village": "WASI",
    "postal_code": "97572"
  },
  {
    "village_code": "73605",
    "village": "WASPAIT",
    "postal_code": "97572"
  }
]