[
  {
    "village_code": "64061",
    "village": "ABASON",
    "postal_code": "94884"
  },
  {
    "village_code": "64204",
    "village": "BATANG BABASAL",
    "postal_code": "94884"
  },
  {
    "village_code": "64289",
    "village": "BOLONAN",
    "postal_code": "94884"
  },
  {
    "village_code": "64666",
    "village": "KOMBUTOKAN",
    "postal_code": "94884"
  },
  {
    "village_code": "64894",
    "village": "LOPITO",
    "postal_code": "94884"
  },
  {
    "village_code": "65410",
    "village": "SAKAY",
    "postal_code": "94884"
  },
  {
    "village_code": "65415",
    "village": "SALANGANO",
    "postal_code": "94884"
  },
  {
    "village_code": "65445",
    "village": "SAMBIUT",
    "postal_code": "94884"
  },
  {
    "village_code": "65450",
    "village": "SAMPAKA",
    "postal_code": "94884"
  },
  {
    "village_code": "65580",
    "village": "SOBONON",
    "postal_code": "94884"
  },
  {
    "village_code": "65846",
    "village": "TONE",
    "postal_code": "94884"
  }
]