[
  {
    "village_code": "64067",
    "village": "ALAKASING",
    "postal_code": "94883"
  },
  {
    "village_code": "64163",
    "village": "BALOMBONG",
    "postal_code": "94883"
  },
  {
    "village_code": "64655",
    "village": "KOLAK",
    "postal_code": "94883"
  },
  {
    "village_code": "64694",
    "village": "KOYOBUNGA",
    "postal_code": "94883"
  },
  {
    "village_code": "64708",
    "village": "LABIBI",
    "postal_code": "94883"
  },
  {
    "village_code": "64900",
    "village": "LUK",
    "postal_code": "94883"
  },
  {
    "village_code": "65274",
    "village": "PATUKUKI",
    "postal_code": "94883"
  },
  {
    "village_code": "65343",
    "village": "POPISI",
    "postal_code": "94883"
  },
  {
    "village_code": "65816",
    "village": "TOLULOS",
    "postal_code": "94883"
  },
  {
    "village_code": "65826",
    "village": "TOMBOS",
    "postal_code": "94883"
  },
  {
    "village_code": "65894",
    "village": "TUNGGALING",
    "postal_code": "94883"
  }
]