[
  {
    "village_code": "40298",
    "village": "ASEMPAPAK",
    "postal_code": "61153"
  },
  {
    "village_code": "41274",
    "village": "BUNDERAN",
    "postal_code": "61153"
  },
  {
    "village_code": "41889",
    "village": "GEDANGAN",
    "postal_code": "61153"
  },
  {
    "village_code": "42075",
    "village": "GOLOKAN",
    "postal_code": "61153"
  },
  {
    "village_code": "43132",
    "village": "KAUMAN",
    "postal_code": "61153"
  },
  {
    "village_code": "43646",
    "village": "KERTOSONO",
    "postal_code": "61153"
  },
  {
    "village_code": "44086",
    "village": "LASEM",
    "postal_code": "61153"
  },
  {
    "village_code": "44548",
    "village": "MOJOASEM",
    "postal_code": "61153"
  },
  {
    "village_code": "44671",
    "village": "MRIYUNAN",
    "postal_code": "61153"
  },
  {
    "village_code": "44843",
    "village": "NGAWEN",
    "postal_code": "61153"
  },
  {
    "village_code": "45610",
    "village": "PENGULU",
    "postal_code": "61153"
  },
  {
    "village_code": "46038",
    "village": "PURWODADI",
    "postal_code": "61153"
  },
  {
    "village_code": "46097",
    "village": "RACIKULON",
    "postal_code": "61153"
  },
  {
    "village_code": "46098",
    "village": "RACITENGAH",
    "postal_code": "61153"
  },
  {
    "village_code": "46127",
    "village": "RANDUBOTO",
    "postal_code": "61153"
  },
  {
    "village_code": "46311",
    "village": "SAMBIPONDOK",
    "postal_code": "61153"
  },
  {
    "village_code": "46445",
    "village": "SEDAGARAN",
    "postal_code": "61153"
  },
  {
    "village_code": "46801",
    "village": "SIDOMULYO",
    "postal_code": "61153"
  },
  {
    "village_code": "47039",
    "village": "SROWO",
    "postal_code": "61153"
  },
  {
    "village_code": "47194",
    "village": "SUKOREJO",
    "postal_code": "61153"
  },
  {
    "village_code": "48376",
    "village": "WADENG",
    "postal_code": "61153"
  }
]