[
  {
    "village_code": "40414",
    "village": "BALIKTERUS",
    "postal_code": "61181"
  },
  {
    "village_code": "41236",
    "village": "BULULANJANG",
    "postal_code": "61181"
  },
  {
    "village_code": "41544",
    "village": "DAUN",
    "postal_code": "61181"
  },
  {
    "village_code": "41571",
    "village": "DEKATAGUNG",
    "postal_code": "61181"
  },
  {
    "village_code": "42212",
    "village": "GUNUNGTEGUH",
    "postal_code": "61181"
  },
  {
    "village_code": "43187",
    "village": "KEBON TELUK DALAM",
    "postal_code": "61181"
  },
  {
    "village_code": "43856",
    "village": "KOTA KUSUMA",
    "postal_code": "61181"
  },
  {
    "village_code": "43958",
    "village": "KUMALASA",
    "postal_code": "61181"
  },
  {
    "village_code": "44100",
    "village": "LEBAK",
    "postal_code": "61181"
  },
  {
    "village_code": "45466",
    "village": "PATARSELAMAT",
    "postal_code": "61181"
  },
  {
    "village_code": "45947",
    "village": "PUDAKIT BARAT",
    "postal_code": "61181"
  },
  {
    "village_code": "45948",
    "village": "PUDAKIT TIMUR",
    "postal_code": "61181"
  },
  {
    "village_code": "46411",
    "village": "SAWAHMULYA",
    "postal_code": "61181"
  },
  {
    "village_code": "46727",
    "village": "SIDOGEDUNG BATU",
    "postal_code": "61181"
  },
  {
    "village_code": "47567",
    "village": "SUNGAI RUJING",
    "postal_code": "61181"
  },
  {
    "village_code": "47568",
    "village": "SUNGAI TELUK",
    "postal_code": "61181"
  },
  {
    "village_code": "47604",
    "village": "SUWARI",
    "postal_code": "61181"
  }
]