[
  {
    "village_code": "41503",
    "village": "DAHANREJO",
    "postal_code": "61124"
  },
  {
    "village_code": "41970",
    "village": "GENDING",
    "postal_code": "61123"
  },
  {
    "village_code": "42024",
    "village": "GIRI",
    "postal_code": "61124"
  },
  {
    "village_code": "42151",
    "village": "GULOMANTUNG",
    "postal_code": "61124"
  },
  {
    "village_code": "42234",
    "village": "INDRO",
    "postal_code": "61124"
  },
  {
    "village_code": "42989",
    "village": "KARANGKERING",
    "postal_code": "61124"
  },
  {
    "village_code": "43145",
    "village": "KAWISANYAR",
    "postal_code": "61121"
  },
  {
    "village_code": "43180",
    "village": "KEBOMAS",
    "postal_code": "61121"
  },
  {
    "village_code": "43247",
    "village": "KEDANYANG",
    "postal_code": "61124"
  },
  {
    "village_code": "43458",
    "village": "KEMBANGAN",
    "postal_code": "61124"
  },
  {
    "village_code": "43774",
    "village": "KLANGONAN",
    "postal_code": "61124"
  },
  {
    "village_code": "44827",
    "village": "NGARGOSARI",
    "postal_code": "61124"
  },
  {
    "village_code": "45878",
    "village": "PRAMBANGAN",
    "postal_code": "61124"
  },
  {
    "village_code": "46120",
    "village": "RANDUAGUNG",
    "postal_code": "61121"
  },
  {
    "village_code": "46473",
    "village": "SEGOROMADU",
    "postal_code": "61123"
  },
  {
    "village_code": "46502",
    "village": "SEKARKURUNG",
    "postal_code": "61124"
  },
  {
    "village_code": "46762",
    "village": "SIDOMORO",
    "postal_code": "61122"
  },
  {
    "village_code": "46766",
    "village": "SIDOMUKTI",
    "postal_code": "61124"
  },
  {
    "village_code": "46900",
    "village": "SINGOSARI",
    "postal_code": "61122"
  },
  {
    "village_code": "47180",
    "village": "SUKOREJO",
    "postal_code": "61124"
  },
  {
    "village_code": "48081",
    "village": "TENGGULUNAN",
    "postal_code": "61124"
  }
]