[
  {
    "village_code": "41618",
    "village": "DIPONGGO",
    "postal_code": "61182"
  },
  {
    "village_code": "41922",
    "village": "GELAM",
    "postal_code": "61182"
  },
  {
    "village_code": "42120",
    "village": "GREJEG",
    "postal_code": "61182"
  },
  {
    "village_code": "43432",
    "village": "KELOMPANG GUBUG",
    "postal_code": "61182"
  },
  {
    "village_code": "43581",
    "village": "KEPUH LEGUNDI",
    "postal_code": "61182"
  },
  {
    "village_code": "43583",
    "village": "KEPUH TELUK",
    "postal_code": "61182"
  },
  {
    "village_code": "45541",
    "village": "PEKALONGAN",
    "postal_code": "61182"
  },
  {
    "village_code": "45631",
    "village": "PEROMAAN (PAROMAAN)",
    "postal_code": "61182"
  },
  {
    "village_code": "47090",
    "village": "SUKALELA",
    "postal_code": "61182"
  },
  {
    "village_code": "47092",
    "village": "SUKAONENG",
    "postal_code": "61182"
  },
  {
    "village_code": "47716",
    "village": "TAMBAK",
    "postal_code": "61182"
  },
  {
    "village_code": "47860",
    "village": "TANJUNGORI",
    "postal_code": "61182"
  },
  {
    "village_code": "48010",
    "village": "TELUK JATIDAWANG",
    "postal_code": "61182"
  }
]