[
  {
    "village_code": "40285",
    "village": "ARJOWINANGUN",
    "postal_code": "63516"
  },
  {
    "village_code": "40403",
    "village": "BALEHARJO",
    "postal_code": "63511"
  },
  {
    "village_code": "40560",
    "village": "BANGUNSARI",
    "postal_code": "63518"
  },
  {
    "village_code": "40639",
    "village": "BANJARSARI",
    "postal_code": "63518"
  },
  {
    "village_code": "41072",
    "village": "BOLOSINGO",
    "postal_code": "63518"
  },
  {
    "village_code": "43155",
    "village": "KAYEN",
    "postal_code": "63518"
  },
  {
    "village_code": "43455",
    "village": "KEMBANG",
    "postal_code": "63518"
  },
  {
    "village_code": "44436",
    "village": "MENADI",
    "postal_code": "63517"
  },
  {
    "village_code": "44465",
    "village": "MENTORO",
    "postal_code": "63518"
  },
  {
    "village_code": "44736",
    "village": "NANGGUNGAN",
    "postal_code": "63518"
  },
  {
    "village_code": "45106",
    "village": "PACITAN",
    "postal_code": "63512"
  },
  {
    "village_code": "45749",
    "village": "PLOSO",
    "postal_code": "63515"
  },
  {
    "village_code": "45847",
    "village": "PONGGOK",
    "postal_code": "63518"
  },
  {
    "village_code": "45940",
    "village": "PUCANGSEWU (PACUNGSEWU)",
    "postal_code": "63513"
  },
  {
    "village_code": "46054",
    "village": "PURWOREJO",
    "postal_code": "63518"
  },
  {
    "village_code": "46342",
    "village": "SAMBONG",
    "postal_code": "63518"
  },
  {
    "village_code": "46460",
    "village": "SEDENG",
    "postal_code": "63518"
  },
  {
    "village_code": "46561",
    "village": "SEMANTEN",
    "postal_code": "63518"
  },
  {
    "village_code": "46733",
    "village": "SIDOHARJO",
    "postal_code": "63514"
  },
  {
    "village_code": "46908",
    "village": "SIRNOBOYO",
    "postal_code": "63518"
  },
  {
    "village_code": "47127",
    "village": "SUKOHARJO",
    "postal_code": "63518"
  },
  {
    "village_code": "47425",
    "village": "SUMBERHARJO",
    "postal_code": "63518"
  },
  {
    "village_code": "47736",
    "village": "TAMBAKREJO",
    "postal_code": "63518"
  },
  {
    "village_code": "47873",
    "village": "TANJUNGSARI",
    "postal_code": "63518"
  },
  {
    "village_code": "48503",
    "village": "WIDORO",
    "postal_code": "63518"
  }
]