[
  {
    "village_code": "40843",
    "village": "BELAH",
    "postal_code": "63554"
  },
  {
    "village_code": "41393",
    "village": "CEMENG",
    "postal_code": "63554"
  },
  {
    "village_code": "41644",
    "village": "DONOROJO",
    "postal_code": "63554"
  },
  {
    "village_code": "41902",
    "village": "GEDOMPOL",
    "postal_code": "63554"
  },
  {
    "village_code": "41968",
    "village": "GENDARAN",
    "postal_code": "63554"
  },
  {
    "village_code": "42658",
    "village": "KALAK",
    "postal_code": "63554"
  },
  {
    "village_code": "43796",
    "village": "KLEPU",
    "postal_code": "63554"
  },
  {
    "village_code": "46401",
    "village": "SAWAHAN",
    "postal_code": "63554"
  },
  {
    "village_code": "46483",
    "village": "SEKAR",
    "postal_code": "63554"
  },
  {
    "village_code": "46615",
    "village": "SENDANG",
    "postal_code": "63554"
  },
  {
    "village_code": "47114",
    "village": "SUKODONO",
    "postal_code": "63554"
  },
  {
    "village_code": "48500",
    "village": "WIDORO",
    "postal_code": "63554"
  }
]