[
  {
    "village_code": "41047",
    "village": "BODAG",
    "postal_code": "63572"
  },
  {
    "village_code": "41060",
    "village": "BOGOHARJO (BEGOHARJO)",
    "postal_code": "63572"
  },
  {
    "village_code": "41366",
    "village": "CANGKRING",
    "postal_code": "63572"
  },
  {
    "village_code": "41443",
    "village": "COKROKEMBANG",
    "postal_code": "63572"
  },
  {
    "village_code": "42222",
    "village": "HADILUWIH",
    "postal_code": "63572"
  },
  {
    "village_code": "42223",
    "village": "HADIWARNO",
    "postal_code": "63572"
  },
  {
    "village_code": "44783",
    "village": "NGADIROJO",
    "postal_code": "63572"
  },
  {
    "village_code": "45043",
    "village": "NOGOSARI",
    "postal_code": "63572"
  },
  {
    "village_code": "45150",
    "village": "PAGEREJO (PANGEREJO)",
    "postal_code": "63572"
  },
  {
    "village_code": "46790",
    "village": "SIDOMULYO",
    "postal_code": "63572"
  },
  {
    "village_code": "47837",
    "village": "TANJUNG LOR",
    "postal_code": "63572"
  },
  {
    "village_code": "47861",
    "village": "TANJUNGPURO",
    "postal_code": "63572"
  },
  {
    "village_code": "48525",
    "village": "WIYORO",
    "postal_code": "63572"
  },
  {
    "village_code": "48540",
    "village": "WONOASRI",
    "postal_code": "63572"
  },
  {
    "village_code": "48554",
    "village": "WONODADI KULON",
    "postal_code": "63572"
  },
  {
    "village_code": "48555",
    "village": "WONODADI WETAN",
    "postal_code": "63572"
  },
  {
    "village_code": "48567",
    "village": "WONOKARTO",
    "postal_code": "63572"
  },
  {
    "village_code": "48642",
    "village": "WONOSOBO",
    "postal_code": "63572"
  }
]