[
  {
    "village_code": "41338",
    "village": "CANDI",
    "postal_code": "63552"
  },
  {
    "village_code": "41492",
    "village": "DADAPAN",
    "postal_code": "63552"
  },
  {
    "village_code": "41602",
    "village": "DERSONO",
    "postal_code": "63552"
  },
  {
    "village_code": "42059",
    "village": "GLINGGANGAN",
    "postal_code": "63552"
  },
  {
    "village_code": "42530",
    "village": "JLUBANG",
    "postal_code": "63552"
  },
  {
    "village_code": "44766",
    "village": "NGADIREJAN",
    "postal_code": "63552"
  },
  {
    "village_code": "45567",
    "village": "PELEM",
    "postal_code": "63552"
  },
  {
    "village_code": "45824",
    "village": "POKO",
    "postal_code": "63552"
  },
  {
    "village_code": "45910",
    "village": "PRINGKUKU",
    "postal_code": "63552"
  },
  {
    "village_code": "46947",
    "village": "SOBO",
    "postal_code": "63552"
  },
  {
    "village_code": "47084",
    "village": "SUGIHWARAS",
    "postal_code": "63552"
  },
  {
    "village_code": "47672",
    "village": "TAMANASRI",
    "postal_code": "63552"
  },
  {
    "village_code": "48451",
    "village": "WATU KARUNG",
    "postal_code": "63552"
  }
]