[
  {
    "village_code": "31555",
    "village": "BANYURIP AGENG",
    "postal_code": "51139"
  },
  {
    "village_code": "31556",
    "village": "BANYURIP ALIT",
    "postal_code": "51139"
  },
  {
    "village_code": "32002",
    "village": "BUARAN",
    "postal_code": "51171"
  },
  {
    "village_code": "32654",
    "village": "DUWET",
    "postal_code": "51138"
  },
  {
    "village_code": "33484",
    "village": "JENGGOT",
    "postal_code": "51133"
  },
  {
    "village_code": "34973",
    "village": "KERTOHARJO",
    "postal_code": "51134"
  },
  {
    "village_code": "35162",
    "village": "KRADENAN",
    "postal_code": "51132"
  },
  {
    "village_code": "35337",
    "village": "KURIPAN KIDUL",
    "postal_code": "51135"
  },
  {
    "village_code": "35338",
    "village": "KURIPAN LOR",
    "postal_code": "51136"
  },
  {
    "village_code": "38308",
    "village": "SOKO",
    "postal_code": "51139"
  },
  {
    "village_code": "39746",
    "village": "YOSOREJO",
    "postal_code": "51137"
  }
]