[
  {
    "village_code": "31588",
    "village": "BAROS",
    "postal_code": "51129"
  },
  {
    "village_code": "32472",
    "village": "DEKORO",
    "postal_code": "51123"
  },
  {
    "village_code": "32706",
    "village": "GAMER",
    "postal_code": "51123"
  },
  {
    "village_code": "34279",
    "village": "KARANGMALANG",
    "postal_code": "51122"
  },
  {
    "village_code": "34483",
    "village": "KAUMAN",
    "postal_code": "51127"
  },
  {
    "village_code": "34945",
    "village": "KEPUTRAN",
    "postal_code": "51128"
  },
  {
    "village_code": "35097",
    "village": "KLEGO",
    "postal_code": "51124"
  },
  {
    "village_code": "35435",
    "village": "LANDUNGSARI",
    "postal_code": "51129"
  },
  {
    "village_code": "36369",
    "village": "NOYONTAAN",
    "postal_code": "51129"
  },
  {
    "village_code": "37135",
    "village": "PONCOL",
    "postal_code": "51122"
  },
  {
    "village_code": "37676",
    "village": "SAMPANGAN",
    "postal_code": "51126"
  },
  {
    "village_code": "38315",
    "village": "SOKOREJO",
    "postal_code": "51129"
  },
  {
    "village_code": "38430",
    "village": "SUGIHWARAS",
    "postal_code": "51129"
  }
]