[
  {
    "village_code": "31689",
    "village": "BENDAN",
    "postal_code": "51119"
  },
  {
    "village_code": "32106",
    "village": "BUMIREJO",
    "postal_code": "51117"
  },
  {
    "village_code": "34586",
    "village": "KEBULEN",
    "postal_code": "51112"
  },
  {
    "village_code": "34950",
    "village": "KERGON",
    "postal_code": "51113"
  },
  {
    "village_code": "35200",
    "village": "KRAMATSARI",
    "postal_code": "51118"
  },
  {
    "village_code": "35233",
    "village": "KRATON KIDUL",
    "postal_code": "51117"
  },
  {
    "village_code": "35826",
    "village": "MEDONO",
    "postal_code": "51111"
  },
  {
    "village_code": "36705",
    "village": "PASIRSARI",
    "postal_code": "51118"
  },
  {
    "village_code": "37099",
    "village": "PODOSUGIH",
    "postal_code": "51111"
  },
  {
    "village_code": "37198",
    "village": "PRINGLANGU",
    "postal_code": "51117"
  },
  {
    "village_code": "37709",
    "village": "SAPURO",
    "postal_code": "51112"
  },
  {
    "village_code": "38938",
    "village": "TEGALREJO",
    "postal_code": "51116"
  },
  {
    "village_code": "39118",
    "village": "TIRTO",
    "postal_code": "51151"
  }
]