[
  {
    "village_code": "33646",
    "village": "JREBENG KEMBANG",
    "postal_code": "51174"
  },
  {
    "village_code": "33815",
    "village": "KALIGAWE",
    "postal_code": "51174"
  },
  {
    "village_code": "33872",
    "village": "KALILEMBU",
    "postal_code": "51174"
  },
  {
    "village_code": "34169",
    "village": "KARANGDADAP",
    "postal_code": "51174"
  },
  {
    "village_code": "34570",
    "village": "KEBONROWO PUCANG",
    "postal_code": "51174"
  },
  {
    "village_code": "34573",
    "village": "KEBONSARI",
    "postal_code": "51174"
  },
  {
    "village_code": "34646",
    "village": "KEDUNG KEBO",
    "postal_code": "51174"
  },
  {
    "village_code": "35577",
    "village": "LOGANDENG",
    "postal_code": "51174"
  },
  {
    "village_code": "36475",
    "village": "PAGUMENGAN MAS",
    "postal_code": "51174"
  },
  {
    "village_code": "36609",
    "village": "PANGKAH",
    "postal_code": "51174"
  },
  {
    "village_code": "36781",
    "village": "PEGANDON",
    "postal_code": "51174"
  }
]