[
  {
    "village_code": "75018",
    "village": "ANITILA",
    "postal_code": "99567"
  },
  {
    "village_code": "75212",
    "village": "BALIME",
    "postal_code": "99563"
  },
  {
    "village_code": "75211",
    "village": "BALIME (BALINGGA)",
    "postal_code": "99563"
  },
  {
    "village_code": "75215",
    "village": "BALIMNERI",
    "postal_code": "99563"
  },
  {
    "village_code": "75468",
    "village": "BRUYUGU",
    "postal_code": "99563"
  },
  {
    "village_code": "75756",
    "village": "EKABA",
    "postal_code": "99567"
  },
  {
    "village_code": "76024",
    "village": "GUME",
    "postal_code": "99563"
  },
  {
    "village_code": "77677",
    "village": "OGODOME (ODAGOME)",
    "postal_code": "99567"
  },
  {
    "village_code": "77988",
    "village": "POPOME",
    "postal_code": "99563"
  },
  {
    "village_code": "78660",
    "village": "TIKOME",
    "postal_code": "99567"
  },
  {
    "village_code": "78661",
    "village": "TIMA",
    "postal_code": "99563"
  },
  {
    "village_code": "78688",
    "village": "TINGGIPURA",
    "postal_code": "99563"
  },
  {
    "village_code": "78999",
    "village": "WAME",
    "postal_code": "99567"
  },
  {
    "village_code": "79564",
    "village": "YEYUGU (GILUBANDU)",
    "postal_code": "99563"
  },
  {
    "village_code": "79642",
    "village": "YUGUME",
    "postal_code": "99563"
  }
]