[
  {
    "village_code": "75054",
    "village": "ARGENERI (ARIGENERI / ARGINERI)",
    "postal_code": "99563"
  },
  {
    "village_code": "75432",
    "village": "BONANIP",
    "postal_code": "99563"
  },
  {
    "village_code": "76001",
    "village": "GUARI (GIARI / GUARE)",
    "postal_code": "99563"
  },
  {
    "village_code": "76004",
    "village": "GUBO (NOBO)",
    "postal_code": "99563"
  },
  {
    "village_code": "76817",
    "village": "KUABAGA (KUOBAGA)",
    "postal_code": "99563"
  },
  {
    "village_code": "76841",
    "village": "KUKEPAKE",
    "postal_code": "99563"
  },
  {
    "village_code": "77076",
    "village": "MABUME (NABUNE)",
    "postal_code": "99563"
  },
  {
    "village_code": "77315",
    "village": "MILINGGAME (MALIMNERI)",
    "postal_code": "99563"
  },
  {
    "village_code": "77979",
    "village": "PONALO (PANALO)",
    "postal_code": "99563"
  },
  {
    "village_code": "78526",
    "village": "TABUKEKER",
    "postal_code": "99563"
  },
  {
    "village_code": "78666",
    "village": "TIMI",
    "postal_code": "99563"
  },
  {
    "village_code": "78713",
    "village": "TIWA",
    "postal_code": "99563"
  }
]