[
  {
    "village_code": "75160",
    "village": "AYAFOFA",
    "postal_code": "99556"
  },
  {
    "village_code": "75758",
    "village": "EKAPAME",
    "postal_code": "99556"
  },
  {
    "village_code": "75896",
    "village": "GAMELIA",
    "postal_code": "99556"
  },
  {
    "village_code": "76015",
    "village": "GUKOPI (GUKOP)",
    "postal_code": "99556"
  },
  {
    "village_code": "77669",
    "village": "ODIKA",
    "postal_code": "99556"
  },
  {
    "village_code": "77921",
    "village": "PINDALO",
    "postal_code": "99556"
  },
  {
    "village_code": "77943",
    "village": "PIRAWUN",
    "postal_code": "99556"
  },
  {
    "village_code": "77955",
    "village": "PIWUGUN",
    "postal_code": "99556"
  },
  {
    "village_code": "78134",
    "village": "SALLEMO (SALEMO)",
    "postal_code": "99556"
  },
  {
    "village_code": "79350",
    "village": "WUPI",
    "postal_code": "99556"
  },
  {
    "village_code": "79635",
    "village": "YUDANI",
    "postal_code": "99556"
  },
  {
    "village_code": "79640",
    "village": "YUGUMABUR (YUBUMABUR)",
    "postal_code": "99556"
  }
]