[
  {
    "village_code": "75410",
    "village": "BOKON",
    "postal_code": "99563"
  },
  {
    "village_code": "75716",
    "village": "DUGUME",
    "postal_code": "99563"
  },
  {
    "village_code": "75734",
    "village": "DURA",
    "postal_code": "99563"
  },
  {
    "village_code": "75978",
    "village": "GIWAN",
    "postal_code": "99563"
  },
  {
    "village_code": "75985",
    "village": "GOLIKME (GOLIME)",
    "postal_code": "99563"
  },
  {
    "village_code": "76029",
    "village": "GUNINGGAME",
    "postal_code": "99563"
  },
  {
    "village_code": "76033",
    "village": "GURIKA",
    "postal_code": "99563"
  },
  {
    "village_code": "76758",
    "village": "KONIKME",
    "postal_code": "99563"
  },
  {
    "village_code": "76871",
    "village": "KUMULUK",
    "postal_code": "99563"
  },
  {
    "village_code": "76921",
    "village": "KWENUKWI",
    "postal_code": "99563"
  },
  {
    "village_code": "77028",
    "village": "LONGGALO",
    "postal_code": "99563"
  },
  {
    "village_code": "77044",
    "village": "LUGOM (LOGOM)",
    "postal_code": "99563"
  },
  {
    "village_code": "77362",
    "village": "MOKONI",
    "postal_code": "99563"
  },
  {
    "village_code": "77491",
    "village": "NAME",
    "postal_code": "99563"
  },
  {
    "village_code": "77570",
    "village": "NINABUA",
    "postal_code": "99563"
  },
  {
    "village_code": "77592",
    "village": "NOBO (GUBO)",
    "postal_code": "99563"
  },
  {
    "village_code": "77733",
    "village": "OLUME",
    "postal_code": "99563"
  },
  {
    "village_code": "77784",
    "village": "OYI",
    "postal_code": "99563"
  },
  {
    "village_code": "79332",
    "village": "WULUNDIA",
    "postal_code": "99563"
  },
  {
    "village_code": "79581",
    "village": "YIRENE",
    "postal_code": "99563"
  },
  {
    "village_code": "79595",
    "village": "YOGOBAK (YAKOBAK)",
    "postal_code": "99563"
  }
]