[
  {
    "village_code": "75757",
    "village": "EKANOM",
    "postal_code": "99567"
  },
  {
    "village_code": "75986",
    "village": "GOLO",
    "postal_code": "99567"
  },
  {
    "village_code": "75987",
    "village": "GOLOMI",
    "postal_code": "99567"
  },
  {
    "village_code": "75988",
    "village": "GOLOPURA",
    "postal_code": "99567"
  },
  {
    "village_code": "76238",
    "village": "ILUNGGUME (ILUNGGAME / ILUNGGIME)",
    "postal_code": "99567"
  },
  {
    "village_code": "76529",
    "village": "KARUNGGAME",
    "postal_code": "99567"
  },
  {
    "village_code": "76834",
    "village": "KUGAME",
    "postal_code": "99567"
  },
  {
    "village_code": "76851",
    "village": "KULIA",
    "postal_code": "99567"
  },
  {
    "village_code": "76903",
    "village": "KUWANOM",
    "postal_code": "99567"
  },
  {
    "village_code": "76983",
    "village": "LIBOME",
    "postal_code": "99567"
  },
  {
    "village_code": "77042",
    "village": "LUBUTINI",
    "postal_code": "99567"
  },
  {
    "village_code": "77273",
    "village": "MELENDIK",
    "postal_code": "99567"
  },
  {
    "village_code": "77312",
    "village": "MILIMBO",
    "postal_code": "99567"
  },
  {
    "village_code": "77490",
    "village": "NAMBUME",
    "postal_code": "99567"
  },
  {
    "village_code": "77503",
    "village": "NANIM",
    "postal_code": "99567"
  },
  {
    "village_code": "77566",
    "village": "NILEME",
    "postal_code": "99567"
  },
  {
    "village_code": "77948",
    "village": "PIRIME",
    "postal_code": "99567"
  },
  {
    "village_code": "78545",
    "village": "TAKOBAK",
    "postal_code": "99567"
  },
  {
    "village_code": "78608",
    "village": "TEKUL",
    "postal_code": "99567"
  },
  {
    "village_code": "78847",
    "village": "UMBANUME",
    "postal_code": "99567"
  },
  {
    "village_code": "79007",
    "village": "WAMINDIK",
    "postal_code": "99567"
  },
  {
    "village_code": "79158",
    "village": "WENAM",
    "postal_code": "99567"
  },
  {
    "village_code": "79233",
    "village": "WIRINI",
    "postal_code": "99567"
  },
  {
    "village_code": "79424",
    "village": "YALIPAK",
    "postal_code": "99567"
  },
  {
    "village_code": "79444",
    "village": "YAMIGA",
    "postal_code": "99567"
  },
  {
    "village_code": "79584",
    "village": "YIWILI",
    "postal_code": "99567"
  },
  {
    "village_code": "79641",
    "village": "YUGUMABUR (YUGUMOBUR)",
    "postal_code": "99567"
  }
]