[
  {
    "village_code": "21846",
    "village": "BOGA TAMA",
    "postal_code": "34595"
  },
  {
    "village_code": "22043",
    "village": "DWI MULYO",
    "postal_code": "34595"
  },
  {
    "village_code": "23115",
    "village": "PULO GADUNG",
    "postal_code": "34595"
  },
  {
    "village_code": "23226",
    "village": "REJOSARI",
    "postal_code": "34595"
  },
  {
    "village_code": "23353",
    "village": "SIDODADI",
    "postal_code": "34595"
  },
  {
    "village_code": "23361",
    "village": "SIDOHARJO",
    "postal_code": "34595"
  },
  {
    "village_code": "23368",
    "village": "SIDOMAKMUR",
    "postal_code": "34595"
  },
  {
    "village_code": "23379",
    "village": "SIDOMULYO",
    "postal_code": "34595"
  },
  {
    "village_code": "23979",
    "village": "TRI JAYA",
    "postal_code": "34595"
  },
  {
    "village_code": "23981",
    "village": "TRI KARYA",
    "postal_code": "34595"
  },
  {
    "village_code": "23987",
    "village": "TRI REJO MULYO",
    "postal_code": "34595"
  },
  {
    "village_code": "23991",
    "village": "TRI TUNGGAL JAYA",
    "postal_code": "34595"
  },
  {
    "village_code": "24144",
    "village": "WIRAAGUNG SARI",
    "postal_code": "34595"
  },
  {
    "village_code": "24148",
    "village": "WIRATAMA",
    "postal_code": "34595"
  }
]