[
  {
    "village_code": "21866",
    "village": "BRATASENA ADIWARNA",
    "postal_code": "34596"
  },
  {
    "village_code": "21867",
    "village": "BRATASENA MANDIRI",
    "postal_code": "34596"
  },
  {
    "village_code": "22034",
    "village": "DENTE MAKMUR",
    "postal_code": "34596"
  },
  {
    "village_code": "22444",
    "village": "KEKATUNG",
    "postal_code": "34596"
  },
  {
    "village_code": "22541",
    "village": "KUALA TELADAS",
    "postal_code": "34596"
  },
  {
    "village_code": "22628",
    "village": "MAHABANG",
    "postal_code": "34596"
  },
  {
    "village_code": "22999",
    "village": "PASIRAN JAYA",
    "postal_code": "34596"
  },
  {
    "village_code": "23054",
    "village": "PENDOWO ASRI",
    "postal_code": "34596"
  },
  {
    "village_code": "23737",
    "village": "SUNGAI BURUNG",
    "postal_code": "34596"
  },
  {
    "village_code": "23741",
    "village": "SUNGAI NIBUNG",
    "postal_code": "34596"
  },
  {
    "village_code": "23928",
    "village": "TELADAS",
    "postal_code": "34596"
  },
  {
    "village_code": "24081",
    "village": "WAY DENTE",
    "postal_code": "34596"
  }
]