[
  {
    "village_code": "66213",
    "village": "BARRANG CADDI",
    "postal_code": "90167"
  },
  {
    "village_code": "66214",
    "village": "BARRANG LOMPO",
    "postal_code": "90166"
  },
  {
    "village_code": "66730",
    "village": "CAMBA BERUA",
    "postal_code": "90162"
  },
  {
    "village_code": "66732",
    "village": "CAMBAYA",
    "postal_code": "90162"
  },
  {
    "village_code": "66883",
    "village": "GUSUNG",
    "postal_code": "90163"
  },
  {
    "village_code": "67104",
    "village": "KODINGARENG",
    "postal_code": "90168"
  },
  {
    "village_code": "68052",
    "village": "PATTINGALLOANG",
    "postal_code": "90161"
  },
  {
    "village_code": "68051",
    "village": "PATTINGALLOANG BARU",
    "postal_code": "90161"
  },
  {
    "village_code": "68544",
    "village": "TABARINGAN",
    "postal_code": "90165"
  },
  {
    "village_code": "68593",
    "village": "TAMALABBA",
    "postal_code": "90164"
  },
  {
    "village_code": "68869",
    "village": "TOTAKA",
    "postal_code": "90165"
  },
  {
    "village_code": "68924",
    "village": "UJUNG TANAH",
    "postal_code": "90164"
  }
]