[
  {
    "village_code": "7081",
    "village": "BAWOZAMAIWO",
    "postal_code": "22864"
  },
  {
    "village_code": "7790",
    "village": "HILIADULO",
    "postal_code": "22864"
  },
  {
    "village_code": "8216",
    "village": "IRAONOGAILA",
    "postal_code": "22864"
  },
  {
    "village_code": "8778",
    "village": "LOLOGUNDRE",
    "postal_code": "22864"
  },
  {
    "village_code": "8794",
    "village": "LOLOWAU",
    "postal_code": "22864"
  },
  {
    "village_code": "9380",
    "village": "ONO LIMBU",
    "postal_code": "22864"
  },
  {
    "village_code": "9382",
    "village": "ONO WAEMBO",
    "postal_code": "22864"
  },
  {
    "village_code": "11552",
    "village": "SISOBAMBOWO",
    "postal_code": "22864"
  },
  {
    "village_code": "11555",
    "village": "SISOBAOHO",
    "postal_code": "22864"
  },
  {
    "village_code": "11597",
    "village": "SITOLU BANUA",
    "postal_code": "22864"
  },
  {
    "village_code": "12183",
    "village": "TIGA SERANGKAI",
    "postal_code": "22864"
  }
]