[
  {
    "village_code": "73665",
    "village": "ACANGO",
    "postal_code": "97752"
  },
  {
    "village_code": "73682",
    "village": "AKEDIRI",
    "postal_code": "97752"
  },
  {
    "village_code": "73782",
    "village": "BOBANEHENA",
    "postal_code": "97752"
  },
  {
    "village_code": "73787",
    "village": "BOBO",
    "postal_code": "97752"
  },
  {
    "village_code": "73786",
    "village": "BOBO JIKO",
    "postal_code": "97752"
  },
  {
    "village_code": "73806",
    "village": "BUKU BUALAWA",
    "postal_code": "97752"
  },
  {
    "village_code": "73807",
    "village": "BUKU MAADU",
    "postal_code": "97752"
  },
  {
    "village_code": "73808",
    "village": "BUKUMATITI",
    "postal_code": "97752"
  },
  {
    "village_code": "73915",
    "village": "GALALA",
    "postal_code": "97752"
  },
  {
    "village_code": "73931",
    "village": "GAMLAMO",
    "postal_code": "97752"
  },
  {
    "village_code": "73941",
    "village": "GAMTALA",
    "postal_code": "97752"
  },
  {
    "village_code": "73983",
    "village": "GUAEMAADU (GUAIMAADU)",
    "postal_code": "97752"
  },
  {
    "village_code": "73984",
    "village": "GUAERIA",
    "postal_code": "97752"
  },
  {
    "village_code": "73986",
    "village": "GUFASA",
    "postal_code": "97752"
  },
  {
    "village_code": "74001",
    "village": "HATE BICARA",
    "postal_code": "97752"
  },
  {
    "village_code": "74009",
    "village": "HOKU HOKU KIE (HUKU-HUKU KIE)",
    "postal_code": "97752"
  },
  {
    "village_code": "74012",
    "village": "IDAMDEHE",
    "postal_code": "97752"
  },
  {
    "village_code": "74011",
    "village": "IDAMDEHE GAMSUNGI",
    "postal_code": "97752"
  },
  {
    "village_code": "74023",
    "village": "JALAN BARU",
    "postal_code": "97752"
  },
  {
    "village_code": "74126",
    "village": "KURIPASAI",
    "postal_code": "97752"
  },
  {
    "village_code": "74190",
    "village": "LOLOY (LOLORI)",
    "postal_code": "97752"
  },
  {
    "village_code": "74248",
    "village": "MARMABATI (MARIMBATI)",
    "postal_code": "97752"
  },
  {
    "village_code": "74254",
    "village": "MATUI",
    "postal_code": "97752"
  },
  {
    "village_code": "74357",
    "village": "PATENG",
    "postal_code": "97752"
  },
  {
    "village_code": "74361",
    "village": "PAYO",
    "postal_code": "97752"
  },
  {
    "village_code": "74387",
    "village": "PORNITY (PORNITI)",
    "postal_code": "97752"
  },
  {
    "village_code": "74459",
    "village": "SARIA",
    "postal_code": "97752"
  },
  {
    "village_code": "74501",
    "village": "SOAKONORA",
    "postal_code": "97752"
  },
  {
    "village_code": "74552",
    "village": "TABOSO (TOBOSA / TABASO)",
    "postal_code": "97752"
  },
  {
    "village_code": "74598",
    "village": "TAURO",
    "postal_code": "97752"
  },
  {
    "village_code": "74606",
    "village": "TEDENG",
    "postal_code": "97752"
  },
  {
    "village_code": "74647",
    "village": "TODOWANGI (TODOWONGI)",
    "postal_code": "97752"
  },
  {
    "village_code": "74697",
    "village": "TUADA",
    "postal_code": "97752"
  },
  {
    "village_code": "74719",
    "village": "ULO",
    "postal_code": "97752"
  }
]