[
  {
    "village_code": "73673",
    "village": "AIR PANAS",
    "postal_code": "97753"
  },
  {
    "village_code": "73691",
    "village": "AKELAMO",
    "postal_code": "97753"
  },
  {
    "village_code": "73697",
    "village": "AKETOLA",
    "postal_code": "97753"
  },
  {
    "village_code": "73716",
    "village": "AWER",
    "postal_code": "97753"
  },
  {
    "village_code": "73822",
    "village": "CAMPAKA",
    "postal_code": "97753"
  },
  {
    "village_code": "73934",
    "village": "GAMNYIAL",
    "postal_code": "97753"
  },
  {
    "village_code": "73935",
    "village": "GAMOMENG",
    "postal_code": "97753"
  },
  {
    "village_code": "73939",
    "village": "GAMSUNGI",
    "postal_code": "97753"
  },
  {
    "village_code": "73958",
    "village": "GOAL",
    "postal_code": "97753"
  },
  {
    "village_code": "73961",
    "village": "GOLAGO KUSUMA",
    "postal_code": "97753"
  },
  {
    "village_code": "74008",
    "village": "HOKU HOKU GAM",
    "postal_code": "97753"
  },
  {
    "village_code": "74013",
    "village": "IDAMGAMLAMO",
    "postal_code": "97753"
  },
  {
    "village_code": "74176",
    "village": "LOCE",
    "postal_code": "97753"
  },
  {
    "village_code": "74295",
    "village": "NGAON",
    "postal_code": "97753"
  },
  {
    "village_code": "74480",
    "village": "SIDODADI",
    "postal_code": "97753"
  },
  {
    "village_code": "74540",
    "village": "TABA CAMPAKA",
    "postal_code": "97753"
  },
  {
    "village_code": "74590",
    "village": "TARAUDU KUSU",
    "postal_code": "97753"
  },
  {
    "village_code": "74617",
    "village": "TIBOBO",
    "postal_code": "97753"
  }
]