[
  {
    "village_code": "73709",
    "village": "ARU JAYA",
    "postal_code": "97754"
  },
  {
    "village_code": "73798",
    "village": "BORONA",
    "postal_code": "97754"
  },
  {
    "village_code": "73879",
    "village": "DUONO",
    "postal_code": "97754"
  },
  {
    "village_code": "73960",
    "village": "GOIN",
    "postal_code": "97754"
  },
  {
    "village_code": "74346",
    "village": "PASALULU",
    "postal_code": "97754"
  },
  {
    "village_code": "74381",
    "village": "PODOL",
    "postal_code": "97754"
  },
  {
    "village_code": "74446",
    "village": "SANGAJI NYEKU",
    "postal_code": "97754"
  },
  {
    "village_code": "74506",
    "village": "SOASANGAJI",
    "postal_code": "97754"
  },
  {
    "village_code": "74610",
    "village": "TENGOWANGO (TEONGOWANGO)",
    "postal_code": "97754"
  },
  {
    "village_code": "74644",
    "village": "TODOKE",
    "postal_code": "97754"
  },
  {
    "village_code": "74657",
    "village": "TOGOREBA SUNGI (TUGUREBA SUNGI)",
    "postal_code": "97754"
  },
  {
    "village_code": "74658",
    "village": "TOGOREBA TUA",
    "postal_code": "97754"
  },
  {
    "village_code": "74659",
    "village": "TOGOWO",
    "postal_code": "97754"
  },
  {
    "village_code": "74663",
    "village": "TOLISAOR",
    "postal_code": "97754"
  },
  {
    "village_code": "74704",
    "village": "TUGUIS",
    "postal_code": "97754"
  },
  {
    "village_code": "74708",
    "village": "TUKUOKU",
    "postal_code": "97754"
  }
]