[
  {
    "village_code": "32213",
    "village": "CANGKOL",
    "postal_code": "57283"
  },
  {
    "village_code": "32437",
    "village": "DARI",
    "postal_code": "57283"
  },
  {
    "village_code": "32797",
    "village": "GEDONGAN",
    "postal_code": "57283"
  },
  {
    "village_code": "32875",
    "village": "GENTAN BANARAN",
    "postal_code": "57283"
  },
  {
    "village_code": "33255",
    "village": "JABUNG",
    "postal_code": "57283"
  },
  {
    "village_code": "33460",
    "village": "JEMBANGAN",
    "postal_code": "57283"
  },
  {
    "village_code": "34070",
    "village": "KARANG ANYAR",
    "postal_code": "57283"
  },
  {
    "village_code": "34433",
    "village": "KARANGWARU",
    "postal_code": "57283"
  },
  {
    "village_code": "34450",
    "village": "KARUNGAN",
    "postal_code": "57283"
  },
  {
    "village_code": "35768",
    "village": "MANYAREJO",
    "postal_code": "57283"
  },
  {
    "village_code": "36340",
    "village": "NGROMBO",
    "postal_code": "57283"
  },
  {
    "village_code": "37090",
    "village": "PLUPUH",
    "postal_code": "57283"
  },
  {
    "village_code": "37301",
    "village": "PUNGSARI",
    "postal_code": "57283"
  },
  {
    "village_code": "37634",
    "village": "SAMBIREJO",
    "postal_code": "57283"
  },
  {
    "village_code": "38063",
    "village": "SIDOKERTO",
    "postal_code": "57283"
  },
  {
    "village_code": "38331",
    "village": "SOMOMORO DUKUH",
    "postal_code": "57283"
  }
]