[
  {
    "village_code": "32460",
    "village": "DAWUNGAN",
    "postal_code": "57282"
  },
  {
    "village_code": "32756",
    "village": "GEBANG",
    "postal_code": "57282"
  },
  {
    "village_code": "33335",
    "village": "JATI",
    "postal_code": "57282"
  },
  {
    "village_code": "33565",
    "village": "JIRAPAN",
    "postal_code": "57282"
  },
  {
    "village_code": "34076",
    "village": "KARANG MALANG",
    "postal_code": "57282"
  },
  {
    "village_code": "35119",
    "village": "KLIWONAN",
    "postal_code": "57282"
  },
  {
    "village_code": "35238",
    "village": "KREBET",
    "postal_code": "57282"
  },
  {
    "village_code": "35254",
    "village": "KRIKILAN",
    "postal_code": "57282"
  },
  {
    "village_code": "35803",
    "village": "MASARAN",
    "postal_code": "57282"
  },
  {
    "village_code": "36999",
    "village": "PILANG",
    "postal_code": "57282"
  },
  {
    "village_code": "37194",
    "village": "PRINGANOM",
    "postal_code": "57282"
  },
  {
    "village_code": "37957",
    "village": "SEPAT",
    "postal_code": "57282"
  },
  {
    "village_code": "38039",
    "village": "SIDODADI",
    "postal_code": "57282"
  }
]