[
  {
    "village_code": "31228",
    "village": "ARENAN",
    "postal_code": "53391"
  },
  {
    "village_code": "31966",
    "village": "BRECEK",
    "postal_code": "53391"
  },
  {
    "village_code": "32312",
    "village": "CILAPAR",
    "postal_code": "53391"
  },
  {
    "village_code": "33827",
    "village": "KALIGONDANG",
    "postal_code": "53391"
  },
  {
    "village_code": "33852",
    "village": "KALIKAJAR",
    "postal_code": "53391"
  },
  {
    "village_code": "34824",
    "village": "KEMBARAN WETAN",
    "postal_code": "53391"
  },
  {
    "village_code": "35425",
    "village": "LAMONGAN",
    "postal_code": "53391"
  },
  {
    "village_code": "36446",
    "village": "PAGERANDONG",
    "postal_code": "53391"
  },
  {
    "village_code": "36854",
    "village": "PENARUBAN",
    "postal_code": "53331"
  },
  {
    "village_code": "36909",
    "village": "PENOLIH",
    "postal_code": "53391"
  },
  {
    "village_code": "37798",
    "village": "SELAKAMBANG",
    "postal_code": "53391"
  },
  {
    "village_code": "37800",
    "village": "SELANEGARA",
    "postal_code": "53391"
  },
  {
    "village_code": "37883",
    "village": "SEMPOR LOR",
    "postal_code": "53391"
  },
  {
    "village_code": "38012",
    "village": "SIDANEGARA",
    "postal_code": "53391"
  },
  {
    "village_code": "38017",
    "village": "SIDAREJA",
    "postal_code": "53391"
  },
  {
    "village_code": "38192",
    "village": "SINDURAJA",
    "postal_code": "53391"
  },
  {
    "village_code": "38261",
    "village": "SLINGA",
    "postal_code": "53391"
  },
  {
    "village_code": "38976",
    "village": "TEJASARI",
    "postal_code": "53391"
  }
]