[
  {
    "village_code": "31294",
    "village": "BAJONG",
    "postal_code": "53382"
  },
  {
    "village_code": "32021",
    "village": "BUKATEJA",
    "postal_code": "53382"
  },
  {
    "village_code": "32336",
    "village": "CIPAWON",
    "postal_code": "53382"
  },
  {
    "village_code": "34167",
    "village": "KARANGCENGIS",
    "postal_code": "53382"
  },
  {
    "village_code": "34192",
    "village": "KARANGGEDANG",
    "postal_code": "53382"
  },
  {
    "village_code": "34301",
    "village": "KARANGNANGKA",
    "postal_code": "53382"
  },
  {
    "village_code": "34597",
    "village": "KEBUTUH",
    "postal_code": "53382"
  },
  {
    "village_code": "34686",
    "village": "KEDUNGJATI",
    "postal_code": "53382"
  },
  {
    "village_code": "34811",
    "village": "KEMBANGAN",
    "postal_code": "53382"
  },
  {
    "village_code": "35358",
    "village": "KUTAWIS",
    "postal_code": "53382"
  },
  {
    "village_code": "35668",
    "village": "MAJASARI",
    "postal_code": "53382"
  },
  {
    "village_code": "36853",
    "village": "PENARUBAN",
    "postal_code": "53382"
  },
  {
    "village_code": "39091",
    "village": "TIDU",
    "postal_code": "53382"
  },
  {
    "village_code": "39571",
    "village": "WIRASABA",
    "postal_code": "53382"
  }
]