[
  {
    "village_code": "31310",
    "village": "BAKULAN",
    "postal_code": "53381"
  },
  {
    "village_code": "31888",
    "village": "BOKOL",
    "postal_code": "53381"
  },
  {
    "village_code": "32699",
    "village": "GAMBARSARI",
    "postal_code": "53381"
  },
  {
    "village_code": "33539",
    "village": "JETIS",
    "postal_code": "53381"
  },
  {
    "village_code": "33762",
    "village": "KALIALANG",
    "postal_code": "53381"
  },
  {
    "village_code": "34246",
    "village": "KARANGKEMIRI",
    "postal_code": "53381"
  },
  {
    "village_code": "34413",
    "village": "KARANGTENGAH",
    "postal_code": "53381"
  },
  {
    "village_code": "34668",
    "village": "KEDUNGBENDA",
    "postal_code": "53381"
  },
  {
    "village_code": "34693",
    "village": "KEDUNGLEGOK",
    "postal_code": "53381"
  },
  {
    "village_code": "34795",
    "village": "KEMANGKON",
    "postal_code": "53381"
  },
  {
    "village_code": "35670",
    "village": "MAJASEM",
    "postal_code": "53381"
  },
  {
    "village_code": "35674",
    "village": "MAJATENGAH",
    "postal_code": "53381"
  },
  {
    "village_code": "36076",
    "village": "MUNTANG",
    "postal_code": "53381"
  },
  {
    "village_code": "36615",
    "village": "PANICAN",
    "postal_code": "53381"
  },
  {
    "village_code": "36780",
    "village": "PEGANDEKAN",
    "postal_code": "53381"
  },
  {
    "village_code": "37087",
    "village": "PLUMUTAN",
    "postal_code": "53381"
  },
  {
    "village_code": "37950",
    "village": "SENON",
    "postal_code": "53381"
  },
  {
    "village_code": "38569",
    "village": "SUMILIR",
    "postal_code": "53381"
  },
  {
    "village_code": "39234",
    "village": "TOYAREKA",
    "postal_code": "53381"
  }
]