[
  {
    "village_code": "31861",
    "village": "BOJANEGARA",
    "postal_code": "53372"
  },
  {
    "village_code": "32451",
    "village": "DAWUHAN",
    "postal_code": "53372"
  },
  {
    "village_code": "32853",
    "village": "GEMURUH",
    "postal_code": "53372"
  },
  {
    "village_code": "33985",
    "village": "KALITINGGAR",
    "postal_code": "53372"
  },
  {
    "village_code": "33984",
    "village": "KALITINGGAR KIDUL",
    "postal_code": "53372"
  },
  {
    "village_code": "34187",
    "village": "KARANGGAMBAS",
    "postal_code": "53372"
  },
  {
    "village_code": "34216",
    "village": "KARANGJAMBE",
    "postal_code": "53372"
  },
  {
    "village_code": "34317",
    "village": "KARANGPULE",
    "postal_code": "53372"
  },
  {
    "village_code": "34385",
    "village": "KARANGSENTUL",
    "postal_code": "53372"
  },
  {
    "village_code": "35920",
    "village": "MIPIRAN",
    "postal_code": "53372"
  },
  {
    "village_code": "36408",
    "village": "PADAMARA",
    "postal_code": "53372"
  },
  {
    "village_code": "37188",
    "village": "PRIGI",
    "postal_code": "53372"
  },
  {
    "village_code": "37314",
    "village": "PURBAYASA",
    "postal_code": "53372"
  },
  {
    "village_code": "38300",
    "village": "SOKAWERA",
    "postal_code": "53372"
  }
]