[
  {
    "village_code": "31334",
    "village": "BALEREJO",
    "postal_code": "56263"
  },
  {
    "village_code": "32200",
    "village": "CANDISARI",
    "postal_code": "56263"
  },
  {
    "village_code": "32788",
    "village": "GEDEGAN",
    "postal_code": "56263"
  },
  {
    "village_code": "34954",
    "village": "KEROKAN",
    "postal_code": "56263"
  },
  {
    "village_code": "35447",
    "village": "LANGGENG",
    "postal_code": "56263"
  },
  {
    "village_code": "35509",
    "village": "LEGOKSARI",
    "postal_code": "56263"
  },
  {
    "village_code": "35602",
    "village": "LOSARI",
    "postal_code": "56263"
  },
  {
    "village_code": "36464",
    "village": "PAGERSARI",
    "postal_code": "56263"
  },
  {
    "village_code": "38387",
    "village": "SRIWUNGU",
    "postal_code": "56263"
  },
  {
    "village_code": "38837",
    "village": "TANJUNGSARI",
    "postal_code": "56263"
  },
  {
    "village_code": "39144",
    "village": "TLILIR",
    "postal_code": "56263"
  },
  {
    "village_code": "39173",
    "village": "TLOGOMULYO",
    "postal_code": "56263"
  }
]