[
  {
    "village_code": "31363",
    "village": "BANARAN",
    "postal_code": "56261"
  },
  {
    "village_code": "31936",
    "village": "BOTOPUTIH",
    "postal_code": "56261"
  },
  {
    "village_code": "32593",
    "village": "DRONO",
    "postal_code": "56261"
  },
  {
    "village_code": "32722",
    "village": "GANDU",
    "postal_code": "56261"
  },
  {
    "village_code": "33083",
    "village": "GREGES",
    "postal_code": "56261"
  },
  {
    "village_code": "33638",
    "village": "JRAGAN",
    "postal_code": "56261"
  },
  {
    "village_code": "34856",
    "village": "KEMLOKO",
    "postal_code": "56261"
  },
  {
    "village_code": "35179",
    "village": "KRAJAN",
    "postal_code": "56261"
  },
  {
    "village_code": "35865",
    "village": "MENGGORO",
    "postal_code": "56261"
  },
  {
    "village_code": "37344",
    "village": "PURWODADI",
    "postal_code": "56261"
  },
  {
    "village_code": "38879",
    "village": "TAWANGSARI",
    "postal_code": "56261"
  },
  {
    "village_code": "38994",
    "village": "TEMBARAK",
    "postal_code": "56261"
  },
  {
    "village_code": "39626",
    "village": "WONOKERSO",
    "postal_code": "56261"
  }
]