[
  {
    "village_code": "31483",
    "village": "BANJARSARI",
    "postal_code": "56258"
  },
  {
    "village_code": "31655",
    "village": "BEJEN",
    "postal_code": "56258"
  },
  {
    "village_code": "32374",
    "village": "CONGKRANG",
    "postal_code": "56258"
  },
  {
    "village_code": "32642",
    "village": "DUREN",
    "postal_code": "56258"
  },
  {
    "village_code": "33575",
    "village": "JLEGONG",
    "postal_code": "56258"
  },
  {
    "village_code": "34552",
    "village": "KEBONDALEM",
    "postal_code": "56258"
  },
  {
    "village_code": "34867",
    "village": "KEMUNING",
    "postal_code": "56258"
  },
  {
    "village_code": "35462",
    "village": "LARANGAN LUWOK",
    "postal_code": "56258"
  },
  {
    "village_code": "35604",
    "village": "LOWUNGU",
    "postal_code": "56258"
  },
  {
    "village_code": "36168",
    "village": "NGALIYAN",
    "postal_code": "56258"
  },
  {
    "village_code": "36985",
    "village": "PETUNG",
    "postal_code": "56258"
  },
  {
    "village_code": "37168",
    "village": "PRANGKOKAN",
    "postal_code": "56258"
  },
  {
    "village_code": "37831",
    "village": "SELOSABRANG",
    "postal_code": "56258"
  },
  {
    "village_code": "38785",
    "village": "TANJUNG SARI",
    "postal_code": "56258"
  }
]