[
  {
    "village_code": "31507",
    "village": "BANSARI",
    "postal_code": "56253"
  },
  {
    "village_code": "32043",
    "village": "BULU",
    "postal_code": "56253"
  },
  {
    "village_code": "32157",
    "village": "CAMPURSARI",
    "postal_code": "56253"
  },
  {
    "village_code": "32430",
    "village": "DANUPAYAN",
    "postal_code": "56253"
  },
  {
    "village_code": "32724",
    "village": "GANDUREJO",
    "postal_code": "56253"
  },
  {
    "village_code": "33060",
    "village": "GONDOSULI",
    "postal_code": "56253"
  },
  {
    "village_code": "35690",
    "village": "MALANGSARI",
    "postal_code": "56253"
  },
  {
    "village_code": "35999",
    "village": "MONDORETNO",
    "postal_code": "56253"
  },
  {
    "village_code": "36291",
    "village": "NGIMBRANG",
    "postal_code": "56253"
  },
  {
    "village_code": "36450",
    "village": "PAGERGUNUNG",
    "postal_code": "56253"
  },
  {
    "village_code": "36522",
    "village": "PAKUREJO",
    "postal_code": "56253"
  },
  {
    "village_code": "36578",
    "village": "PANDEMULYO",
    "postal_code": "56253"
  },
  {
    "village_code": "36716",
    "village": "PASURUHAN",
    "postal_code": "56253"
  },
  {
    "village_code": "36894",
    "village": "PENGILON",
    "postal_code": "56253"
  },
  {
    "village_code": "37405",
    "village": "PUTAT",
    "postal_code": "56253"
  },
  {
    "village_code": "38916",
    "village": "TEGALLURUNG",
    "postal_code": "56253"
  },
  {
    "village_code": "38932",
    "village": "TEGALREJO",
    "postal_code": "56253"
  },
  {
    "village_code": "39674",
    "village": "WONOSARI",
    "postal_code": "56253"
  },
  {
    "village_code": "39704",
    "village": "WONOTIRTO",
    "postal_code": "56253"
  }
]