[
  {
    "village_code": "31528",
    "village": "BANTIR",
    "postal_code": "56257"
  },
  {
    "village_code": "31616",
    "village": "BATURSARI",
    "postal_code": "56257"
  },
  {
    "village_code": "32192",
    "village": "CANDIROTO",
    "postal_code": "56257"
  },
  {
    "village_code": "32209",
    "village": "CANGGAL",
    "postal_code": "56257"
  },
  {
    "village_code": "33186",
    "village": "GUNUNGPAYUNG",
    "postal_code": "56257"
  },
  {
    "village_code": "34913",
    "village": "KENTENGSARI",
    "postal_code": "56257"
  },
  {
    "village_code": "35237",
    "village": "KRAWITAN",
    "postal_code": "56257"
  },
  {
    "village_code": "35532",
    "village": "LEMPUYANG",
    "postal_code": "56257"
  },
  {
    "village_code": "35876",
    "village": "MENTO",
    "postal_code": "56257"
  },
  {
    "village_code": "36062",
    "village": "MUNENG",
    "postal_code": "56257"
  },
  {
    "village_code": "36078",
    "village": "MUNTUNG",
    "postal_code": "56257"
  },
  {
    "village_code": "36115",
    "village": "NGABEAN",
    "postal_code": "56257"
  },
  {
    "village_code": "37057",
    "village": "PLOSOGADEN",
    "postal_code": "56257"
  },
  {
    "village_code": "38046",
    "village": "SIDOHARJO",
    "postal_code": "56257"
  }
]