[
  {
    "village_code": "31574",
    "village": "BANYUURIP",
    "postal_code": "56211"
  },
  {
    "village_code": "32135",
    "village": "BUTUH",
    "postal_code": "56214"
  },
  {
    "village_code": "32930",
    "village": "GILINGSARI",
    "postal_code": "56229"
  },
  {
    "village_code": "32980",
    "village": "GIYANTI",
    "postal_code": "56226"
  },
  {
    "village_code": "33158",
    "village": "GUNTUR",
    "postal_code": "56229"
  },
  {
    "village_code": "33298",
    "village": "JAMPIREJO",
    "postal_code": "56215"
  },
  {
    "village_code": "33299",
    "village": "JAMPIROSO",
    "postal_code": "56216"
  },
  {
    "village_code": "33603",
    "village": "JOHO",
    "postal_code": "56229"
  },
  {
    "village_code": "33663",
    "village": "JURANG",
    "postal_code": "56222"
  },
  {
    "village_code": "34577",
    "village": "KEBONSARI",
    "postal_code": "56223"
  },
  {
    "village_code": "34981",
    "village": "KERTOSARI",
    "postal_code": "56217"
  },
  {
    "village_code": "35155",
    "village": "KOWANGAN",
    "postal_code": "56218"
  },
  {
    "village_code": "35623",
    "village": "LUNGGE",
    "postal_code": "56229"
  },
  {
    "village_code": "35648",
    "village": "MADURESO",
    "postal_code": "56229"
  },
  {
    "village_code": "35698",
    "village": "MANDING",
    "postal_code": "56224"
  },
  {
    "village_code": "36028",
    "village": "MUDAL",
    "postal_code": "56228"
  },
  {
    "village_code": "36073",
    "village": "MUNGSENG",
    "postal_code": "56225"
  },
  {
    "village_code": "36095",
    "village": "NAMPIREJO",
    "postal_code": "56229"
  },
  {
    "village_code": "37379",
    "village": "PURWOREJO",
    "postal_code": "56227"
  },
  {
    "village_code": "38121",
    "village": "SIDOREJO",
    "postal_code": "56221"
  },
  {
    "village_code": "38990",
    "village": "TEMANGGUNG I",
    "postal_code": "56212"
  },
  {
    "village_code": "38991",
    "village": "TEMANGGUNG II",
    "postal_code": "56213"
  },
  {
    "village_code": "39188",
    "village": "TLOGOREJO",
    "postal_code": "56229"
  },
  {
    "village_code": "39415",
    "village": "WALITELON SELATAN",
    "postal_code": "56229"
  },
  {
    "village_code": "39416",
    "village": "WALITELON UTARA",
    "postal_code": "56229"
  }
]