[
  {
    "village_code": "31582",
    "village": "BARANG",
    "postal_code": "56256"
  },
  {
    "village_code": "32802",
    "village": "GEDONGSARI",
    "postal_code": "56256"
  },
  {
    "village_code": "32982",
    "village": "GIYONO",
    "postal_code": "56256"
  },
  {
    "village_code": "33163",
    "village": "GUNUNG GEMPOL",
    "postal_code": "56256"
  },
  {
    "village_code": "33301",
    "village": "JAMUSAN",
    "postal_code": "56256"
  },
  {
    "village_code": "33620",
    "village": "JOMBOR",
    "postal_code": "56256"
  },
  {
    "village_code": "33653",
    "village": "JUMO",
    "postal_code": "56256"
  },
  {
    "village_code": "34402",
    "village": "KARANGTEJO",
    "postal_code": "56256"
  },
  {
    "village_code": "34979",
    "village": "KERTOSARI",
    "postal_code": "56256"
  },
  {
    "village_code": "35036",
    "village": "KETITANG",
    "postal_code": "56256"
  },
  {
    "village_code": "36003",
    "village": "MOROBONGO",
    "postal_code": "56256"
  },
  {
    "village_code": "36425",
    "village": "PADURESO",
    "postal_code": "56256"
  },
  {
    "village_code": "38458",
    "village": "SUKOMARTO",
    "postal_code": "56256"
  }
]