[
  {
    "village_code": "15384",
    "village": "AIR BERSIH",
    "postal_code": "37161"
  },
  {
    "village_code": "15394",
    "village": "AIR PANAS",
    "postal_code": "37161"
  },
  {
    "village_code": "15436",
    "village": "BARU (KOTO BARU SEMURUP)",
    "postal_code": "37161"
  },
  {
    "village_code": "15642",
    "village": "HAMPARAN PUGU",
    "postal_code": "37161"
  },
  {
    "village_code": "15724",
    "village": "KECIL",
    "postal_code": "37161"
  },
  {
    "village_code": "15773",
    "village": "KOTO CAYO",
    "postal_code": "37161"
  },
  {
    "village_code": "15774",
    "village": "KOTO DATUK",
    "postal_code": "37161"
  },
  {
    "village_code": "15781",
    "village": "KOTO DUO / DUA BARU",
    "postal_code": "37161"
  },
  {
    "village_code": "15797",
    "village": "KOTO MEBAI",
    "postal_code": "37161"
  },
  {
    "village_code": "15798",
    "village": "KOTO MUDIK",
    "postal_code": "37161"
  },
  {
    "village_code": "15820",
    "village": "KOTO TENGAH",
    "postal_code": "37161"
  },
  {
    "village_code": "16270",
    "village": "PUGU",
    "postal_code": "37161"
  }
]