[
  {
    "village_code": "15397",
    "village": "AIR TERJUN",
    "postal_code": "37162"
  },
  {
    "village_code": "15451",
    "village": "BARU SUNGAI PEGEH",
    "postal_code": "37162"
  },
  {
    "village_code": "15486",
    "village": "BENDAR SEDAP",
    "postal_code": "37162"
  },
  {
    "village_code": "15592",
    "village": "DEMONG SAKTI",
    "postal_code": "37162"
  },
  {
    "village_code": "15606",
    "village": "DUSUN BARU",
    "postal_code": "37162"
  },
  {
    "village_code": "15611",
    "village": "DUSUN DALAM",
    "postal_code": "37162"
  },
  {
    "village_code": "15759",
    "village": "KOTO ARO",
    "postal_code": "37162"
  },
  {
    "village_code": "15771",
    "village": "KOTO BERINGIN",
    "postal_code": "37162"
  },
  {
    "village_code": "15786",
    "village": "KOTO KAPEH",
    "postal_code": "37162"
  },
  {
    "village_code": "15789",
    "village": "KOTO LEBUH TINGGI",
    "postal_code": "37162"
  },
  {
    "village_code": "15812",
    "village": "KOTO RENDAH",
    "postal_code": "37162"
  },
  {
    "village_code": "15825",
    "village": "KOTO TENGAH",
    "postal_code": "37162"
  },
  {
    "village_code": "15915",
    "village": "LUBUK NAGODANG",
    "postal_code": "37162"
  },
  {
    "village_code": "16093",
    "village": "PADANG JANTUNG",
    "postal_code": "37162"
  },
  {
    "village_code": "16149",
    "village": "PASAR SENEN",
    "postal_code": "37162"
  },
  {
    "village_code": "16152",
    "village": "PASAR SIULAK GEDANG",
    "postal_code": "37162"
  },
  {
    "village_code": "16177",
    "village": "PELAK GEDANG",
    "postal_code": "37162"
  },
  {
    "village_code": "16258",
    "village": "PLAK NANEH",
    "postal_code": "37162"
  },
  {
    "village_code": "16514",
    "village": "SIULAK GEDANG",
    "postal_code": "37162"
  },
  {
    "village_code": "16515",
    "village": "SIULAK KECIL HILIR",
    "postal_code": "37162"
  },
  {
    "village_code": "16516",
    "village": "SIULAK KECIL MUDIK",
    "postal_code": "37162"
  },
  {
    "village_code": "16517",
    "village": "SIULAK PANJANG",
    "postal_code": "37162"
  },
  {
    "village_code": "16629",
    "village": "SUNGAI LEBUH",
    "postal_code": "37162"
  },
  {
    "village_code": "16649",
    "village": "SUNGAI PEGEH",
    "postal_code": "37162"
  },
  {
    "village_code": "16829",
    "village": "TELAGO BIRU",
    "postal_code": "37162"
  },
  {
    "village_code": "16917",
    "village": "TUTUNG BUNGKUK",
    "postal_code": "37162"
  }
]