[
  {
    "village_code": "15441",
    "village": "BARU KUBANG",
    "postal_code": "37161"
  },
  {
    "village_code": "15484",
    "village": "BELUI",
    "postal_code": "37161"
  },
  {
    "village_code": "15483",
    "village": "BELUI TINGGI",
    "postal_code": "37161"
  },
  {
    "village_code": "15717",
    "village": "KAYU AHO MANGKAK KOTO LANANG",
    "postal_code": "37161"
  },
  {
    "village_code": "15788",
    "village": "KOTO LANANG",
    "postal_code": "37161"
  },
  {
    "village_code": "15801",
    "village": "KOTO PANJANG",
    "postal_code": "37161"
  },
  {
    "village_code": "15804",
    "village": "KOTO PAYANG",
    "postal_code": "37161"
  },
  {
    "village_code": "15815",
    "village": "KOTO SIMPAI KUBANG",
    "postal_code": "37161"
  },
  {
    "village_code": "15830",
    "village": "KOTO TUO",
    "postal_code": "37161"
  },
  {
    "village_code": "15844",
    "village": "KUBANG AGUNG",
    "postal_code": "37161"
  },
  {
    "village_code": "15845",
    "village": "KUBANG GEDANG",
    "postal_code": "37161"
  },
  {
    "village_code": "15859",
    "village": "LADEH",
    "postal_code": "37161"
  },
  {
    "village_code": "15929",
    "village": "LUBUK SULI",
    "postal_code": "37161"
  },
  {
    "village_code": "16099",
    "village": "PAHLAWAN BELUI",
    "postal_code": "37161"
  },
  {
    "village_code": "16426",
    "village": "SEKUNGKUNG",
    "postal_code": "37161"
  },
  {
    "village_code": "16441",
    "village": "SEMUMU",
    "postal_code": "37161"
  },
  {
    "village_code": "16477",
    "village": "SIMPANG BELUI",
    "postal_code": "37161"
  },
  {
    "village_code": "16726",
    "village": "TAMBAK TINGGI",
    "postal_code": "37161"
  },
  {
    "village_code": "16815",
    "village": "TEBAT / TEBAK IJUK",
    "postal_code": "37161"
  },
  {
    "village_code": "16812",
    "village": "TEBAT IJUK DILI",
    "postal_code": "37161"
  }
]