[
  {
    "village_code": "24616",
    "village": "BULUH PATAH",
    "postal_code": "29663"
  },
  {
    "village_code": "24650",
    "village": "JANG (PULAU JANG)",
    "postal_code": "29663"
  },
  {
    "village_code": "24667",
    "village": "KEBAN",
    "postal_code": "29663"
  },
  {
    "village_code": "24732",
    "village": "MORO",
    "postal_code": "29663"
  },
  {
    "village_code": "24731",
    "village": "MORO TIMUR",
    "postal_code": "29663"
  },
  {
    "village_code": "24741",
    "village": "NIUR PERMAI",
    "postal_code": "29663"
  },
  {
    "village_code": "24759",
    "village": "PAUH",
    "postal_code": "29663"
  },
  {
    "village_code": "24799",
    "village": "PULAUMORO",
    "postal_code": "29663"
  },
  {
    "village_code": "24804",
    "village": "RAWAJAYA",
    "postal_code": "29663"
  },
  {
    "village_code": "24842",
    "village": "SELAT MIE",
    "postal_code": "29663"
  },
  {
    "village_code": "24865",
    "village": "SUGIE",
    "postal_code": "29663"
  },
  {
    "village_code": "24908",
    "village": "TANJUNG PELANDUK",
    "postal_code": "29663"
  }
]