[
  {
    "village_code": "74942",
    "village": "AMBILIKI",
    "postal_code": "99585"
  },
  {
    "village_code": "74966",
    "village": "AMPOLONGSILI",
    "postal_code": "99585"
  },
  {
    "village_code": "74973",
    "village": "AMULUK",
    "postal_code": "99585"
  },
  {
    "village_code": "75637",
    "village": "DIKOHOBARI",
    "postal_code": "99585"
  },
  {
    "village_code": "75860",
    "village": "FEINGKAMA",
    "postal_code": "99585"
  },
  {
    "village_code": "75863",
    "village": "FIKFAK",
    "postal_code": "99585"
  },
  {
    "village_code": "75871",
    "village": "FOLONGSILI",
    "postal_code": "99585"
  },
  {
    "village_code": "75881",
    "village": "FUNUI",
    "postal_code": "99585"
  },
  {
    "village_code": "76057",
    "village": "HALIALO",
    "postal_code": "99585"
  },
  {
    "village_code": "76059",
    "village": "HALISEK",
    "postal_code": "99585"
  },
  {
    "village_code": "76087",
    "village": "HELEBOL",
    "postal_code": "99585"
  },
  {
    "village_code": "76110",
    "village": "HILARIKI",
    "postal_code": "99585"
  },
  {
    "village_code": "76113",
    "village": "HINDALIMUKUK",
    "postal_code": "99585"
  },
  {
    "village_code": "76127",
    "village": "HOBUT",
    "postal_code": "99585"
  },
  {
    "village_code": "76143",
    "village": "HOLOWI",
    "postal_code": "99585"
  },
  {
    "village_code": "76289",
    "village": "IRAREK",
    "postal_code": "99585"
  },
  {
    "village_code": "76471",
    "village": "KAMPOL",
    "postal_code": "99585"
  },
  {
    "village_code": "76558",
    "village": "KAYALEM",
    "postal_code": "99585"
  },
  {
    "village_code": "76562",
    "village": "KAYO",
    "postal_code": "99585"
  },
  {
    "village_code": "76803",
    "village": "KOUM",
    "postal_code": "99585"
  },
  {
    "village_code": "76942",
    "village": "LANGAM",
    "postal_code": "99585"
  },
  {
    "village_code": "76959",
    "village": "LASIK",
    "postal_code": "99585"
  },
  {
    "village_code": "77018",
    "village": "LOHOLAN",
    "postal_code": "99585"
  },
  {
    "village_code": "77072",
    "village": "MABUALEM",
    "postal_code": "99585"
  },
  {
    "village_code": "77129",
    "village": "MAMIOAN",
    "postal_code": "99585"
  },
  {
    "village_code": "77282",
    "village": "MENEPINI",
    "postal_code": "99585"
  },
  {
    "village_code": "77357",
    "village": "MOHOBIYE",
    "postal_code": "99585"
  },
  {
    "village_code": "77358",
    "village": "MOHONU",
    "postal_code": "99585"
  },
  {
    "village_code": "77388",
    "village": "MONTEK",
    "postal_code": "99585"
  },
  {
    "village_code": "77602",
    "village": "NOHONIL",
    "postal_code": "99585"
  },
  {
    "village_code": "77825",
    "village": "PAMI",
    "postal_code": "99585"
  },
  {
    "village_code": "77828",
    "village": "PANAL",
    "postal_code": "99585"
  },
  {
    "village_code": "77829",
    "village": "PANALULUN",
    "postal_code": "99585"
  },
  {
    "village_code": "77940",
    "village": "PIRANG",
    "postal_code": "99585"
  },
  {
    "village_code": "77951",
    "village": "PISANGGO",
    "postal_code": "99585"
  },
  {
    "village_code": "77966",
    "village": "POHOLANGGEN",
    "postal_code": "99585"
  },
  {
    "village_code": "77968",
    "village": "POIK",
    "postal_code": "99585"
  },
  {
    "village_code": "77967",
    "village": "POIK SATU",
    "postal_code": "99585"
  },
  {
    "village_code": "78123",
    "village": "SAKAM",
    "postal_code": "99585"
  },
  {
    "village_code": "78132",
    "village": "SALEMA",
    "postal_code": "99585"
  },
  {
    "village_code": "78138",
    "village": "SALY",
    "postal_code": "99585"
  },
  {
    "village_code": "78144",
    "village": "SAMARIA",
    "postal_code": "99585"
  },
  {
    "village_code": "78237",
    "village": "SEHEREK",
    "postal_code": "99585"
  },
  {
    "village_code": "78247",
    "village": "SELEBI",
    "postal_code": "99585"
  },
  {
    "village_code": "78248",
    "village": "SELEK",
    "postal_code": "99585"
  },
  {
    "village_code": "78322",
    "village": "SILFAL",
    "postal_code": "99585"
  },
  {
    "village_code": "78344",
    "village": "SINAHAL",
    "postal_code": "99585"
  },
  {
    "village_code": "78396",
    "village": "SOHARAM",
    "postal_code": "99585"
  },
  {
    "village_code": "78466",
    "village": "SUKALIMI",
    "postal_code": "99585"
  },
  {
    "village_code": "78488",
    "village": "SUNTAM",
    "postal_code": "99585"
  },
  {
    "village_code": "78541",
    "village": "TAHAMAK",
    "postal_code": "99585"
  },
  {
    "village_code": "78696",
    "village": "TINMUHUK",
    "postal_code": "99585"
  },
  {
    "village_code": "78806",
    "village": "UBALIHI",
    "postal_code": "99585"
  },
  {
    "village_code": "78835",
    "village": "ULUM",
    "postal_code": "99585"
  },
  {
    "village_code": "78978",
    "village": "WALINGKAPMA",
    "postal_code": "99585"
  },
  {
    "village_code": "79048",
    "village": "WANGKULAMSAFIANG",
    "postal_code": "99585"
  },
  {
    "village_code": "79119",
    "village": "WASUPAHIK",
    "postal_code": "99585"
  },
  {
    "village_code": "79145",
    "village": "WELAREK",
    "postal_code": "99585"
  },
  {
    "village_code": "79147",
    "village": "WELEAREKPUNU",
    "postal_code": "99585"
  },
  {
    "village_code": "79178",
    "village": "WERENGGIK",
    "postal_code": "99585"
  },
  {
    "village_code": "79277",
    "village": "WOMPOLI",
    "postal_code": "99585"
  },
  {
    "village_code": "79395",
    "village": "YAHAMER",
    "postal_code": "99585"
  }
]