[
  {
    "village_code": "74961",
    "village": "AMPERA",
    "postal_code": "99583"
  },
  {
    "village_code": "75295",
    "village": "BENAWA SATU",
    "postal_code": "99583"
  },
  {
    "village_code": "75513",
    "village": "BURUKUKU",
    "postal_code": "99583"
  },
  {
    "village_code": "75719",
    "village": "DUKUNASI",
    "postal_code": "99583"
  },
  {
    "village_code": "75943",
    "village": "GILIKA",
    "postal_code": "99583"
  },
  {
    "village_code": "76112",
    "village": "HIMI",
    "postal_code": "99583"
  },
  {
    "village_code": "76229",
    "village": "IKON",
    "postal_code": "99583"
  },
  {
    "village_code": "76318",
    "village": "IYAP",
    "postal_code": "99583"
  },
  {
    "village_code": "76464",
    "village": "KAMIKA",
    "postal_code": "99583"
  },
  {
    "village_code": "76496",
    "village": "KAPAWA",
    "postal_code": "99583"
  },
  {
    "village_code": "76510",
    "village": "KARAMINA",
    "postal_code": "99583"
  },
  {
    "village_code": "76626",
    "village": "KEY",
    "postal_code": "99583"
  },
  {
    "village_code": "76761",
    "village": "KONOBUN",
    "postal_code": "99583"
  },
  {
    "village_code": "76839",
    "village": "KUKDOMOL",
    "postal_code": "99583"
  },
  {
    "village_code": "76899",
    "village": "KUTAKURUK",
    "postal_code": "99583"
  },
  {
    "village_code": "76962",
    "village": "LAWE",
    "postal_code": "99583"
  },
  {
    "village_code": "77057",
    "village": "LULUM",
    "postal_code": "99583"
  },
  {
    "village_code": "77105",
    "village": "MAKRIP",
    "postal_code": "99583"
  },
  {
    "village_code": "77106",
    "village": "MAKSARAM",
    "postal_code": "99583"
  },
  {
    "village_code": "77293",
    "village": "MERSENG",
    "postal_code": "99583"
  },
  {
    "village_code": "77476",
    "village": "NAIRA",
    "postal_code": "99583"
  },
  {
    "village_code": "77513",
    "village": "NARAU",
    "postal_code": "99583"
  },
  {
    "village_code": "77587",
    "village": "NIYAWI",
    "postal_code": "99583"
  },
  {
    "village_code": "77819",
    "village": "PALUKE",
    "postal_code": "99583"
  },
  {
    "village_code": "77880",
    "village": "PENSALE",
    "postal_code": "99583"
  },
  {
    "village_code": "77883",
    "village": "PEPERA",
    "postal_code": "99583"
  },
  {
    "village_code": "77917",
    "village": "PINAMPI",
    "postal_code": "99583"
  },
  {
    "village_code": "77953",
    "village": "PISOL",
    "postal_code": "99583"
  },
  {
    "village_code": "77997",
    "village": "PRITITI",
    "postal_code": "99583"
  },
  {
    "village_code": "78373",
    "village": "SIWA",
    "postal_code": "99583"
  },
  {
    "village_code": "78645",
    "village": "THAMAKSIN",
    "postal_code": "99583"
  },
  {
    "village_code": "78771",
    "village": "TRIKORA",
    "postal_code": "99583"
  },
  {
    "village_code": "79144",
    "village": "WELAP",
    "postal_code": "99583"
  },
  {
    "village_code": "79186",
    "village": "WERMAS",
    "postal_code": "99583"
  },
  {
    "village_code": "79202",
    "village": "WIBI",
    "postal_code": "99583"
  },
  {
    "village_code": "79236",
    "village": "WIRSA",
    "postal_code": "99583"
  },
  {
    "village_code": "79409",
    "village": "YAKWA",
    "postal_code": "99583"
  }
]