[
  {
    "village_code": "62272",
    "village": "ABAK",
    "postal_code": "95771"
  },
  {
    "village_code": "62333",
    "village": "BAKAN",
    "postal_code": "95771"
  },
  {
    "village_code": "62463",
    "village": "BOMBANON",
    "postal_code": "95771"
  },
  {
    "village_code": "62868",
    "village": "KOPANDAKAN II",
    "postal_code": "95771"
  },
  {
    "village_code": "63007",
    "village": "LOLAYAN",
    "postal_code": "95771"
  },
  {
    "village_code": "63118",
    "village": "MATALI BARU",
    "postal_code": "95771"
  },
  {
    "village_code": "63140",
    "village": "MENGKANG",
    "postal_code": "95771"
  },
  {
    "village_code": "63203",
    "village": "MOPAIT",
    "postal_code": "95771"
  },
  {
    "village_code": "63210",
    "village": "MOPUSI",
    "postal_code": "95771"
  },
  {
    "village_code": "63743",
    "village": "TANOYAN SELATAN",
    "postal_code": "95771"
  },
  {
    "village_code": "63744",
    "village": "TANOYAN UTARA",
    "postal_code": "95771"
  },
  {
    "village_code": "63745",
    "village": "TAPA AOG",
    "postal_code": "95771"
  },
  {
    "village_code": "63948",
    "village": "TUNGOI I",
    "postal_code": "95771"
  },
  {
    "village_code": "63949",
    "village": "TUNGOI II",
    "postal_code": "95771"
  }
]