[
  {
    "village_code": "62296",
    "village": "AMERTHA BUANA",
    "postal_code": "95772"
  },
  {
    "village_code": "62297",
    "village": "AMERTHA SARI",
    "postal_code": "95772"
  },
  {
    "village_code": "62598",
    "village": "DUMOGA",
    "postal_code": "95772"
  },
  {
    "village_code": "62597",
    "village": "DUMOGA II",
    "postal_code": "95772"
  },
  {
    "village_code": "62646",
    "village": "IMANDI",
    "postal_code": "95772"
  },
  {
    "village_code": "62790",
    "village": "KEMBANG MERTHA",
    "postal_code": "95772"
  },
  {
    "village_code": "62791",
    "village": "KEMBANG SARI",
    "postal_code": "95772"
  },
  {
    "village_code": "63163",
    "village": "MODOMANG",
    "postal_code": "95772"
  },
  {
    "village_code": "63167",
    "village": "MOGOYUNGGUNG",
    "postal_code": "95772"
  },
  {
    "village_code": "63165",
    "village": "MOGOYUNGGUNG DUA",
    "postal_code": "95772"
  },
  {
    "village_code": "63166",
    "village": "MOGOYUNGGUNG SATU",
    "postal_code": "95772"
  },
  {
    "village_code": "63432",
    "village": "PINONOBATUAN",
    "postal_code": "95772"
  },
  {
    "village_code": "63431",
    "village": "PINONOBATUAN BARAT",
    "postal_code": "95772"
  },
  {
    "village_code": "63875",
    "village": "TONOM",
    "postal_code": "95772"
  }
]