[
  {
    "village_code": "62321",
    "village": "AYONG",
    "postal_code": "95762"
  },
  {
    "village_code": "62322",
    "village": "BABO",
    "postal_code": "95762"
  },
  {
    "village_code": "62372",
    "village": "BATUMERA (BATU MERAH)",
    "postal_code": "95762"
  },
  {
    "village_code": "62460",
    "village": "BOLANGAT",
    "postal_code": "95762"
  },
  {
    "village_code": "62459",
    "village": "BOLANGAT TIMUR",
    "postal_code": "95762"
  },
  {
    "village_code": "62547",
    "village": "CEMPAKA",
    "postal_code": "95762"
  },
  {
    "village_code": "62583",
    "village": "DOMISIL MOONOW",
    "postal_code": "95762"
  },
  {
    "village_code": "63006",
    "village": "LOLANAN",
    "postal_code": "95762"
  },
  {
    "village_code": "63030",
    "village": "MAELANG",
    "postal_code": "95762"
  },
  {
    "village_code": "63332",
    "village": "PANGI",
    "postal_code": "95762"
  },
  {
    "village_code": "63331",
    "village": "PANGI TIMU",
    "postal_code": "95762"
  },
  {
    "village_code": "63364",
    "village": "PASIR PUTIH",
    "postal_code": "95762"
  }
]