[
  {
    "village_code": "62343",
    "village": "BANGOMOLUNOW",
    "postal_code": "95752"
  },
  {
    "village_code": "62650",
    "village": "INOBONTO",
    "postal_code": "95752"
  },
  {
    "village_code": "62648",
    "village": "INOBONTO DUA",
    "postal_code": "95752"
  },
  {
    "village_code": "62649",
    "village": "INOBONTO SATU",
    "postal_code": "95752"
  },
  {
    "village_code": "62855",
    "village": "KOMANGAAN",
    "postal_code": "95752"
  },
  {
    "village_code": "62923",
    "village": "LANGAGON",
    "postal_code": "95752"
  },
  {
    "village_code": "62921",
    "village": "LANGAGON DUA",
    "postal_code": "95752"
  },
  {
    "village_code": "62922",
    "village": "LANGAGON SATU",
    "postal_code": "95752"
  },
  {
    "village_code": "63656",
    "village": "SOLIMANDUNGAN BARU",
    "postal_code": "95752"
  },
  {
    "village_code": "63657",
    "village": "SOLIMANDUNGAN DUA",
    "postal_code": "95752"
  },
  {
    "village_code": "63658",
    "village": "SOLIMANDUNGAN SATU",
    "postal_code": "95752"
  }
]