[
  {
    "village_code": "62587",
    "village": "DONDOMON",
    "postal_code": "95772"
  },
  {
    "village_code": "62585",
    "village": "DONDOMON SELATAN",
    "postal_code": "95772"
  },
  {
    "village_code": "62586",
    "village": "DONDOMON UTARA",
    "postal_code": "95772"
  },
  {
    "village_code": "63206",
    "village": "MOPUGAD SELATAN",
    "postal_code": "95772"
  },
  {
    "village_code": "63205",
    "village": "MOPUGAD SELATAN SATU",
    "postal_code": "95772"
  },
  {
    "village_code": "63209",
    "village": "MOPUGAD UTARA",
    "postal_code": "95772"
  },
  {
    "village_code": "63207",
    "village": "MOPUGAD UTARA DUA",
    "postal_code": "95772"
  },
  {
    "village_code": "63208",
    "village": "MOPUGAD UTARA SATU",
    "postal_code": "95772"
  },
  {
    "village_code": "63213",
    "village": "MOPUYA SELATAN",
    "postal_code": "95772"
  },
  {
    "village_code": "63211",
    "village": "MOPUYA SELATAN DUA",
    "postal_code": "95772"
  },
  {
    "village_code": "63212",
    "village": "MOPUYA SELATAN SATU",
    "postal_code": "95772"
  },
  {
    "village_code": "63216",
    "village": "MOPUYA UTARA",
    "postal_code": "95772"
  },
  {
    "village_code": "63214",
    "village": "MOPUYA UTARA DUA",
    "postal_code": "95772"
  },
  {
    "village_code": "63215",
    "village": "MOPUYA UTARA SATU",
    "postal_code": "95772"
  },
  {
    "village_code": "63938",
    "village": "TUMOKANG BARU",
    "postal_code": "95772"
  },
  {
    "village_code": "63939",
    "village": "TUMOKANG TIMUR",
    "postal_code": "95772"
  }
]