[
  {
    "village_code": "40341",
    "village": "BADER",
    "postal_code": "63174"
  },
  {
    "village_code": "40558",
    "village": "BANGUNSARI",
    "postal_code": "63174"
  },
  {
    "village_code": "41016",
    "village": "BLIMBING",
    "postal_code": "63174"
  },
  {
    "village_code": "41341",
    "village": "CANDIMULYO",
    "postal_code": "63174"
  },
  {
    "village_code": "41629",
    "village": "DOHO",
    "postal_code": "63174"
  },
  {
    "village_code": "41634",
    "village": "DOLOPO",
    "postal_code": "63174"
  },
  {
    "village_code": "42065",
    "village": "GLONGGONG",
    "postal_code": "63174"
  },
  {
    "village_code": "43700",
    "village": "KETAWANG",
    "postal_code": "63174"
  },
  {
    "village_code": "43869",
    "village": "KRADINAN",
    "postal_code": "63174"
  },
  {
    "village_code": "44138",
    "village": "LEMBAH",
    "postal_code": "63174"
  },
  {
    "village_code": "44523",
    "village": "MLILIR",
    "postal_code": "63174"
  },
  {
    "village_code": "47249",
    "village": "SULUK",
    "postal_code": "63174"
  }
]