[
  {
    "village_code": "40369",
    "village": "BAJULAN",
    "postal_code": "63155"
  },
  {
    "village_code": "40505",
    "village": "BANDUNGAN",
    "postal_code": "63155"
  },
  {
    "village_code": "40903",
    "village": "BENER",
    "postal_code": "63155"
  },
  {
    "village_code": "41081",
    "village": "BONGSOPOTRO",
    "postal_code": "63155"
  },
  {
    "village_code": "43773",
    "village": "KLANGON",
    "postal_code": "63155"
  },
  {
    "village_code": "43822",
    "village": "KLUMUTAN",
    "postal_code": "63155"
  },
  {
    "village_code": "44878",
    "village": "NGEPEH",
    "postal_code": "63155"
  },
  {
    "village_code": "45180",
    "village": "PAJARAN",
    "postal_code": "63155"
  },
  {
    "village_code": "46322",
    "village": "SAMBIREJO",
    "postal_code": "63155"
  },
  {
    "village_code": "46831",
    "village": "SIDOREJO",
    "postal_code": "63155"
  },
  {
    "village_code": "47085",
    "village": "SUGIHWARAS",
    "postal_code": "63155"
  },
  {
    "village_code": "47193",
    "village": "SUKOREJO",
    "postal_code": "63155"
  },
  {
    "village_code": "47367",
    "village": "SUMBERBENDO",
    "postal_code": "63155"
  },
  {
    "village_code": "47497",
    "village": "SUMBERSARI",
    "postal_code": "63155"
  },
  {
    "village_code": "48286",
    "village": "TULUNG",
    "postal_code": "63155"
  }
]