[
  {
    "village_code": "40821",
    "village": "BEDOHO",
    "postal_code": "63161"
  },
  {
    "village_code": "40959",
    "village": "BIBRIK",
    "postal_code": "63161"
  },
  {
    "village_code": "41189",
    "village": "BUKUR",
    "postal_code": "63161"
  },
  {
    "village_code": "42123",
    "village": "GROBOGAN",
    "postal_code": "63161"
  },
  {
    "village_code": "42526",
    "village": "JIWAN",
    "postal_code": "63161"
  },
  {
    "village_code": "43733",
    "village": "KINCANG WETAN",
    "postal_code": "63161"
  },
  {
    "village_code": "43746",
    "village": "KLAGEN SERUT",
    "postal_code": "63161"
  },
  {
    "village_code": "44018",
    "village": "KWANGSEN",
    "postal_code": "63161"
  },
  {
    "village_code": "44491",
    "village": "METESIH",
    "postal_code": "63161"
  },
  {
    "village_code": "44892",
    "village": "NGETREP",
    "postal_code": "63161"
  },
  {
    "village_code": "46299",
    "village": "SAMBEREJO",
    "postal_code": "63161"
  },
  {
    "village_code": "47142",
    "village": "SUKOLILO",
    "postal_code": "63161"
  },
  {
    "village_code": "47993",
    "village": "TEGUHAN",
    "postal_code": "63161"
  },
  {
    "village_code": "48478",
    "village": "WAYUT",
    "postal_code": "63161"
  }
]