[
  {
    "village_code": "21601",
    "village": "ADI LUWIH",
    "postal_code": "35674"
  },
  {
    "village_code": "21711",
    "village": "BANDUNG BARU",
    "postal_code": "35674"
  },
  {
    "village_code": "21710",
    "village": "BANDUNG BARU BARAT",
    "postal_code": "35674"
  },
  {
    "village_code": "22048",
    "village": "ENGGAL REJO",
    "postal_code": "35674"
  },
  {
    "village_code": "22562",
    "village": "KUTA WARINGIN",
    "postal_code": "35674"
  },
  {
    "village_code": "23137",
    "village": "PURWODADI",
    "postal_code": "35674"
  },
  {
    "village_code": "23439",
    "village": "SINAR WAYA",
    "postal_code": "35674"
  },
  {
    "village_code": "23507",
    "village": "SRIKATON",
    "postal_code": "35674"
  },
  {
    "village_code": "23664",
    "village": "SUKOHARUM",
    "postal_code": "35674"
  },
  {
    "village_code": "23975",
    "village": "TOTOKARTO",
    "postal_code": "35674"
  },
  {
    "village_code": "24008",
    "village": "TRITUNGGAL MULYA",
    "postal_code": "35674"
  },
  {
    "village_code": "24030",
    "village": "TUNGGUL PAWENANG",
    "postal_code": "35674"
  },
  {
    "village_code": "24065",
    "village": "WARINGINSARI TIMUR",
    "postal_code": "35674"
  }
]