[
  {
    "village_code": "21764",
    "village": "BANJAREJO",
    "postal_code": "35373"
  },
  {
    "village_code": "21773",
    "village": "BANYU URIP",
    "postal_code": "35373"
  },
  {
    "village_code": "21775",
    "village": "BANYUMAS",
    "postal_code": "35373"
  },
  {
    "village_code": "21777",
    "village": "BANYUWANGI",
    "postal_code": "35373"
  },
  {
    "village_code": "22774",
    "village": "MULYO REJO",
    "postal_code": "35373"
  },
  {
    "village_code": "22878",
    "village": "NUSA WUNGU",
    "postal_code": "35373"
  },
  {
    "village_code": "23425",
    "village": "SINAR MULYO / MULYA",
    "postal_code": "35373"
  },
  {
    "village_code": "23496",
    "village": "SRI RAHAYU",
    "postal_code": "35373"
  },
  {
    "village_code": "23513",
    "village": "SRIWUNGU",
    "postal_code": "35373"
  },
  {
    "village_code": "23619",
    "village": "SUKAMULYA",
    "postal_code": "35373"
  },
  {
    "village_code": "24138",
    "village": "WAYA KRUI",
    "postal_code": "35373"
  }
]