[
  {
    "village_code": "21845",
    "village": "BLITAREJO",
    "postal_code": "35372"
  },
  {
    "village_code": "21887",
    "village": "BULUKARTO",
    "postal_code": "35372"
  },
  {
    "village_code": "21888",
    "village": "BULUREJO",
    "postal_code": "35372"
  },
  {
    "village_code": "22063",
    "village": "GADING REJO",
    "postal_code": "35372"
  },
  {
    "village_code": "22065",
    "village": "GADINGREJO TIMUR",
    "postal_code": "35372"
  },
  {
    "village_code": "22066",
    "village": "GADINGREJO UTARA",
    "postal_code": "35372"
  },
  {
    "village_code": "22433",
    "village": "KEDIRI",
    "postal_code": "35372"
  },
  {
    "village_code": "22493",
    "village": "KLATEN",
    "postal_code": "35372"
  },
  {
    "village_code": "22691",
    "village": "MATARAM",
    "postal_code": "35372"
  },
  {
    "village_code": "22972",
    "village": "PANJEREJO",
    "postal_code": "35372"
  },
  {
    "village_code": "22985",
    "village": "PAREREJO",
    "postal_code": "35372"
  },
  {
    "village_code": "23790",
    "village": "TAMBAHREJO BARAT",
    "postal_code": "35372"
  },
  {
    "village_code": "23792",
    "village": "TAMBAK REJO",
    "postal_code": "35372"
  },
  {
    "village_code": "23922",
    "village": "TEGALSARI",
    "postal_code": "35372"
  },
  {
    "village_code": "24015",
    "village": "TULUNG AGUNG",
    "postal_code": "35372"
  },
  {
    "village_code": "24072",
    "village": "WATES",
    "postal_code": "35372"
  },
  {
    "village_code": "24068",
    "village": "WATES SELATAN",
    "postal_code": "35372"
  },
  {
    "village_code": "24069",
    "village": "WATES TIMUR",
    "postal_code": "35372"
  },
  {
    "village_code": "24155",
    "village": "WONODADI",
    "postal_code": "35372"
  },
  {
    "village_code": "24154",
    "village": "WONODADI UTARA",
    "postal_code": "35372"
  },
  {
    "village_code": "24164",
    "village": "WONOSARI",
    "postal_code": "35372"
  },
  {
    "village_code": "24167",
    "village": "YOGYAKARTA (JOGJAKARTA)",
    "postal_code": "35372"
  },
  {
    "village_code": "24168",
    "village": "YOGYAKARTA SELATAN",
    "postal_code": "35372"
  }
]