[
  {
    "village_code": "21897",
    "village": "BUMI ARUM",
    "postal_code": "35373"
  },
  {
    "village_code": "21900",
    "village": "BUMI AYU",
    "postal_code": "35373"
  },
  {
    "village_code": "22050",
    "village": "FAJAR AGUNG BARAT",
    "postal_code": "35373"
  },
  {
    "village_code": "22062",
    "village": "FAJARESUK (PAJAR ESUK)",
    "postal_code": "35373"
  },
  {
    "village_code": "22660",
    "village": "MARGAKAYA",
    "postal_code": "35373"
  },
  {
    "village_code": "22928",
    "village": "PAJAR / FAJAR AGUNG",
    "postal_code": "35373"
  },
  {
    "village_code": "23087",
    "village": "PODOMORO",
    "postal_code": "35373"
  },
  {
    "village_code": "23088",
    "village": "PODOSARI",
    "postal_code": "35373"
  },
  {
    "village_code": "23094",
    "village": "PRINGSEWU BARAT",
    "postal_code": "35373"
  },
  {
    "village_code": "23095",
    "village": "PRINGSEWU SELATAN",
    "postal_code": "35373"
  },
  {
    "village_code": "23096",
    "village": "PRINGSEWU TIMUR",
    "postal_code": "35373"
  },
  {
    "village_code": "23097",
    "village": "PRINGSEWU UTARA",
    "postal_code": "35373"
  },
  {
    "village_code": "23227",
    "village": "REJOSARI",
    "postal_code": "35373"
  },
  {
    "village_code": "23362",
    "village": "SIDOHARJO",
    "postal_code": "35373"
  },
  {
    "village_code": "24058",
    "village": "WALUYOJATI",
    "postal_code": "35373"
  }
]