[
  {
    "village_code": "21832",
    "village": "BIMA SAKTI",
    "postal_code": "34769"
  },
  {
    "village_code": "22322",
    "village": "KALIAWI",
    "postal_code": "34769"
  },
  {
    "village_code": "22320",
    "village": "KALIAWI INDAH",
    "postal_code": "34769"
  },
  {
    "village_code": "22490",
    "village": "KILING KILING",
    "postal_code": "34769"
  },
  {
    "village_code": "22805",
    "village": "NEGARA JAYA",
    "postal_code": "34769"
  },
  {
    "village_code": "22830",
    "village": "NEGERI BESAR",
    "postal_code": "34769"
  },
  {
    "village_code": "22835",
    "village": "NEGERI JAYA",
    "postal_code": "34769"
  },
  {
    "village_code": "22838",
    "village": "NEGERI KASIH",
    "postal_code": "34769"
  },
  {
    "village_code": "22917",
    "village": "PAGAR IMAN",
    "postal_code": "34769"
  },
  {
    "village_code": "23465",
    "village": "SRI BASUKI",
    "postal_code": "34769"
  },
  {
    "village_code": "23900",
    "village": "TANJUNGMAS",
    "postal_code": "34769"
  },
  {
    "village_code": "23919",
    "village": "TEGAL MUKTI",
    "postal_code": "34769"
  },
  {
    "village_code": "23963",
    "village": "TIUH BARU",
    "postal_code": "34769"
  }
]