[
  {
    "village_code": "21884",
    "village": "BUKITBATU",
    "postal_code": "34765"
  },
  {
    "village_code": "22028",
    "village": "DATAR BANCONG",
    "postal_code": "34765"
  },
  {
    "village_code": "22138",
    "village": "GELOMBANG PANJANG",
    "postal_code": "34765"
  },
  {
    "village_code": "22291",
    "village": "JAYA TINGGI",
    "postal_code": "34765"
  },
  {
    "village_code": "22299",
    "village": "JUKUH KEMUNING",
    "postal_code": "34765"
  },
  {
    "village_code": "22332",
    "village": "KAMPUNG BARU",
    "postal_code": "34765"
  },
  {
    "village_code": "22358",
    "village": "KARANG LANTANG",
    "postal_code": "34765"
  },
  {
    "village_code": "22401",
    "village": "KASUI LAMA",
    "postal_code": "34765"
  },
  {
    "village_code": "22402",
    "village": "KASUI PASAR",
    "postal_code": "34765"
  },
  {
    "village_code": "22427",
    "village": "KEDATON",
    "postal_code": "34765"
  },
  {
    "village_code": "22529",
    "village": "KOTA WAY",
    "postal_code": "34765"
  },
  {
    "village_code": "23409",
    "village": "SINAR GADING",
    "postal_code": "34765"
  },
  {
    "village_code": "23593",
    "village": "SUKAJADI",
    "postal_code": "34765"
  },
  {
    "village_code": "23765",
    "village": "TALANG MANGGA",
    "postal_code": "34765"
  },
  {
    "village_code": "23798",
    "village": "TANGKAS",
    "postal_code": "34765"
  },
  {
    "village_code": "23820",
    "village": "TANJUNG BULAN",
    "postal_code": "34765"
  },
  {
    "village_code": "23827",
    "village": "TANJUNG HARAPAN",
    "postal_code": "34765"
  },
  {
    "village_code": "23850",
    "village": "TANJUNG KURUNG",
    "postal_code": "34765"
  },
  {
    "village_code": "23849",
    "village": "TANJUNG KURUNG LAMA",
    "postal_code": "34765"
  }
]