[
  {
    "village_code": "60905",
    "village": "BUNGA PUTIH",
    "postal_code": "75385"
  },
  {
    "village_code": "61078",
    "village": "KERSIK",
    "postal_code": "75385"
  },
  {
    "village_code": "61221",
    "village": "MAKARTI",
    "postal_code": "75385"
  },
  {
    "village_code": "61433",
    "village": "PERANGAT BARU",
    "postal_code": "75385"
  },
  {
    "village_code": "61434",
    "village": "PERANGAT SELATAN",
    "postal_code": "75385"
  },
  {
    "village_code": "61512",
    "village": "SAMBERA BARU",
    "postal_code": "75385"
  },
  {
    "village_code": "61531",
    "village": "SANTAN ILIR",
    "postal_code": "75385"
  },
  {
    "village_code": "61532",
    "village": "SANTAN TENGAH",
    "postal_code": "75385"
  },
  {
    "village_code": "61533",
    "village": "SANTAN ULU",
    "postal_code": "75385"
  },
  {
    "village_code": "61548",
    "village": "SEBUNTAL",
    "postal_code": "75385"
  },
  {
    "village_code": "61582",
    "village": "SEMANGKOK",
    "postal_code": "75385"
  }
]