[
  {
    "village_code": "12434",
    "village": "AMPANG PULAI",
    "postal_code": "25654"
  },
  {
    "village_code": "12496",
    "village": "BARUNG BARUNG BALANTAI",
    "postal_code": "25654"
  },
  {
    "village_code": "12495",
    "village": "BARUNG BARUNG BALANTAI SELATAN",
    "postal_code": "25654"
  },
  {
    "village_code": "12497",
    "village": "BARUNG-BARUNG BALANTAI TENGAH",
    "postal_code": "25654"
  },
  {
    "village_code": "12498",
    "village": "BARUNG-BARUNG BALANTAI TIMUR",
    "postal_code": "25654"
  },
  {
    "village_code": "12522",
    "village": "BATU HAMPA",
    "postal_code": "25654"
  },
  {
    "village_code": "12533",
    "village": "BATUHAMPAR SELATAN",
    "postal_code": "25654"
  },
  {
    "village_code": "12589",
    "village": "CEROCOK ANAU AMPANG PULAI",
    "postal_code": "25654"
  },
  {
    "village_code": "12610",
    "village": "DUKU",
    "postal_code": "25654"
  },
  {
    "village_code": "12609",
    "village": "DUKU UTARA",
    "postal_code": "25654"
  },
  {
    "village_code": "12695",
    "village": "JINANG KAMPUNG PANSUR AMPANG PULAI",
    "postal_code": "25654"
  },
  {
    "village_code": "12734",
    "village": "KAMPUNGBARU KORONG NAN AMPEK",
    "postal_code": "25654"
  },
  {
    "village_code": "12746",
    "village": "KAPUH",
    "postal_code": "25654"
  },
  {
    "village_code": "12745",
    "village": "KAPUH UTARA",
    "postal_code": "25654"
  },
  {
    "village_code": "12974",
    "village": "MANDEH",
    "postal_code": "25654"
  },
  {
    "village_code": "13020",
    "village": "NANGGALO",
    "postal_code": "25654"
  },
  {
    "village_code": "13175",
    "village": "PULAUKARAM AMPANG PULAI",
    "postal_code": "25654"
  },
  {
    "village_code": "13246",
    "village": "SETARA NANGGALO",
    "postal_code": "25654"
  },
  {
    "village_code": "13261",
    "village": "SIGUNTUR",
    "postal_code": "25654"
  },
  {
    "village_code": "13260",
    "village": "SIGUNTUR TUA",
    "postal_code": "25654"
  },
  {
    "village_code": "13371",
    "village": "SUNGAI PINANG",
    "postal_code": "25654"
  },
  {
    "village_code": "13389",
    "village": "SUNGAINYALO MUDIAK AIA",
    "postal_code": "25654"
  },
  {
    "village_code": "13492",
    "village": "TARATAK SEI LUNDANG",
    "postal_code": "25654"
  }
]