[
  {
    "village_code": "12435",
    "village": "AMPANG TAREH LUMPO",
    "postal_code": "25651"
  },
  {
    "village_code": "12442",
    "village": "AMPUAN LUMPO",
    "postal_code": "25651"
  },
  {
    "village_code": "12482",
    "village": "BALAI SINAYAN LUMPO",
    "postal_code": "25651"
  },
  {
    "village_code": "12525",
    "village": "BATU KUNIK LUMPO",
    "postal_code": "25651"
  },
  {
    "village_code": "12574",
    "village": "BUNGA PASANG SALIDO",
    "postal_code": "25651"
  },
  {
    "village_code": "12656",
    "village": "GUNUNGBUNGKUAK LUMPO",
    "postal_code": "25651"
  },
  {
    "village_code": "12821",
    "village": "KOTO RAWANG",
    "postal_code": "25651"
  },
  {
    "village_code": "12901",
    "village": "LIMAU GADANG LUMPO",
    "postal_code": "25651"
  },
  {
    "village_code": "12946",
    "village": "LUMPO",
    "postal_code": "25651"
  },
  {
    "village_code": "13068",
    "village": "PAINAN",
    "postal_code": "25651"
  },
  {
    "village_code": "13066",
    "village": "PAINAN SELATAN PAINAN",
    "postal_code": "25651"
  },
  {
    "village_code": "13067",
    "village": "PAINAN TIMUR PAINAN",
    "postal_code": "25651"
  },
  {
    "village_code": "13202",
    "village": "SAGO SALIDO",
    "postal_code": "25651"
  },
  {
    "village_code": "13213",
    "village": "SALIDO",
    "postal_code": "25651"
  },
  {
    "village_code": "13212",
    "village": "SALIDO SARI BULAN",
    "postal_code": "25651"
  },
  {
    "village_code": "13384",
    "village": "SUNGAIBUKIK KACIAK LUMPO",
    "postal_code": "25651"
  },
  {
    "village_code": "13386",
    "village": "SUNGAIGAYO LUMPO",
    "postal_code": "25651"
  },
  {
    "village_code": "13392",
    "village": "SUNGAISARIAK LUMPO",
    "postal_code": "25651"
  },
  {
    "village_code": "13437",
    "village": "TAMBANG",
    "postal_code": "25651"
  },
  {
    "village_code": "13493",
    "village": "TARATAK TANGAH LUMPO",
    "postal_code": "25651"
  }
]