[
  {
    "village_code": "12436",
    "village": "AMPANG TULAK TAPAN",
    "postal_code": "25673"
  },
  {
    "village_code": "12501",
    "village": "BATANG ARAH TAPAN",
    "postal_code": "25673"
  },
  {
    "village_code": "12504",
    "village": "BATANG BETUNG TAPAN",
    "postal_code": "25673"
  },
  {
    "village_code": "12570",
    "village": "BUKITBUAI TAPAN",
    "postal_code": "25673"
  },
  {
    "village_code": "12619",
    "village": "DUSUN BARU TAPAN",
    "postal_code": "25673"
  },
  {
    "village_code": "12764",
    "village": "KOTO ANAU TAPAN",
    "postal_code": "25673"
  },
  {
    "village_code": "12907",
    "village": "LIMAU PURUT TAPAN",
    "postal_code": "25673"
  },
  {
    "village_code": "13125",
    "village": "PASAR TAPAN",
    "postal_code": "25673"
  },
  {
    "village_code": "13199",
    "village": "RIAKDANAU TAPAN",
    "postal_code": "25673"
  },
  {
    "village_code": "13482",
    "village": "TANJUNGPONDOK TAPAN",
    "postal_code": "25673"
  },
  {
    "village_code": "13484",
    "village": "TAPAN",
    "postal_code": "25673"
  }
]