[
  {
    "village_code": "12451",
    "village": "API-API PASAR BARU",
    "postal_code": "25652"
  },
  {
    "village_code": "12454",
    "village": "ASAMKAMBA PASAR BARU",
    "postal_code": "25652"
  },
  {
    "village_code": "12457",
    "village": "AUR BEGALUNG TALAOK",
    "postal_code": "25652"
  },
  {
    "village_code": "12662",
    "village": "GURUN PANJANG",
    "postal_code": "25652"
  },
  {
    "village_code": "12659",
    "village": "GURUN PANJANG BARAT",
    "postal_code": "25652"
  },
  {
    "village_code": "12660",
    "village": "GURUN PANJANG SELATAN",
    "postal_code": "25652"
  },
  {
    "village_code": "12661",
    "village": "GURUN PANJANG UTARA",
    "postal_code": "25652"
  },
  {
    "village_code": "12743",
    "village": "KAPEH PANJI JAYA TALAOK",
    "postal_code": "25652"
  },
  {
    "village_code": "12744",
    "village": "KAPELGAM KOTO BERAPAK",
    "postal_code": "25652"
  },
  {
    "village_code": "12747",
    "village": "KAPUJAN KOTO BERAPAK",
    "postal_code": "25652"
  },
  {
    "village_code": "12769",
    "village": "KOTO BARU KOTO BERAPAK",
    "postal_code": "25652"
  },
  {
    "village_code": "12782",
    "village": "KOTO BERAPAK",
    "postal_code": "25652"
  },
  {
    "village_code": "12843",
    "village": "KUBANG KOTO BERAPAK",
    "postal_code": "25652"
  },
  {
    "village_code": "13117",
    "village": "PASAR BARU",
    "postal_code": "25652"
  },
  {
    "village_code": "13236",
    "village": "SAWAHLAWEH PASAR BARU",
    "postal_code": "25652"
  },
  {
    "village_code": "13426",
    "village": "TALAOK",
    "postal_code": "25652"
  },
  {
    "village_code": "13481",
    "village": "TANJUNGDURIAN PASAR BARU",
    "postal_code": "25652"
  }
]