[
  {
    "village_code": "31181",
    "village": "ADIPASIR",
    "postal_code": "53463"
  },
  {
    "village_code": "31274",
    "village": "BADAMITA",
    "postal_code": "53463"
  },
  {
    "village_code": "31381",
    "village": "BANDINGAN",
    "postal_code": "53463"
  },
  {
    "village_code": "32811",
    "village": "GELANG",
    "postal_code": "53463"
  },
  {
    "village_code": "35055",
    "village": "KINCANG",
    "postal_code": "53463"
  },
  {
    "village_code": "35540",
    "village": "LENGKONG",
    "postal_code": "53463"
  },
  {
    "village_code": "35632",
    "village": "LUWUNG",
    "postal_code": "53463"
  },
  {
    "village_code": "37012",
    "village": "PINGIT",
    "postal_code": "53463"
  },
  {
    "village_code": "37424",
    "village": "RAKIT",
    "postal_code": "53463"
  },
  {
    "village_code": "38241",
    "village": "SITUWANGI",
    "postal_code": "53463"
  },
  {
    "village_code": "38806",
    "village": "TANJUNGANOM",
    "postal_code": "53463"
  }
]