[
  {
    "village_code": "31203",
    "village": "AMBAL",
    "postal_code": "53453"
  },
  {
    "village_code": "31769",
    "village": "BINANGUN",
    "postal_code": "53453"
  },
  {
    "village_code": "33132",
    "village": "GUMELAR",
    "postal_code": "53453"
  },
  {
    "village_code": "33576",
    "village": "JLEGONG",
    "postal_code": "53453"
  },
  {
    "village_code": "34209",
    "village": "KARANGGONDANG",
    "postal_code": "53453"
  },
  {
    "village_code": "34255",
    "village": "KARANGKOBAR",
    "postal_code": "53453"
  },
  {
    "village_code": "35511",
    "village": "LEKSANA",
    "postal_code": "53453"
  },
  {
    "village_code": "36460",
    "village": "PAGERPELAH",
    "postal_code": "53453"
  },
  {
    "village_code": "36717",
    "village": "PASURUHAN",
    "postal_code": "53453"
  },
  {
    "village_code": "36743",
    "village": "PAWEDEN",
    "postal_code": "53453"
  },
  {
    "village_code": "37334",
    "village": "PURWODADI",
    "postal_code": "53453"
  },
  {
    "village_code": "37672",
    "village": "SAMPANG",
    "postal_code": "53453"
  },
  {
    "village_code": "38255",
    "village": "SLATRI",
    "postal_code": "53453"
  }
]