[
  {
    "village_code": "31215",
    "village": "AMPELSARI",
    "postal_code": "53418"
  },
  {
    "village_code": "31229",
    "village": "ARGASOKA",
    "postal_code": "53418"
  },
  {
    "village_code": "32248",
    "village": "CENDANA",
    "postal_code": "53418"
  },
  {
    "village_code": "34406",
    "village": "KARANGTENGAH",
    "postal_code": "53416"
  },
  {
    "village_code": "35202",
    "village": "KRANDEGAN",
    "postal_code": "53414"
  },
  {
    "village_code": "35346",
    "village": "KUTA BANJARNEGARA",
    "postal_code": "53418"
  },
  {
    "village_code": "36661",
    "village": "PARAKANCANGGAH",
    "postal_code": "53412"
  },
  {
    "village_code": "37836",
    "village": "SEMAMPIR",
    "postal_code": "53418"
  },
  {
    "village_code": "37847",
    "village": "SEMARANG",
    "postal_code": "53411"
  },
  {
    "village_code": "38285",
    "village": "SOKANANDI",
    "postal_code": "53413"
  },
  {
    "village_code": "38302",
    "village": "SOKAYASA",
    "postal_code": "53418"
  },
  {
    "village_code": "39132",
    "village": "TLAGAWERA",
    "postal_code": "53418"
  },
  {
    "village_code": "39445",
    "village": "WANGON",
    "postal_code": "53417"
  }
]