[
  {
    "village_code": "31382",
    "village": "BANDINGAN",
    "postal_code": "53481"
  },
  {
    "village_code": "31862",
    "village": "BOJANEGARA",
    "postal_code": "53481"
  },
  {
    "village_code": "32832",
    "village": "GEMBONGAN",
    "postal_code": "53481"
  },
  {
    "village_code": "33784",
    "village": "KALIBENDA",
    "postal_code": "53481"
  },
  {
    "village_code": "34285",
    "village": "KARANGMANGU",
    "postal_code": "53481"
  },
  {
    "village_code": "34844",
    "village": "KEMIRI",
    "postal_code": "53481"
  },
  {
    "village_code": "36545",
    "village": "PANAWAREN",
    "postal_code": "53481"
  },
  {
    "village_code": "37190",
    "village": "PRIGI",
    "postal_code": "53481"
  },
  {
    "village_code": "37193",
    "village": "PRINGAMBA",
    "postal_code": "53481"
  },
  {
    "village_code": "37433",
    "village": "RANDEGAN",
    "postal_code": "53481"
  },
  {
    "village_code": "37742",
    "village": "SAWAL",
    "postal_code": "53481"
  },
  {
    "village_code": "38134",
    "village": "SIGALUH",
    "postal_code": "53481"
  },
  {
    "village_code": "38202",
    "village": "SINGOMERTO (SINGAMERTA)",
    "postal_code": "53481"
  },
  {
    "village_code": "39337",
    "village": "TUNGGARA",
    "postal_code": "53481"
  },
  {
    "village_code": "39420",
    "village": "WANACIPTA",
    "postal_code": "53481"
  }
]