[
  {
    "village_code": "33141",
    "village": "GUMINGSIR",
    "postal_code": "53461"
  },
  {
    "village_code": "34047",
    "village": "KANDANGWANGI",
    "postal_code": "53461"
  },
  {
    "village_code": "34217",
    "village": "KARANGJAMBE",
    "postal_code": "53461"
  },
  {
    "village_code": "34249",
    "village": "KARANGKEMIRI",
    "postal_code": "53461"
  },
  {
    "village_code": "34452",
    "village": "KASALIB",
    "postal_code": "53461"
  },
  {
    "village_code": "35522",
    "village": "LEMAHJAYA",
    "postal_code": "53461"
  },
  {
    "village_code": "35568",
    "village": "LINGGASARI",
    "postal_code": "53461"
  },
  {
    "village_code": "35819",
    "village": "MEDAYU",
    "postal_code": "53461"
  },
  {
    "village_code": "38847",
    "village": "TAPEN",
    "postal_code": "53461"
  },
  {
    "village_code": "39421",
    "village": "WANADADI",
    "postal_code": "53461"
  },
  {
    "village_code": "39423",
    "village": "WANAKARSA",
    "postal_code": "53461"
  }
]