[
  {
    "village_code": "52038",
    "village": "ADANG BUOM",
    "postal_code": "85819"
  },
  {
    "village_code": "52058",
    "village": "AIR KENARI",
    "postal_code": "85819"
  },
  {
    "village_code": "52307",
    "village": "BINONGKO",
    "postal_code": "85815"
  },
  {
    "village_code": "52566",
    "village": "FANATING",
    "postal_code": "85819"
  },
  {
    "village_code": "52875",
    "village": "KALABAHI BARAT",
    "postal_code": "85814"
  },
  {
    "village_code": "52876",
    "village": "KALABAHI KOTA",
    "postal_code": "85813"
  },
  {
    "village_code": "52877",
    "village": "KALABAHI TENGAH",
    "postal_code": "85812"
  },
  {
    "village_code": "52878",
    "village": "KALABAHI TIMUR",
    "postal_code": "85811"
  },
  {
    "village_code": "53285",
    "village": "LENDOLA",
    "postal_code": "85819"
  },
  {
    "village_code": "53664",
    "village": "MOTONGBANG",
    "postal_code": "85819"
  },
  {
    "village_code": "53682",
    "village": "MUTIARA",
    "postal_code": "85819"
  },
  {
    "village_code": "53971",
    "village": "NUSA KENARI",
    "postal_code": "85819"
  },
  {
    "village_code": "54708",
    "village": "TELUK KENARI",
    "postal_code": "85819"
  },
  {
    "village_code": "55118",
    "village": "WELAI BARAT",
    "postal_code": "85816"
  },
  {
    "village_code": "55120",
    "village": "WELAI TIMUR",
    "postal_code": "85817"
  },
  {
    "village_code": "55141",
    "village": "WETABUA",
    "postal_code": "85819"
  }
]