[
  {
    "village_code": "52076",
    "village": "ALIMEBUNG (ALIM MEBUNG)",
    "postal_code": "85871"
  },
  {
    "village_code": "52450",
    "village": "DAPITAU",
    "postal_code": "85871"
  },
  {
    "village_code": "52620",
    "village": "FUISAMA",
    "postal_code": "85871"
  },
  {
    "village_code": "52622",
    "village": "FUNGAFENG",
    "postal_code": "85871"
  },
  {
    "village_code": "52863",
    "village": "KAFAKBEKA",
    "postal_code": "85871"
  },
  {
    "village_code": "53164",
    "village": "LAKWATI",
    "postal_code": "85871"
  },
  {
    "village_code": "53273",
    "village": "LEMBUR BARAT",
    "postal_code": "85871"
  },
  {
    "village_code": "53274",
    "village": "LEMBUR TENGAH",
    "postal_code": "85871"
  },
  {
    "village_code": "53371",
    "village": "LIKWATANG (LIKUWATANG)",
    "postal_code": "85871"
  },
  {
    "village_code": "53487",
    "village": "MANETWATI",
    "postal_code": "85871"
  },
  {
    "village_code": "53969",
    "village": "NURBENLELANG",
    "postal_code": "85871"
  },
  {
    "village_code": "54215",
    "village": "PETLENG",
    "postal_code": "85871"
  },
  {
    "village_code": "54792",
    "village": "TOMINUKU",
    "postal_code": "85871"
  },
  {
    "village_code": "55119",
    "village": "WELAI SELATAN",
    "postal_code": "85871"
  }
]