[
  {
    "village_code": "52155",
    "village": "BANA",
    "postal_code": "85881"
  },
  {
    "village_code": "52160",
    "village": "BANDAR",
    "postal_code": "85881"
  },
  {
    "village_code": "52187",
    "village": "BAOLANG",
    "postal_code": "85881"
  },
  {
    "village_code": "52372",
    "village": "BOUWELI",
    "postal_code": "85881"
  },
  {
    "village_code": "52385",
    "village": "BUKIT MAS",
    "postal_code": "85881"
  },
  {
    "village_code": "52766",
    "village": "HELANDOHI",
    "postal_code": "85881"
  },
  {
    "village_code": "52850",
    "village": "KABIR",
    "postal_code": "85881"
  },
  {
    "village_code": "53446",
    "village": "MADAR",
    "postal_code": "85881"
  },
  {
    "village_code": "53676",
    "village": "MUNASELI",
    "postal_code": "85881"
  },
  {
    "village_code": "54157",
    "village": "PANDAI",
    "postal_code": "85881"
  },
  {
    "village_code": "54978",
    "village": "WAILAWAR",
    "postal_code": "85881"
  }
]