[
  {
    "village_code": "52208",
    "village": "BATU",
    "postal_code": "85881"
  },
  {
    "village_code": "52391",
    "village": "BUNGA BALI",
    "postal_code": "85881"
  },
  {
    "village_code": "52862",
    "village": "KAERA",
    "postal_code": "85881"
  },
  {
    "village_code": "52883",
    "village": "KALEB",
    "postal_code": "85881"
  },
  {
    "village_code": "53165",
    "village": "LALAFANG",
    "postal_code": "85881"
  },
  {
    "village_code": "53263",
    "village": "LEKOM",
    "postal_code": "85881"
  },
  {
    "village_code": "53589",
    "village": "MAWAR",
    "postal_code": "85881"
  },
  {
    "village_code": "53633",
    "village": "MERDEKA",
    "postal_code": "85881"
  },
  {
    "village_code": "53947",
    "village": "NULE",
    "postal_code": "85881"
  },
  {
    "village_code": "54110",
    "village": "OMBAY",
    "postal_code": "85881"
  },
  {
    "village_code": "54808",
    "village": "TREWENG / TEREWENG",
    "postal_code": "85881"
  }
]