[
  {
    "village_code": "50982",
    "village": "BADA",
    "postal_code": "84211"
  },
  {
    "village_code": "51000",
    "village": "BALI 1",
    "postal_code": "84213"
  },
  {
    "village_code": "51141",
    "village": "DOREBARA",
    "postal_code": "84219"
  },
  {
    "village_code": "51146",
    "village": "DOROTANGGA",
    "postal_code": "84212"
  },
  {
    "village_code": "51262",
    "village": "KANDAI SATU",
    "postal_code": "84219"
  },
  {
    "village_code": "51265",
    "village": "KARAMABURA",
    "postal_code": "84219"
  },
  {
    "village_code": "51277",
    "village": "KAREKE",
    "postal_code": "84219"
  },
  {
    "village_code": "51278",
    "village": "KARIJAWA",
    "postal_code": "84217"
  },
  {
    "village_code": "51281",
    "village": "KATUA",
    "postal_code": "84219"
  },
  {
    "village_code": "51470",
    "village": "MANGGE NAE",
    "postal_code": "84219"
  },
  {
    "village_code": "51502",
    "village": "MBAWI",
    "postal_code": "84219"
  },
  {
    "village_code": "51514",
    "village": "MENGGEASI (MANGGE ASI)",
    "postal_code": "84219"
  },
  {
    "village_code": "51695",
    "village": "POTU",
    "postal_code": "84214"
  },
  {
    "village_code": "51896",
    "village": "SORISAKOLO",
    "postal_code": "84219"
  }
]