[
  {
    "village_code": "20116",
    "village": "AIR MUNDU",
    "postal_code": "39152"
  },
  {
    "village_code": "20128",
    "village": "AIR PIKAT",
    "postal_code": "39152"
  },
  {
    "village_code": "20214",
    "village": "BARU MANIS",
    "postal_code": "39152"
  },
  {
    "village_code": "20477",
    "village": "KAMPUNG MELAYU",
    "postal_code": "39152"
  },
  {
    "village_code": "20480",
    "village": "KAMPUNG SAJAD",
    "postal_code": "39152"
  },
  {
    "village_code": "20861",
    "village": "PAGAR GUNUNG",
    "postal_code": "39152"
  },
  {
    "village_code": "21023",
    "village": "PURWODADI",
    "postal_code": "39152"
  },
  {
    "village_code": "21084",
    "village": "SELAMAT SUDIARJO",
    "postal_code": "39152"
  },
  {
    "village_code": "21106",
    "village": "SENTRAL BARU",
    "postal_code": "39152"
  },
  {
    "village_code": "21199",
    "village": "SUKA RAMI",
    "postal_code": "39152"
  },
  {
    "village_code": "21507",
    "village": "TEBAT PULAU",
    "postal_code": "39152"
  },
  {
    "village_code": "21509",
    "village": "TEBAT TENONG DALAM",
    "postal_code": "39152"
  }
]