[
  {
    "village_code": "71901",
    "village": "AMBO PADANG",
    "postal_code": "91355"
  },
  {
    "village_code": "71904",
    "village": "ARABUA",
    "postal_code": "91355"
  },
  {
    "village_code": "71975",
    "village": "BESOANGIN",
    "postal_code": "91355"
  },
  {
    "village_code": "71974",
    "village": "BESOANGIN UTARA",
    "postal_code": "91355"
  },
  {
    "village_code": "72263",
    "village": "PEBURRU",
    "postal_code": "91355"
  },
  {
    "village_code": "72273",
    "village": "PIRIANG TAPIKO",
    "postal_code": "91355"
  },
  {
    "village_code": "72274",
    "village": "PODA",
    "postal_code": "91355"
  },
  {
    "village_code": "72279",
    "village": "POLLEWANI",
    "postal_code": "91355"
  },
  {
    "village_code": "72308",
    "village": "RATTE",
    "postal_code": "91355"
  },
  {
    "village_code": "72421",
    "village": "TALOBA",
    "postal_code": "91355"
  },
  {
    "village_code": "72454",
    "village": "TARAMANU",
    "postal_code": "91355"
  },
  {
    "village_code": "72453",
    "village": "TARAMANU TUA",
    "postal_code": "91355"
  },
  {
    "village_code": "72477",
    "village": "TUBBI",
    "postal_code": "91355"
  }
]