[
  {
    "village_code": "71947",
    "village": "BARU",
    "postal_code": "91353"
  },
  {
    "village_code": "71959",
    "village": "BATU PANGA",
    "postal_code": "91353"
  },
  {
    "village_code": "71964",
    "village": "BATUPANGA DAALA",
    "postal_code": "91353"
  },
  {
    "village_code": "72150",
    "village": "LUYO (LUJO)",
    "postal_code": "91353"
  },
  {
    "village_code": "72168",
    "village": "MAMBU",
    "postal_code": "91353"
  },
  {
    "village_code": "72177",
    "village": "MAPILLI BARAT",
    "postal_code": "91353"
  },
  {
    "village_code": "72285",
    "village": "PUCCADI",
    "postal_code": "91353"
  },
  {
    "village_code": "72290",
    "village": "PUSSUI",
    "postal_code": "91353"
  },
  {
    "village_code": "72289",
    "village": "PUSSUI BARAT",
    "postal_code": "91353"
  },
  {
    "village_code": "72350",
    "village": "SAMBALI WALI",
    "postal_code": "91353"
  },
  {
    "village_code": "72460",
    "village": "TENGGELANG (TENGGELAN)",
    "postal_code": "91353"
  }
]