[
  {
    "village_code": "72127",
    "village": "LEMBANG LEMBANG",
    "postal_code": "91413"
  },
  {
    "village_code": "72139",
    "village": "LIMBORO",
    "postal_code": "91413"
  },
  {
    "village_code": "72208",
    "village": "NAPO",
    "postal_code": "91413"
  },
  {
    "village_code": "72226",
    "village": "PALECE",
    "postal_code": "91413"
  },
  {
    "village_code": "72268",
    "village": "PENDULANGAN (PANDULANGAN)",
    "postal_code": "91413"
  },
  {
    "village_code": "72310",
    "village": "RENGGEANG",
    "postal_code": "91413"
  },
  {
    "village_code": "72317",
    "village": "SALARRI",
    "postal_code": "91413"
  },
  {
    "village_code": "72348",
    "village": "SAMASUNDU",
    "postal_code": "91413"
  },
  {
    "village_code": "72435",
    "village": "TANDASURA (TANDASSURA)",
    "postal_code": "91413"
  },
  {
    "village_code": "72442",
    "village": "TANGAN BARU",
    "postal_code": "91413"
  },
  {
    "village_code": "72468",
    "village": "TODANG TODANG",
    "postal_code": "91413"
  }
]