[
  {
    "village_code": "24578",
    "village": "BATU AMPAR",
    "postal_code": "29783"
  },
  {
    "village_code": "24595",
    "village": "BAYAT",
    "postal_code": "29783"
  },
  {
    "village_code": "24598",
    "village": "BELIBAK",
    "postal_code": "29783"
  },
  {
    "village_code": "24620",
    "village": "CANDI",
    "postal_code": "29783"
  },
  {
    "village_code": "24692",
    "village": "LADAN",
    "postal_code": "29783"
  },
  {
    "village_code": "24695",
    "village": "LANGIR",
    "postal_code": "29783"
  },
  {
    "village_code": "24720",
    "village": "MATAK",
    "postal_code": "29783"
  },
  {
    "village_code": "24733",
    "village": "MUBUR",
    "postal_code": "29783"
  },
  {
    "village_code": "24761",
    "village": "PAYALAMAN",
    "postal_code": "29783"
  },
  {
    "village_code": "24762",
    "village": "PAYAMARAM",
    "postal_code": "29783"
  },
  {
    "village_code": "24780",
    "village": "PIABUNG",
    "postal_code": "29783"
  },
  {
    "village_code": "24782",
    "village": "PIASAN",
    "postal_code": "29783"
  },
  {
    "village_code": "24800",
    "village": "PUTIK",
    "postal_code": "29783"
  },
  {
    "village_code": "24932",
    "village": "TEBANG",
    "postal_code": "29783"
  },
  {
    "village_code": "24939",
    "village": "TELUK BAYUR",
    "postal_code": "29783"
  }
]