[
  {
    "village_code": "66505",
    "village": "BONTOALA",
    "postal_code": "92161"
  },
  {
    "village_code": "66556",
    "village": "BONTORAMBA",
    "postal_code": "92161"
  },
  {
    "village_code": "66671",
    "village": "BUNGAEJAYA",
    "postal_code": "92161"
  },
  {
    "village_code": "66916",
    "village": "JENETALLASA",
    "postal_code": "92161"
  },
  {
    "village_code": "66928",
    "village": "JULUBORI",
    "postal_code": "92161"
  },
  {
    "village_code": "66930",
    "village": "JULUKANAYA",
    "postal_code": "92161"
  },
  {
    "village_code": "66932",
    "village": "JULUPAMAI",
    "postal_code": "92161"
  },
  {
    "village_code": "67012",
    "village": "KAMPILI",
    "postal_code": "92161"
  },
  {
    "village_code": "67520",
    "village": "MANGALILI",
    "postal_code": "92161"
  },
  {
    "village_code": "67883",
    "village": "PALLANGGA",
    "postal_code": "92161"
  },
  {
    "village_code": "67912",
    "village": "PANAKKUKANG",
    "postal_code": "92161"
  },
  {
    "village_code": "67931",
    "village": "PANGKABINANGA",
    "postal_code": "92161"
  },
  {
    "village_code": "67969",
    "village": "PARANG BANOA",
    "postal_code": "92161"
  },
  {
    "village_code": "68562",
    "village": "TAENG",
    "postal_code": "92161"
  },
  {
    "village_code": "68754",
    "village": "TETEBATU",
    "postal_code": "92161"
  },
  {
    "village_code": "68803",
    "village": "TODDOTOA",
    "postal_code": "92161"
  }
]