[
  {
    "village_code": "31459",
    "village": "BANJAREJO",
    "postal_code": "51381"
  },
  {
    "village_code": "31638",
    "village": "BEBENGAN",
    "postal_code": "51381"
  },
  {
    "village_code": "31808",
    "village": "BLIMBING",
    "postal_code": "51381"
  },
  {
    "village_code": "31858",
    "village": "BOJA",
    "postal_code": "51381"
  },
  {
    "village_code": "32154",
    "village": "CAMPUREJO",
    "postal_code": "51381"
  },
  {
    "village_code": "33809",
    "village": "KALIGADING",
    "postal_code": "51381"
  },
  {
    "village_code": "34280",
    "village": "KARANGMANGGIS",
    "postal_code": "51381"
  },
  {
    "village_code": "35114",
    "village": "KLIRIS",
    "postal_code": "51381"
  },
  {
    "village_code": "35491",
    "village": "LEBAN",
    "postal_code": "51381"
  },
  {
    "village_code": "35824",
    "village": "MEDONO",
    "postal_code": "51381"
  },
  {
    "village_code": "35905",
    "village": "METESIH",
    "postal_code": "51381"
  },
  {
    "village_code": "36114",
    "village": "NGABEAN",
    "postal_code": "51381"
  },
  {
    "village_code": "36692",
    "village": "PASIGITAN",
    "postal_code": "51381"
  },
  {
    "village_code": "37248",
    "village": "PUGUH",
    "postal_code": "51381"
  },
  {
    "village_code": "37349",
    "village": "PURWOGONDO",
    "postal_code": "51381"
  },
  {
    "village_code": "37603",
    "village": "SALAMSARI",
    "postal_code": "51381"
  },
  {
    "village_code": "38747",
    "village": "TAMPINGAN",
    "postal_code": "51381"
  },
  {
    "village_code": "39278",
    "village": "TRISOBO",
    "postal_code": "51381"
  }
]