[
  {
    "village_code": "31935",
    "village": "BOTOMULYO",
    "postal_code": "51352"
  },
  {
    "village_code": "32258",
    "village": "CEPIRING",
    "postal_code": "51352"
  },
  {
    "village_code": "32411",
    "village": "DAMARSARI",
    "postal_code": "51352"
  },
  {
    "village_code": "33028",
    "village": "GONDANG",
    "postal_code": "51352"
  },
  {
    "village_code": "33677",
    "village": "JUWIRING",
    "postal_code": "51352"
  },
  {
    "village_code": "33769",
    "village": "KALIAYU",
    "postal_code": "51352"
  },
  {
    "village_code": "33932",
    "village": "KALIRANDU GEDE",
    "postal_code": "51352"
  },
  {
    "village_code": "34152",
    "village": "KARANGAYU",
    "postal_code": "51352"
  },
  {
    "village_code": "34390",
    "village": "KARANGSUNO",
    "postal_code": "51352"
  },
  {
    "village_code": "35146",
    "village": "KOROWELANG ANYAR",
    "postal_code": "51352"
  },
  {
    "village_code": "35147",
    "village": "KOROWELANG KULON",
    "postal_code": "51352"
  },
  {
    "village_code": "35786",
    "village": "MARGOREJO",
    "postal_code": "51352"
  },
  {
    "village_code": "36579",
    "village": "PANDES",
    "postal_code": "51352"
  },
  {
    "village_code": "37095",
    "village": "PODOSARI",
    "postal_code": "51352"
  },
  {
    "village_code": "38085",
    "village": "SIDOMULYO",
    "postal_code": "51352"
  }
]