[
  {
    "village_code": "31981",
    "village": "BRINGINSARI",
    "postal_code": "51363"
  },
  {
    "village_code": "32409",
    "village": "DAMARJATI",
    "postal_code": "51363"
  },
  {
    "village_code": "32885",
    "village": "GENTING GUNUNG",
    "postal_code": "51363"
  },
  {
    "village_code": "33234",
    "village": "HARJODOWO",
    "postal_code": "51363"
  },
  {
    "village_code": "33790",
    "village": "KALIBOGOR",
    "postal_code": "51363"
  },
  {
    "village_code": "33908",
    "village": "KALIPAKIS",
    "postal_code": "51363"
  },
  {
    "village_code": "34593",
    "village": "KEBUMEN",
    "postal_code": "51363"
  },
  {
    "village_code": "36052",
    "village": "MULYOSARI",
    "postal_code": "51363"
  },
  {
    "village_code": "36156",
    "village": "NGADIWARNO",
    "postal_code": "51363"
  },
  {
    "village_code": "36208",
    "village": "NGARGOSARI",
    "postal_code": "51363"
  },
  {
    "village_code": "36935",
    "village": "PERON",
    "postal_code": "51363"
  },
  {
    "village_code": "36954",
    "village": "PESAREN",
    "postal_code": "51363"
  },
  {
    "village_code": "37333",
    "village": "PURWO SARI",
    "postal_code": "51363"
  },
  {
    "village_code": "37815",
    "village": "SELOKATON",
    "postal_code": "51363"
  },
  {
    "village_code": "38473",
    "village": "SUKOREJO",
    "postal_code": "51363"
  },
  {
    "village_code": "38675",
    "village": "TAMAN REJO",
    "postal_code": "51363"
  },
  {
    "village_code": "38746",
    "village": "TAMPING WINARNO",
    "postal_code": "51363"
  },
  {
    "village_code": "39274",
    "village": "TRIMULYO",
    "postal_code": "51363"
  }
]