[
  {
    "village_code": "32228",
    "village": "CARUBAN",
    "postal_code": "51356"
  },
  {
    "village_code": "34663",
    "village": "KEDUNGASRI",
    "postal_code": "51356"
  },
  {
    "village_code": "34678",
    "village": "KEDUNGGADING",
    "postal_code": "51356"
  },
  {
    "village_code": "35961",
    "village": "MOJO",
    "postal_code": "51356"
  },
  {
    "village_code": "36238",
    "village": "NGAWENSARI",
    "postal_code": "51356"
  },
  {
    "village_code": "36281",
    "village": "NGERJO",
    "postal_code": "51356"
  },
  {
    "village_code": "36448",
    "village": "PAGERDAWUNG",
    "postal_code": "51356"
  },
  {
    "village_code": "37376",
    "village": "PURWOREJO",
    "postal_code": "51356"
  },
  {
    "village_code": "37537",
    "village": "RINGINARUM",
    "postal_code": "51356"
  },
  {
    "village_code": "37559",
    "village": "ROWOBRANTEN",
    "postal_code": "51356"
  },
  {
    "village_code": "38977",
    "village": "TEJOREJO",
    "postal_code": "51356"
  },
  {
    "village_code": "39736",
    "village": "WUNGUREJO",
    "postal_code": "51356"
  }
]