[
  {
    "village_code": "32761",
    "village": "GEBANGANOM WETAN",
    "postal_code": "51353"
  },
  {
    "village_code": "33659",
    "village": "JUNGSEMI",
    "postal_code": "51353"
  },
  {
    "village_code": "33700",
    "village": "KADILANGU",
    "postal_code": "51353"
  },
  {
    "village_code": "33937",
    "village": "KALIREJO",
    "postal_code": "51353"
  },
  {
    "village_code": "34017",
    "village": "KALIYOSO",
    "postal_code": "51353"
  },
  {
    "village_code": "34051",
    "village": "KANGKUNG",
    "postal_code": "51353"
  },
  {
    "village_code": "34273",
    "village": "KARANGMALANG WETAN",
    "postal_code": "51353"
  },
  {
    "village_code": "35411",
    "village": "LABAN",
    "postal_code": "51353"
  },
  {
    "village_code": "35497",
    "village": "LEBOSARI",
    "postal_code": "51353"
  },
  {
    "village_code": "37498",
    "village": "REJOSARI",
    "postal_code": "51353"
  },
  {
    "village_code": "37909",
    "village": "SENDANGDAWUNG",
    "postal_code": "51353"
  },
  {
    "village_code": "37915",
    "village": "SENDANGKULON",
    "postal_code": "51353"
  },
  {
    "village_code": "38438",
    "village": "SUKODADI",
    "postal_code": "51353"
  },
  {
    "village_code": "38814",
    "village": "TANJUNGMOJO",
    "postal_code": "51353"
  },
  {
    "village_code": "39299",
    "village": "TRUKO",
    "postal_code": "51353"
  }
]