[
  {
    "village_code": "55338",
    "village": "BATU BARAT",
    "postal_code": "78853"
  },
  {
    "village_code": "55881",
    "village": "LUBUK BATU",
    "postal_code": "78853"
  },
  {
    "village_code": "55936",
    "village": "MATAN JAYA",
    "postal_code": "78853"
  },
  {
    "village_code": "55949",
    "village": "MEDAN JAYA",
    "postal_code": "78853"
  },
  {
    "village_code": "56203",
    "village": "NIPAH KUNING",
    "postal_code": "78853"
  },
  {
    "village_code": "56229",
    "village": "PADU BANJAR",
    "postal_code": "78853"
  },
  {
    "village_code": "56328",
    "village": "PEMANGKAT",
    "postal_code": "78853"
  },
  {
    "village_code": "56355",
    "village": "PENJALAAN HILIR",
    "postal_code": "78853"
  },
  {
    "village_code": "56406",
    "village": "PULAU KUMBANG",
    "postal_code": "78853"
  },
  {
    "village_code": "56440",
    "village": "RANTAU PANJANG",
    "postal_code": "78853"
  },
  {
    "village_code": "56639",
    "village": "SEI / SUNGAI MATA MATA",
    "postal_code": "78853"
  },
  {
    "village_code": "57098",
    "village": "TELUK MELANO",
    "postal_code": "78853"
  }
]