[
  {
    "village_code": "48696",
    "village": "ANGGALAN",
    "postal_code": "42356"
  },
  {
    "village_code": "48916",
    "village": "CIGOONG SELATAN",
    "postal_code": "42356"
  },
  {
    "village_code": "48917",
    "village": "CIGOONG UTARA",
    "postal_code": "42356"
  },
  {
    "village_code": "48972",
    "village": "CIKULUR",
    "postal_code": "42356"
  },
  {
    "village_code": "49109",
    "village": "CURUGPANJANG",
    "postal_code": "42356"
  },
  {
    "village_code": "49601",
    "village": "MUARADUA",
    "postal_code": "42356"
  },
  {
    "village_code": "49604",
    "village": "MUNCANGKOPONG",
    "postal_code": "42356"
  },
  {
    "village_code": "49716",
    "village": "PARAGE",
    "postal_code": "42356"
  },
  {
    "village_code": "49763",
    "village": "PASIRGINTUNG",
    "postal_code": "42356"
  },
  {
    "village_code": "50035",
    "village": "SUKADAYA",
    "postal_code": "42356"
  },
  {
    "village_code": "50037",
    "village": "SUKAHARJA",
    "postal_code": "42356"
  },
  {
    "village_code": "50109",
    "village": "SUMURBANDUNG",
    "postal_code": "42356"
  },
  {
    "village_code": "50131",
    "village": "TAMAN JAYA",
    "postal_code": "42356"
  }
]