[
  {
    "village_code": "48732",
    "village": "BANGUNMEKAR",
    "postal_code": "42371"
  },
  {
    "village_code": "48844",
    "village": "CALUNGBUNGUR",
    "postal_code": "42371"
  },
  {
    "village_code": "49087",
    "village": "CIUYAH",
    "postal_code": "42371"
  },
  {
    "village_code": "49529",
    "village": "MARAYA",
    "postal_code": "42371"
  },
  {
    "village_code": "49538",
    "village": "MARGALUYU",
    "postal_code": "42371"
  },
  {
    "village_code": "49585",
    "village": "MEKARSARI",
    "postal_code": "42371"
  },
  {
    "village_code": "49656",
    "village": "PAJA",
    "postal_code": "42371"
  },
  {
    "village_code": "49657",
    "village": "PAJAGAN",
    "postal_code": "42371"
  },
  {
    "village_code": "49731",
    "village": "PARUNGSARI",
    "postal_code": "42371"
  },
  {
    "village_code": "49891",
    "village": "SAJIRA",
    "postal_code": "42371"
  },
  {
    "village_code": "49892",
    "village": "SAJIRAMEKAR",
    "postal_code": "42371"
  },
  {
    "village_code": "49985",
    "village": "SINDANGSARI",
    "postal_code": "42371"
  },
  {
    "village_code": "50045",
    "village": "SUKAJAYA",
    "postal_code": "42371"
  },
  {
    "village_code": "50063",
    "village": "SUKAMARGA",
    "postal_code": "42371"
  },
  {
    "village_code": "50080",
    "village": "SUKARAME",
    "postal_code": "42371"
  }
]