[
  {
    "village_code": "48740",
    "village": "BANJARSARI",
    "postal_code": "42353"
  },
  {
    "village_code": "48951",
    "village": "CIKAREO",
    "postal_code": "42353"
  },
  {
    "village_code": "48990",
    "village": "CILELES",
    "postal_code": "42353"
  },
  {
    "village_code": "49018",
    "village": "CIPADANG",
    "postal_code": "42353"
  },
  {
    "village_code": "49120",
    "village": "DAROYON",
    "postal_code": "42353"
  },
  {
    "village_code": "49163",
    "village": "GUMURUH",
    "postal_code": "42353"
  },
  {
    "village_code": "49437",
    "village": "KUJANGSARI",
    "postal_code": "42353"
  },
  {
    "village_code": "49539",
    "village": "MARGAMULYA",
    "postal_code": "42353"
  },
  {
    "village_code": "49567",
    "village": "MEKARJAYA",
    "postal_code": "42353"
  },
  {
    "village_code": "49729",
    "village": "PARUNGKUJANG",
    "postal_code": "42353"
  },
  {
    "village_code": "49741",
    "village": "PASINDANGAN",
    "postal_code": "42353"
  },
  {
    "village_code": "49840",
    "village": "PRABUGANTUNGAN",
    "postal_code": "42353"
  }
]