[
  {
    "village_code": "48786",
    "village": "BENDUNGAN",
    "postal_code": "42355"
  },
  {
    "village_code": "48812",
    "village": "BOJONGJURUH",
    "postal_code": "42355"
  },
  {
    "village_code": "48881",
    "village": "CIBATURKEUSIK",
    "postal_code": "42355"
  },
  {
    "village_code": "48906",
    "village": "CIDAHU",
    "postal_code": "42355"
  },
  {
    "village_code": "48989",
    "village": "CILEGONG ILIR",
    "postal_code": "42355"
  },
  {
    "village_code": "49051",
    "village": "CIRUJI",
    "postal_code": "42355"
  },
  {
    "village_code": "49057",
    "village": "CISAMPIH",
    "postal_code": "42355"
  },
  {
    "village_code": "49175",
    "village": "GUNUNGSARI",
    "postal_code": "42355"
  },
  {
    "village_code": "49194",
    "village": "JALUPANG GIRANG",
    "postal_code": "42355"
  },
  {
    "village_code": "49256",
    "village": "KADUHAUK",
    "postal_code": "42355"
  },
  {
    "village_code": "49373",
    "village": "KERTA",
    "postal_code": "42355"
  },
  {
    "village_code": "49376",
    "village": "KERTARAHARJA",
    "postal_code": "42355"
  },
  {
    "village_code": "49378",
    "village": "KERTARAHAYU",
    "postal_code": "42355"
  },
  {
    "village_code": "49386",
    "village": "KEUSIK",
    "postal_code": "42355"
  },
  {
    "village_code": "49438",
    "village": "KUMPAY",
    "postal_code": "42355"
  },
  {
    "village_code": "49453",
    "village": "LABANJAYA",
    "postal_code": "42355"
  },
  {
    "village_code": "49473",
    "village": "LEBAKKEUSIK",
    "postal_code": "42355"
  },
  {
    "village_code": "49493",
    "village": "LEUWIIPUH",
    "postal_code": "42355"
  },
  {
    "village_code": "50135",
    "village": "TAMANSARI",
    "postal_code": "42355"
  },
  {
    "village_code": "50212",
    "village": "UMBULJAYA",
    "postal_code": "42355"
  }
]