[
  {
    "village_code": "48813",
    "village": "BOJONGKONENG",
    "postal_code": "42354"
  },
  {
    "village_code": "48832",
    "village": "BULAKAN",
    "postal_code": "42354"
  },
  {
    "village_code": "48866",
    "village": "CIAKAR",
    "postal_code": "42354"
  },
  {
    "village_code": "48904",
    "village": "CICARINGIN",
    "postal_code": "42354"
  },
  {
    "village_code": "48914",
    "village": "CIGINGGANG",
    "postal_code": "42354"
  },
  {
    "village_code": "49003",
    "village": "CIMANYANGRAY",
    "postal_code": "42354"
  },
  {
    "village_code": "49056",
    "village": "CISAMPANG",
    "postal_code": "42354"
  },
  {
    "village_code": "49167",
    "village": "GUNUNG KENCANA",
    "postal_code": "42354"
  },
  {
    "village_code": "49173",
    "village": "GUNUNGKENDENG",
    "postal_code": "42354"
  },
  {
    "village_code": "49370",
    "village": "KERAMATJAYA / KRAMATJAYA",
    "postal_code": "42354"
  },
  {
    "village_code": "50072",
    "village": "SUKANEGARA",
    "postal_code": "42354"
  },
  {
    "village_code": "50159",
    "village": "TANJUNGSARI INDAH",
    "postal_code": "42354"
  }
]