[
  {
    "village_code": "48870",
    "village": "CIAPUS",
    "postal_code": "42395"
  },
  {
    "village_code": "48886",
    "village": "CIBEUREUM",
    "postal_code": "42395"
  },
  {
    "village_code": "48927",
    "village": "CIHUJAN",
    "postal_code": "42395"
  },
  {
    "village_code": "48931",
    "village": "CIJAKU",
    "postal_code": "42395"
  },
  {
    "village_code": "48950",
    "village": "CIKARATUAN",
    "postal_code": "42395"
  },
  {
    "village_code": "49007",
    "village": "CIMEGA",
    "postal_code": "42395"
  },
  {
    "village_code": "49022",
    "village": "CIPALABUH",
    "postal_code": "42395"
  },
  {
    "village_code": "49295",
    "village": "KANDANGSAPI",
    "postal_code": "42395"
  },
  {
    "village_code": "49297",
    "village": "KAPUNDUHAN",
    "postal_code": "42395"
  },
  {
    "village_code": "49565",
    "village": "MEKARJAYA",
    "postal_code": "42395"
  },
  {
    "village_code": "50094",
    "village": "SUKASENANG",
    "postal_code": "42395"
  }
]