[
  {
    "village_code": "48949",
    "village": "CIKARANG",
    "postal_code": "42364"
  },
  {
    "village_code": "49009",
    "village": "CIMINYAK",
    "postal_code": "42364"
  },
  {
    "village_code": "49152",
    "village": "GIRIJAGABAYA",
    "postal_code": "42364"
  },
  {
    "village_code": "49193",
    "village": "JAGARAKSA",
    "postal_code": "42364"
  },
  {
    "village_code": "49309",
    "village": "KARANGCOMBONG",
    "postal_code": "42364"
  },
  {
    "village_code": "49491",
    "village": "LEUWICOO",
    "postal_code": "42364"
  },
  {
    "village_code": "49587",
    "village": "MEKARWANGI",
    "postal_code": "42364"
  },
  {
    "village_code": "49603",
    "village": "MUNCANG",
    "postal_code": "42364"
  },
  {
    "village_code": "49774",
    "village": "PASIRNANGKA",
    "postal_code": "42364"
  },
  {
    "village_code": "49987",
    "village": "SINDANGWANGI",
    "postal_code": "42364"
  },
  {
    "village_code": "50071",
    "village": "SUKANAGARA",
    "postal_code": "42364"
  },
  {
    "village_code": "50161",
    "village": "TANJUNGWANGI",
    "postal_code": "42364"
  }
]