[
  {
    "village_code": "40353",
    "village": "BAGO",
    "postal_code": "66218"
  },
  {
    "village_code": "41098",
    "village": "BOTORAN",
    "postal_code": "66213"
  },
  {
    "village_code": "42484",
    "village": "JEPUN",
    "postal_code": "66218"
  },
  {
    "village_code": "42811",
    "village": "KAMPUNGDALEM",
    "postal_code": "66212"
  },
  {
    "village_code": "43071",
    "village": "KARANGWARU",
    "postal_code": "66217"
  },
  {
    "village_code": "43135",
    "village": "KAUMAN",
    "postal_code": "66219"
  },
  {
    "village_code": "43398",
    "village": "KEDUNGSOKO",
    "postal_code": "66215"
  },
  {
    "village_code": "43504",
    "village": "KENAYAN",
    "postal_code": "66212"
  },
  {
    "village_code": "43565",
    "village": "KEPATIHAN",
    "postal_code": "66219"
  },
  {
    "village_code": "43994",
    "village": "KUTOANYAR",
    "postal_code": "66215"
  },
  {
    "village_code": "45367",
    "village": "PANGGUNGREJO",
    "postal_code": "66214"
  },
  {
    "village_code": "46578",
    "village": "SEMBUNG",
    "postal_code": "66219"
  },
  {
    "village_code": "47669",
    "village": "TAMANAN",
    "postal_code": "66217"
  },
  {
    "village_code": "48098",
    "village": "TERTEK",
    "postal_code": "66216"
  }
]