[
  {
    "village_code": "40865",
    "village": "BENDILJATI KULON",
    "postal_code": "66291"
  },
  {
    "village_code": "40866",
    "village": "BENDILJATI WETAN",
    "postal_code": "66291"
  },
  {
    "village_code": "40867",
    "village": "BENDILWUNGU",
    "postal_code": "66291"
  },
  {
    "village_code": "41192",
    "village": "BUKUR",
    "postal_code": "66291"
  },
  {
    "village_code": "41647",
    "village": "DOROAMPEL",
    "postal_code": "66291"
  },
  {
    "village_code": "42238",
    "village": "JABALSARI",
    "postal_code": "66291"
  },
  {
    "village_code": "42609",
    "village": "JUNJUNG",
    "postal_code": "66291"
  },
  {
    "village_code": "44502",
    "village": "MIRIGAMBAR",
    "postal_code": "66291"
  },
  {
    "village_code": "45789",
    "village": "PODOREJO",
    "postal_code": "66291"
  },
  {
    "village_code": "46303",
    "village": "SAMBIDOPLANG",
    "postal_code": "66291"
  },
  {
    "village_code": "46306",
    "village": "SAMBIJAJAR",
    "postal_code": "66291"
  },
  {
    "village_code": "46330",
    "village": "SAMBIROBYONG",
    "postal_code": "66291"
  },
  {
    "village_code": "47382",
    "village": "SUMBERDADI",
    "postal_code": "66291"
  },
  {
    "village_code": "47740",
    "village": "TAMBAKREJO",
    "postal_code": "66291"
  },
  {
    "village_code": "48237",
    "village": "TRENCENG",
    "postal_code": "66291"
  },
  {
    "village_code": "48438",
    "village": "WATES",
    "postal_code": "66291"
  },
  {
    "village_code": "48620",
    "village": "WONOREJO",
    "postal_code": "66291"
  }
]