[
  {
    "village_code": "71981",
    "village": "BOMBONG LAMBE",
    "postal_code": "91362"
  },
  {
    "village_code": "72009",
    "village": "BUNTU BUDA",
    "postal_code": "91362"
  },
  {
    "village_code": "72107",
    "village": "LAMBANAN",
    "postal_code": "91362"
  },
  {
    "village_code": "72165",
    "village": "MAMASA",
    "postal_code": "91362"
  },
  {
    "village_code": "72169",
    "village": "MAMBULILING",
    "postal_code": "91362"
  },
  {
    "village_code": "72189",
    "village": "MBANA SALULO",
    "postal_code": "91362"
  },
  {
    "village_code": "72219",
    "village": "OSANGO",
    "postal_code": "91362"
  },
  {
    "village_code": "72262",
    "village": "PEBASSIAN",
    "postal_code": "91362"
  },
  {
    "village_code": "72294",
    "village": "RAMBUSARATU",
    "postal_code": "91362"
  },
  {
    "village_code": "72457",
    "village": "TAUPE",
    "postal_code": "91362"
  },
  {
    "village_code": "72470",
    "village": "TONDOK BAKARU",
    "postal_code": "91362"
  }
]