[
  {
    "village_code": "40482",
    "village": "BANCER",
    "postal_code": "62165"
  },
  {
    "village_code": "41012",
    "village": "BLIMBING GEDE",
    "postal_code": "62165"
  },
  {
    "village_code": "42600",
    "village": "JUMOK",
    "postal_code": "62165"
  },
  {
    "village_code": "42757",
    "village": "KALIREJO",
    "postal_code": "62165"
  },
  {
    "village_code": "43789",
    "village": "KLEMPUN",
    "postal_code": "62165"
  },
  {
    "village_code": "44221",
    "village": "LUWIHAJI",
    "postal_code": "62165"
  },
  {
    "village_code": "44601",
    "village": "MOJOREJO",
    "postal_code": "62165"
  },
  {
    "village_code": "44818",
    "village": "NGANTI",
    "postal_code": "62165"
  },
  {
    "village_code": "44954",
    "village": "NGRAHO",
    "postal_code": "62165"
  },
  {
    "village_code": "45292",
    "village": "PANDAN",
    "postal_code": "62165"
  },
  {
    "village_code": "45504",
    "village": "PAYAMAN",
    "postal_code": "62165"
  },
  {
    "village_code": "47066",
    "village": "SUGIH WARAS",
    "postal_code": "62165"
  },
  {
    "village_code": "47335",
    "village": "SUMBERAGUNG",
    "postal_code": "62165"
  },
  {
    "village_code": "47359",
    "village": "SUMBERARUM",
    "postal_code": "62165"
  },
  {
    "village_code": "47815",
    "village": "TANGGUNGAN",
    "postal_code": "62165"
  },
  {
    "village_code": "47888",
    "village": "TAPELAN",
    "postal_code": "62165"
  }
]