[
  {
    "village_code": "40619",
    "village": "BANJARJO",
    "postal_code": "62162"
  },
  {
    "village_code": "41397",
    "village": "CENDONO",
    "postal_code": "62162"
  },
  {
    "village_code": "41590",
    "village": "DENGOK",
    "postal_code": "62162"
  },
  {
    "village_code": "43234",
    "village": "KEBUNAGUNG",
    "postal_code": "62162"
  },
  {
    "village_code": "43530",
    "village": "KENDUNG",
    "postal_code": "62162"
  },
  {
    "village_code": "43966",
    "village": "KUNCEN",
    "postal_code": "62162"
  },
  {
    "village_code": "44841",
    "village": "NGASINAN",
    "postal_code": "62162"
  },
  {
    "village_code": "44880",
    "village": "NGEPER",
    "postal_code": "62162"
  },
  {
    "village_code": "44952",
    "village": "NGRADIN",
    "postal_code": "62162"
  },
  {
    "village_code": "45012",
    "village": "NGUKEN",
    "postal_code": "62162"
  },
  {
    "village_code": "45116",
    "village": "PADANGAN",
    "postal_code": "62162"
  },
  {
    "village_code": "45889",
    "village": "PRANGI",
    "postal_code": "62162"
  },
  {
    "village_code": "46055",
    "village": "PURWOREJO",
    "postal_code": "62162"
  },
  {
    "village_code": "46825",
    "village": "SIDOREJO",
    "postal_code": "62162"
  },
  {
    "village_code": "47003",
    "village": "SONOREJO",
    "postal_code": "62162"
  },
  {
    "village_code": "47938",
    "village": "TEBON",
    "postal_code": "62162"
  }
]