[
  {
    "village_code": "40643",
    "village": "BANJARSARI",
    "postal_code": "62155"
  },
  {
    "village_code": "42220",
    "village": "GUYANGAN",
    "postal_code": "62155"
  },
  {
    "village_code": "42827",
    "village": "KANDANGAN",
    "postal_code": "62155"
  },
  {
    "village_code": "42846",
    "village": "KANTEN",
    "postal_code": "62155"
  },
  {
    "village_code": "44645",
    "village": "MORI",
    "postal_code": "62155"
  },
  {
    "village_code": "45113",
    "village": "PADANG",
    "postal_code": "62155"
  },
  {
    "village_code": "45160",
    "village": "PAGERWESI",
    "postal_code": "62155"
  },
  {
    "village_code": "47022",
    "village": "SRANAK",
    "postal_code": "62155"
  },
  {
    "village_code": "47251",
    "village": "SUMBANG TIMUN",
    "postal_code": "62155"
  },
  {
    "village_code": "47489",
    "village": "SUMBERREJO",
    "postal_code": "62191"
  },
  {
    "village_code": "39296",
    "village": "TRUCUK",
    "postal_code": "62155"
  },
  {
    "village_code": "48298",
    "village": "TULUNGREJO",
    "postal_code": "62155"
  }
]