[
  {
    "village_code": "40826",
    "village": "BEGADON",
    "postal_code": "62154"
  },
  {
    "village_code": "40831",
    "village": "BEGED",
    "postal_code": "62152"
  },
  {
    "village_code": "41084",
    "village": "BONOREJO",
    "postal_code": "62154"
  },
  {
    "village_code": "41102",
    "village": "BRABOWAN",
    "postal_code": "62154"
  },
  {
    "village_code": "41406",
    "village": "CENGUNGKLUNG",
    "postal_code": "62152"
  },
  {
    "village_code": "41855",
    "village": "GAYAM",
    "postal_code": "62154"
  },
  {
    "village_code": "43115",
    "village": "KATUR",
    "postal_code": "62152"
  },
  {
    "village_code": "44347",
    "village": "MANUKAN",
    "postal_code": "62152"
  },
  {
    "village_code": "44553",
    "village": "MOJODELIK",
    "postal_code": "62154"
  },
  {
    "village_code": "44953",
    "village": "NGRAHO",
    "postal_code": "62152"
  },
  {
    "village_code": "46232",
    "village": "RINGINTUNGGAL",
    "postal_code": "62154"
  },
  {
    "village_code": "47060",
    "village": "SUDU",
    "postal_code": "62152"
  }
]