[
  {
    "village_code": "41639",
    "village": "DONAN",
    "postal_code": "62161"
  },
  {
    "village_code": "41836",
    "village": "GAPLUK",
    "postal_code": "62161"
  },
  {
    "village_code": "42733",
    "village": "KALIOMBO",
    "postal_code": "62161"
  },
  {
    "village_code": "43974",
    "village": "KUNIRAN",
    "postal_code": "62161"
  },
  {
    "village_code": "44979",
    "village": "NGREJENG",
    "postal_code": "62161"
  },
  {
    "village_code": "45568",
    "village": "PELEM",
    "postal_code": "62161"
  },
  {
    "village_code": "45819",
    "village": "POJOK",
    "postal_code": "62161"
  },
  {
    "village_code": "46004",
    "village": "PUNGGUR",
    "postal_code": "62161"
  },
  {
    "village_code": "46065",
    "village": "PURWOSARI",
    "postal_code": "62161"
  },
  {
    "village_code": "46447",
    "village": "SEDAHKIDUL",
    "postal_code": "62161"
  },
  {
    "village_code": "48118",
    "village": "TINUMPUK",
    "postal_code": "62161"
  },
  {
    "village_code": "48148",
    "village": "TLATAH",
    "postal_code": "62161"
  }
]