[
  {
    "village_code": "60792",
    "village": "ARGO MULYO",
    "postal_code": "76147"
  },
  {
    "village_code": "60867",
    "village": "BINUANG",
    "postal_code": "76147"
  },
  {
    "village_code": "60890",
    "village": "BUKIT RAYA (SEPAKU I)",
    "postal_code": "76147"
  },
  {
    "village_code": "60899",
    "village": "BUMI HARAPAN",
    "postal_code": "76147"
  },
  {
    "village_code": "61034",
    "village": "KARANG JINAWI",
    "postal_code": "76148"
  },
  {
    "village_code": "61255",
    "village": "MARIDAN",
    "postal_code": "76146"
  },
  {
    "village_code": "61283",
    "village": "MENTAWIR",
    "postal_code": "76149"
  },
  {
    "village_code": "61418",
    "village": "PEMALUAN",
    "postal_code": "76147"
  },
  {
    "village_code": "61585",
    "village": "SEMOI II",
    "postal_code": "76147"
  },
  {
    "village_code": "61602",
    "village": "SEPAKU",
    "postal_code": "76148"
  },
  {
    "village_code": "61650",
    "village": "SUKARAJA (SEPAKU II)",
    "postal_code": "76147"
  },
  {
    "village_code": "61653",
    "village": "SUKO MULYO",
    "postal_code": "76147"
  },
  {
    "village_code": "61728",
    "village": "TELEMOW",
    "postal_code": "76147"
  },
  {
    "village_code": "61751",
    "village": "TENGIN BARU (SEPAKU III)",
    "postal_code": "76147"
  },
  {
    "village_code": "61795",
    "village": "WONOSARI",
    "postal_code": "76147"
  }
]