[
  {
    "village_code": "69029",
    "village": "ABUKI",
    "postal_code": "93452"
  },
  {
    "village_code": "69053",
    "village": "ALEUTI",
    "postal_code": "93452"
  },
  {
    "village_code": "69059",
    "village": "ALOSIKA",
    "postal_code": "93452"
  },
  {
    "village_code": "69148",
    "village": "ARUBIA",
    "postal_code": "93452"
  },
  {
    "village_code": "69161",
    "village": "ASOLU",
    "postal_code": "93452"
  },
  {
    "village_code": "69166",
    "village": "ATODOPOI",
    "postal_code": "93452"
  },
  {
    "village_code": "69388",
    "village": "EPEEYA",
    "postal_code": "93452"
  },
  {
    "village_code": "69394",
    "village": "GARUDA",
    "postal_code": "93452"
  },
  {
    "village_code": "69528",
    "village": "KASUWURA INDAH",
    "postal_code": "93452"
  },
  {
    "village_code": "69601",
    "village": "KUMAPO",
    "postal_code": "93452"
  },
  {
    "village_code": "69831",
    "village": "LANGGEA",
    "postal_code": "93452"
  },
  {
    "village_code": "70108",
    "village": "MATANGGORAI",
    "postal_code": "93452"
  },
  {
    "village_code": "70135",
    "village": "MEKARJAYA",
    "postal_code": "93452"
  },
  {
    "village_code": "70263",
    "village": "PADANG MEKAR",
    "postal_code": "93452"
  },
  {
    "village_code": "70265",
    "village": "PADANGGUNI",
    "postal_code": "93452"
  },
  {
    "village_code": "70264",
    "village": "PADANGGUNI UTAMA",
    "postal_code": "93452"
  },
  {
    "village_code": "70405",
    "village": "PUNGGALUKU",
    "postal_code": "93452"
  },
  {
    "village_code": "70549",
    "village": "SAMBAOSU",
    "postal_code": "93452"
  },
  {
    "village_code": "70551",
    "village": "SAMBEANI",
    "postal_code": "93452"
  },
  {
    "village_code": "70945",
    "village": "WALAY",
    "postal_code": "93452"
  }
]