[
  {
    "village_code": "69039",
    "village": "AHUAWALI",
    "postal_code": "93464"
  },
  {
    "village_code": "69721",
    "village": "LALONGGATU",
    "postal_code": "93464"
  },
  {
    "village_code": "69729",
    "village": "LALOONAHA",
    "postal_code": "93464"
  },
  {
    "village_code": "70147",
    "village": "MOKALELEO",
    "postal_code": "93464"
  },
  {
    "village_code": "70343",
    "village": "POANAHA (PUANAHA)",
    "postal_code": "93411"
  },
  {
    "village_code": "70417",
    "village": "PURIALA",
    "postal_code": "93464"
  },
  {
    "village_code": "70434",
    "village": "PUUHOPA",
    "postal_code": "93464"
  },
  {
    "village_code": "70460",
    "village": "PUUSANGI",
    "postal_code": "93464"
  },
  {
    "village_code": "70617",
    "village": "SONAI",
    "postal_code": "93464"
  },
  {
    "village_code": "70740",
    "village": "TETEHAKA",
    "postal_code": "93464"
  },
  {
    "village_code": "70749",
    "village": "TETEWARU",
    "postal_code": "93464"
  },
  {
    "village_code": "70894",
    "village": "UNGGULINO",
    "postal_code": "93464"
  },
  {
    "village_code": "71045",
    "village": "WATUNDEHOA (WATANDEHOA)",
    "postal_code": "93464"
  },
  {
    "village_code": "71053",
    "village": "WATUSA",
    "postal_code": "93464"
  },
  {
    "village_code": "71095",
    "village": "WAWOSANGGULA",
    "postal_code": "93464"
  },
  {
    "village_code": "71135",
    "village": "WONUA / WANUA MOROME",
    "postal_code": "93464"
  }
]