[
  {
    "village_code": "69040",
    "village": "AHUAWATU",
    "postal_code": "93463"
  },
  {
    "village_code": "69078",
    "village": "AMBULANU",
    "postal_code": "93463"
  },
  {
    "village_code": "69081",
    "village": "AMESIU",
    "postal_code": "93463"
  },
  {
    "village_code": "69273",
    "village": "BELATU",
    "postal_code": "93463"
  },
  {
    "village_code": "69417",
    "village": "HONGOA",
    "postal_code": "93463"
  },
  {
    "village_code": "69662",
    "village": "LAHONGGUMBI",
    "postal_code": "93463"
  },
  {
    "village_code": "70197",
    "village": "MUMUNDOWU",
    "postal_code": "93463"
  },
  {
    "village_code": "70368",
    "village": "PONDIDAHA",
    "postal_code": "93463"
  },
  {
    "village_code": "70439",
    "village": "PUUMBINISI",
    "postal_code": "93463"
  },
  {
    "village_code": "70769",
    "village": "TIRAWUTA",
    "postal_code": "93463"
  },
  {
    "village_code": "71073",
    "village": "WAWOLEMO",
    "postal_code": "93463"
  },
  {
    "village_code": "71130",
    "village": "WONUA MONAPA",
    "postal_code": "93463"
  }
]