[
  {
    "village_code": "69056",
    "village": "ALO-OLOHO",
    "postal_code": "93464"
  },
  {
    "village_code": "69061",
    "village": "AMAROA",
    "postal_code": "93464"
  },
  {
    "village_code": "69080",
    "village": "AMERORO",
    "postal_code": "93464"
  },
  {
    "village_code": "69136",
    "village": "ANGGOPIU",
    "postal_code": "93464"
  },
  {
    "village_code": "69246",
    "village": "BARUGA",
    "postal_code": "93464"
  },
  {
    "village_code": "69836",
    "village": "LANGGOMEA",
    "postal_code": "93464"
  },
  {
    "village_code": "70087",
    "village": "MATAHOALU",
    "postal_code": "93464"
  },
  {
    "village_code": "70517",
    "village": "RAWUA",
    "postal_code": "93464"
  },
  {
    "village_code": "70710",
    "village": "TAWAMELEWE",
    "postal_code": "93464"
  },
  {
    "village_code": "70716",
    "village": "TAWAROTEBOTA",
    "postal_code": "93464"
  },
  {
    "village_code": "70861",
    "village": "UEPAI",
    "postal_code": "93464"
  }
]