[
  {
    "village_code": "69068",
    "village": "AMBERI",
    "postal_code": "93464"
  },
  {
    "village_code": "69149",
    "village": "ASAKI (ISAKI)",
    "postal_code": "93464"
  },
  {
    "village_code": "69181",
    "village": "AWULITI (WAWULITI)",
    "postal_code": "93464"
  },
  {
    "village_code": "69772",
    "village": "LAMBUYA",
    "postal_code": "93464"
  },
  {
    "village_code": "70141",
    "village": "MERAKA",
    "postal_code": "93464"
  },
  {
    "village_code": "70680",
    "village": "TANGGOBU",
    "postal_code": "93464"
  },
  {
    "village_code": "70743",
    "village": "TETEMBOMUA",
    "postal_code": "93464"
  },
  {
    "village_code": "70870",
    "village": "ULU MERAKA (SUKAMAJU)",
    "postal_code": "93464"
  },
  {
    "village_code": "70986",
    "village": "WANUAHOA",
    "postal_code": "93464"
  },
  {
    "village_code": "71012",
    "village": "WATAREMA",
    "postal_code": "93464"
  },
  {
    "village_code": "71087",
    "village": "WAWORAHA",
    "postal_code": "93464"
  }
]