[
  {
    "village_code": "69075",
    "village": "AMBOPI",
    "postal_code": "93461"
  },
  {
    "village_code": "69109",
    "village": "ANDALAMBE",
    "postal_code": "93461"
  },
  {
    "village_code": "69113",
    "village": "ANDEPOSUNDE",
    "postal_code": "93461"
  },
  {
    "village_code": "69132",
    "village": "ANGGOHU",
    "postal_code": "93461"
  },
  {
    "village_code": "69151",
    "village": "ASAO",
    "postal_code": "93461"
  },
  {
    "village_code": "69244",
    "village": "BAROWILA",
    "postal_code": "93461"
  },
  {
    "village_code": "69727",
    "village": "LALONGGOWUNA",
    "postal_code": "93461"
  },
  {
    "village_code": "70072",
    "village": "MATA IWOI",
    "postal_code": "93461"
  },
  {
    "village_code": "70132",
    "village": "MEKAR SARI",
    "postal_code": "93461"
  },
  {
    "village_code": "70165",
    "village": "MOMEA",
    "postal_code": "93461"
  },
  {
    "village_code": "70240",
    "village": "OLUA AO",
    "postal_code": "93461"
  },
  {
    "village_code": "70415",
    "village": "PUOSU",
    "postal_code": "93461"
  },
  {
    "village_code": "70447",
    "village": "PUUNDOPI",
    "postal_code": "93461"
  },
  {
    "village_code": "70571",
    "village": "SANUANGGAMO",
    "postal_code": "93461"
  },
  {
    "village_code": "70591",
    "village": "SENDANG MULYA SARI",
    "postal_code": "93461"
  },
  {
    "village_code": "70820",
    "village": "TONGAUNA",
    "postal_code": "93461"
  },
  {
    "village_code": "71093",
    "village": "WAWORODA JAYA",
    "postal_code": "93461"
  }
]