[
  {
    "village_code": "69097",
    "village": "AMOSILU",
    "postal_code": "93354"
  },
  {
    "village_code": "69117",
    "village": "ANDOMESINGGO",
    "postal_code": "93354"
  },
  {
    "village_code": "69162",
    "village": "ASUNDE",
    "postal_code": "93354"
  },
  {
    "village_code": "69290",
    "village": "BESULUTU",
    "postal_code": "93354"
  },
  {
    "village_code": "69619",
    "village": "LABELA",
    "postal_code": "93354"
  },
  {
    "village_code": "69734",
    "village": "LALOUMERA",
    "postal_code": "93354"
  },
  {
    "village_code": "69945",
    "village": "LAWONUA",
    "postal_code": "93354"
  },
  {
    "village_code": "70246",
    "village": "ONEMBUTE",
    "postal_code": "93354"
  },
  {
    "village_code": "70406",
    "village": "PUNGGALUKU",
    "postal_code": "93354"
  },
  {
    "village_code": "70445",
    "village": "PUUNDOHO",
    "postal_code": "93354"
  },
  {
    "village_code": "70498",
    "village": "RANOMOLUA",
    "postal_code": "93354"
  },
  {
    "village_code": "70598",
    "village": "SILEA",
    "postal_code": "93354"
  },
  {
    "village_code": "70883",
    "village": "ULUPOHARA",
    "postal_code": "93354"
  }
]