[
  {
    "village_code": "69193",
    "village": "BAHO BUBU",
    "postal_code": "93393"
  },
  {
    "village_code": "69233",
    "village": "BANGUN MEKAR",
    "postal_code": "93393"
  },
  {
    "village_code": "69369",
    "village": "DIMBA",
    "postal_code": "93393"
  },
  {
    "village_code": "69644",
    "village": "LADIANTA",
    "postal_code": "93393"
  },
  {
    "village_code": "70069",
    "village": "MATA DIMBA",
    "postal_code": "93393"
  },
  {
    "village_code": "70085",
    "village": "MATABUBU",
    "postal_code": "93393"
  },
  {
    "village_code": "70225",
    "village": "NOKO",
    "postal_code": "93393"
  },
  {
    "village_code": "70309",
    "village": "PATANDE",
    "postal_code": "93393"
  },
  {
    "village_code": "70454",
    "village": "PUURAU",
    "postal_code": "93393"
  },
  {
    "village_code": "70683",
    "village": "TANGKOMBUNO",
    "postal_code": "93393"
  },
  {
    "village_code": "71049",
    "village": "WATUONDE",
    "postal_code": "93393"
  }
]