[
  {
    "village_code": "69372",
    "village": "DOMPO-DOMPO JAYA",
    "postal_code": "93393"
  },
  {
    "village_code": "70062",
    "village": "MASOLO",
    "postal_code": "93393"
  },
  {
    "village_code": "70200",
    "village": "NAMBO JAYA",
    "postal_code": "93393"
  },
  {
    "village_code": "70351",
    "village": "POLARA",
    "postal_code": "93393"
  },
  {
    "village_code": "70522",
    "village": "ROKO ROKO",
    "postal_code": "93393"
  },
  {
    "village_code": "70537",
    "village": "SAINOA INDAH",
    "postal_code": "93393"
  },
  {
    "village_code": "70538",
    "village": "SAINOA JAYA",
    "postal_code": "93393"
  },
  {
    "village_code": "70606",
    "village": "SINAALU JAYA",
    "postal_code": "93393"
  },
  {
    "village_code": "70607",
    "village": "SINAR MASOLO",
    "postal_code": "93393"
  },
  {
    "village_code": "70629",
    "village": "SUKARELA JAYA",
    "postal_code": "93393"
  },
  {
    "village_code": "70729",
    "village": "TEPAROKO",
    "postal_code": "93393"
  },
  {
    "village_code": "70811",
    "village": "TONDONGGITO",
    "postal_code": "93393"
  },
  {
    "village_code": "71161",
    "village": "WUNSE JAYA",
    "postal_code": "93393"
  }
]