[
  {
    "village_code": "69376",
    "village": "DONGKALAEA",
    "postal_code": "93393"
  },
  {
    "village_code": "69618",
    "village": "LABEAU",
    "postal_code": "93393"
  },
  {
    "village_code": "69624",
    "village": "LABISA",
    "postal_code": "93393"
  },
  {
    "village_code": "69851",
    "village": "LANSILOWO",
    "postal_code": "93393"
  },
  {
    "village_code": "70068",
    "village": "MATA BURANGA",
    "postal_code": "93393"
  },
  {
    "village_code": "70086",
    "village": "MATABUBU",
    "postal_code": "93393"
  },
  {
    "village_code": "70098",
    "village": "MATAIWOI",
    "postal_code": "93393"
  },
  {
    "village_code": "70120",
    "village": "MAWA",
    "postal_code": "93393"
  },
  {
    "village_code": "70282",
    "village": "PALINGI",
    "postal_code": "93393"
  },
  {
    "village_code": "70281",
    "village": "PALINGI BARAT",
    "postal_code": "93393"
  },
  {
    "village_code": "70655",
    "village": "TAMBAONE",
    "postal_code": "93393"
  },
  {
    "village_code": "70654",
    "village": "TAMBAONE UTAMA",
    "postal_code": "93393"
  },
  {
    "village_code": "70853",
    "village": "TUMBURANO",
    "postal_code": "93393"
  },
  {
    "village_code": "71063",
    "village": "WAWOBEAU",
    "postal_code": "93393"
  },
  {
    "village_code": "71068",
    "village": "WAWOEA",
    "postal_code": "93393"
  },
  {
    "village_code": "71094",
    "village": "WAWOROPE",
    "postal_code": "93393"
  }
]