[
  {
    "village_code": "69501",
    "village": "KAPOIALA",
    "postal_code": "93354"
  },
  {
    "village_code": "69500",
    "village": "KAPOIALA BARU",
    "postal_code": "93354"
  },
  {
    "village_code": "69629",
    "village": "LABOTOY",
    "postal_code": "93354"
  },
  {
    "village_code": "69702",
    "village": "LALIMBUE",
    "postal_code": "93354"
  },
  {
    "village_code": "69701",
    "village": "LALIMBUE JAYA",
    "postal_code": "93354"
  },
  {
    "village_code": "69725",
    "village": "LALONGGOMBUNO",
    "postal_code": "93354"
  },
  {
    "village_code": "69778",
    "village": "LAMENDORA",
    "postal_code": "93354"
  },
  {
    "village_code": "70192",
    "village": "MUARA SAMPARA",
    "postal_code": "93354"
  },
  {
    "village_code": "70331",
    "village": "PEREOE",
    "postal_code": "93354"
  },
  {
    "village_code": "70550",
    "village": "SAMBARAASI",
    "postal_code": "93354"
  },
  {
    "village_code": "70685",
    "village": "TANI INDAH",
    "postal_code": "93354"
  },
  {
    "village_code": "70804",
    "village": "TOMBAWATU",
    "postal_code": "93354"
  },
  {
    "village_code": "70868",
    "village": "ULU LALIMBUE",
    "postal_code": "93354"
  }
]