[
  {
    "village_code": "31402",
    "village": "BANDUNGROJO",
    "postal_code": "58254"
  },
  {
    "village_code": "31736",
    "village": "BERBAK",
    "postal_code": "58254"
  },
  {
    "village_code": "31740",
    "village": "BERGOLO",
    "postal_code": "58254"
  },
  {
    "village_code": "31857",
    "village": "BOGOWANTI",
    "postal_code": "58254"
  },
  {
    "village_code": "31948",
    "village": "BRADAG",
    "postal_code": "58254"
  },
  {
    "village_code": "32786",
    "village": "GEDEBEG",
    "postal_code": "58254"
  },
  {
    "village_code": "33034",
    "village": "GONDANG",
    "postal_code": "58254"
  },
  {
    "village_code": "33070",
    "village": "GOTPUTUK",
    "postal_code": "58254"
  },
  {
    "village_code": "33526",
    "village": "JETAKWANGER",
    "postal_code": "58254"
  },
  {
    "village_code": "34235",
    "village": "KARANGJONG",
    "postal_code": "58254"
  },
  {
    "village_code": "34415",
    "village": "KARANGTENGAH",
    "postal_code": "58254"
  },
  {
    "village_code": "34731",
    "village": "KEDUNGSATRIYAN",
    "postal_code": "58254"
  },
  {
    "village_code": "34893",
    "village": "KENDAYAAN",
    "postal_code": "58254"
  },
  {
    "village_code": "36234",
    "village": "NGAWEN",
    "postal_code": "58254"
  },
  {
    "village_code": "37077",
    "village": "PLUMBON",
    "postal_code": "58254"
  },
  {
    "village_code": "37300",
    "village": "PUNGGURSUGIH",
    "postal_code": "58254"
  },
  {
    "village_code": "37560",
    "village": "ROWOBUNGKUL",
    "postal_code": "58254"
  },
  {
    "village_code": "37652",
    "village": "SAMBONGANYAR",
    "postal_code": "58254"
  },
  {
    "village_code": "37655",
    "village": "SAMBONGREJO",
    "postal_code": "58254"
  },
  {
    "village_code": "37718",
    "village": "SARIMULYO",
    "postal_code": "58254"
  },
  {
    "village_code": "37853",
    "village": "SEMAWUR",
    "postal_code": "58254"
  },
  {
    "village_code": "37903",
    "village": "SENDANGAGUNG",
    "postal_code": "58254"
  },
  {
    "village_code": "37919",
    "village": "SENDANGMULYO",
    "postal_code": "58254"
  },
  {
    "village_code": "37928",
    "village": "SENDANGREJO",
    "postal_code": "58254"
  },
  {
    "village_code": "38373",
    "village": "SRIGADING",
    "postal_code": "58254"
  },
  {
    "village_code": "38538",
    "village": "SUMBEREJO",
    "postal_code": "58254"
  },
  {
    "village_code": "38668",
    "village": "TALOKWOHMOJO",
    "postal_code": "58254"
  },
  {
    "village_code": "39254",
    "village": "TREMBULREJO",
    "postal_code": "58254"
  },
  {
    "village_code": "39452",
    "village": "WANTILGUNG",
    "postal_code": "58254"
  }
]