[
  {
    "village_code": "31642",
    "village": "BEDINGIN",
    "postal_code": "58256"
  },
  {
    "village_code": "31761",
    "village": "BICAK",
    "postal_code": "58256"
  },
  {
    "village_code": "32171",
    "village": "CANDI",
    "postal_code": "58256"
  },
  {
    "village_code": "32366",
    "village": "COKROWATI",
    "postal_code": "58256"
  },
  {
    "village_code": "32402",
    "village": "DALANGAN",
    "postal_code": "58256"
  },
  {
    "village_code": "32590",
    "village": "DRINGO",
    "postal_code": "58256"
  },
  {
    "village_code": "33058",
    "village": "GONDORIYO",
    "postal_code": "58256"
  },
  {
    "village_code": "33174",
    "village": "GUNUNGAN",
    "postal_code": "58256"
  },
  {
    "village_code": "33692",
    "village": "KACANGAN",
    "postal_code": "58256"
  },
  {
    "village_code": "33735",
    "village": "KAJENGAN",
    "postal_code": "58256"
  },
  {
    "village_code": "34129",
    "village": "KARANGANYAR",
    "postal_code": "58256"
  },
  {
    "village_code": "34664",
    "village": "KEDUNGBACIN",
    "postal_code": "58256"
  },
  {
    "village_code": "34766",
    "village": "KEDUNGWUNGU",
    "postal_code": "58256"
  },
  {
    "village_code": "34809",
    "village": "KEMBANG",
    "postal_code": "58256"
  },
  {
    "village_code": "35031",
    "village": "KETILENG",
    "postal_code": "58256"
  },
  {
    "village_code": "35501",
    "village": "LEDOK",
    "postal_code": "58256"
  },
  {
    "village_code": "36354",
    "village": "NGUMBUL",
    "postal_code": "58256"
  },
  {
    "village_code": "36840",
    "village": "PELEMSENGIR",
    "postal_code": "58256"
  },
  {
    "village_code": "37191",
    "village": "PRIGI",
    "postal_code": "58256"
  },
  {
    "village_code": "37621",
    "village": "SAMBENG",
    "postal_code": "58256"
  },
  {
    "village_code": "37898",
    "village": "SENDANG",
    "postal_code": "58256"
  },
  {
    "village_code": "38346",
    "village": "SONOKULON",
    "postal_code": "58256"
  },
  {
    "village_code": "39105",
    "village": "TINAPAN",
    "postal_code": "58256"
  },
  {
    "village_code": "39213",
    "village": "TODANAN",
    "postal_code": "58256"
  },
  {
    "village_code": "39730",
    "village": "WUKIRSARI",
    "postal_code": "58256"
  }
]