[
  {
    "village_code": "31851",
    "village": "BOGOREJO",
    "postal_code": "58262"
  },
  {
    "village_code": "32720",
    "village": "GANDU",
    "postal_code": "58262"
  },
  {
    "village_code": "32747",
    "village": "GAYAM",
    "postal_code": "58262"
  },
  {
    "village_code": "32826",
    "village": "GEMBOL",
    "postal_code": "58262"
  },
  {
    "village_code": "33018",
    "village": "GOMBANG",
    "postal_code": "58262"
  },
  {
    "village_code": "33500",
    "village": "JERUK",
    "postal_code": "58262"
  },
  {
    "village_code": "33666",
    "village": "JURANGJERO",
    "postal_code": "58262"
  },
  {
    "village_code": "34088",
    "village": "KARANG",
    "postal_code": "58262"
  },
  {
    "village_code": "34105",
    "village": "KARANGANYAR",
    "postal_code": "58262"
  },
  {
    "village_code": "36306",
    "village": "NGLENGKIR",
    "postal_code": "58262"
  },
  {
    "village_code": "37169",
    "village": "PRANTAAN",
    "postal_code": "58262"
  },
  {
    "village_code": "37722",
    "village": "SARIREJO",
    "postal_code": "58262"
  },
  {
    "village_code": "37925",
    "village": "SENDANGREJO",
    "postal_code": "58262"
  },
  {
    "village_code": "39027",
    "village": "TEMPUREJO",
    "postal_code": "58262"
  }
]