[
  {
    "village_code": "31280",
    "village": "BAGELEN",
    "postal_code": "54174"
  },
  {
    "village_code": "31578",
    "village": "BAPANGSARI",
    "postal_code": "54174"
  },
  {
    "village_code": "32012",
    "village": "BUGEL",
    "postal_code": "54174"
  },
  {
    "village_code": "32354",
    "village": "CLAPAR",
    "postal_code": "54174"
  },
  {
    "village_code": "32396",
    "village": "DADIREJO",
    "postal_code": "54174"
  },
  {
    "village_code": "32648",
    "village": "DURENSARI",
    "postal_code": "54174"
  },
  {
    "village_code": "33229",
    "village": "HARGOROJO",
    "postal_code": "54174"
  },
  {
    "village_code": "33934",
    "village": "KALIREJO",
    "postal_code": "54174"
  },
  {
    "village_code": "34798",
    "village": "KEMANUKAN",
    "postal_code": "54174"
  },
  {
    "village_code": "35243",
    "village": "KRENDETAN",
    "postal_code": "54174"
  },
  {
    "village_code": "36996",
    "village": "PIJI",
    "postal_code": "54174"
  },
  {
    "village_code": "37834",
    "village": "SEMAGUNG",
    "postal_code": "54174"
  },
  {
    "village_code": "37880",
    "village": "SEMONO",
    "postal_code": "54174"
  },
  {
    "village_code": "38304",
    "village": "SOKO",
    "postal_code": "54174"
  },
  {
    "village_code": "38309",
    "village": "SOKOAGUNG",
    "postal_code": "54174"
  },
  {
    "village_code": "38334",
    "village": "SOMOREJO",
    "postal_code": "54174"
  },
  {
    "village_code": "39166",
    "village": "TLOGOKOTES",
    "postal_code": "54174"
  }
]