[
  {
    "village_code": "31384",
    "village": "BANDUNG KIDUL",
    "postal_code": "54224"
  },
  {
    "village_code": "31397",
    "village": "BANDUNGREJO",
    "postal_code": "54222"
  },
  {
    "village_code": "31458",
    "village": "BANJAREJO",
    "postal_code": "54224"
  },
  {
    "village_code": "31634",
    "village": "BAYAN",
    "postal_code": "54224"
  },
  {
    "village_code": "31755",
    "village": "BESOLE",
    "postal_code": "54223"
  },
  {
    "village_code": "31927",
    "village": "BOTO DALEMAN",
    "postal_code": "54224"
  },
  {
    "village_code": "31938",
    "village": "BOTOREJO",
    "postal_code": "54224"
  },
  {
    "village_code": "31975",
    "village": "BRINGIN",
    "postal_code": "54224"
  },
  {
    "village_code": "32522",
    "village": "DEWI",
    "postal_code": "54224"
  },
  {
    "village_code": "32624",
    "village": "DUKUHREJO",
    "postal_code": "54224"
  },
  {
    "village_code": "33079",
    "village": "GRANTUNG",
    "postal_code": "54224"
  },
  {
    "village_code": "33377",
    "village": "JATINGARANG",
    "postal_code": "54224"
  },
  {
    "village_code": "33628",
    "village": "JONO",
    "postal_code": "54224"
  },
  {
    "village_code": "33642",
    "village": "JRAKAH",
    "postal_code": "54224"
  },
  {
    "village_code": "33892",
    "village": "KALIMIRU",
    "postal_code": "54224"
  },
  {
    "village_code": "35041",
    "village": "KETIWIJAYAN",
    "postal_code": "54224"
  },
  {
    "village_code": "35203",
    "village": "KRANDEGAN",
    "postal_code": "54224"
  },
  {
    "village_code": "36823",
    "village": "PEKUTAN",
    "postal_code": "54224"
  },
  {
    "village_code": "37102",
    "village": "POGUNG JURU TENGAH",
    "postal_code": "54224"
  },
  {
    "village_code": "37104",
    "village": "POGUNGKALANGAN",
    "postal_code": "54224"
  },
  {
    "village_code": "37105",
    "village": "POGUNGREJO",
    "postal_code": "54224"
  },
  {
    "village_code": "37218",
    "village": "PUCANG AGUNG",
    "postal_code": "54224"
  },
  {
    "village_code": "37617",
    "village": "SAMBENG",
    "postal_code": "54224"
  },
  {
    "village_code": "38404",
    "village": "SUCENJURU TENGAH",
    "postal_code": "54224"
  },
  {
    "village_code": "38779",
    "village": "TANGKISAN",
    "postal_code": "54224"
  },
  {
    "village_code": "38815",
    "village": "TANJUNGREJO",
    "postal_code": "54224"
  }
]