[
  {
    "village_code": "32557",
    "village": "DONOREJO",
    "postal_code": "54175"
  },
  {
    "village_code": "33205",
    "village": "GUNUNGWANGI",
    "postal_code": "54175"
  },
  {
    "village_code": "33226",
    "village": "HARDIMULYO",
    "postal_code": "54175"
  },
  {
    "village_code": "33247",
    "village": "HULOSOBO",
    "postal_code": "54175"
  },
  {
    "village_code": "33398",
    "village": "JATIREJO",
    "postal_code": "54175"
  },
  {
    "village_code": "33456",
    "village": "JELOK",
    "postal_code": "54175"
  },
  {
    "village_code": "33829",
    "village": "KALIGONO",
    "postal_code": "54175"
  },
  {
    "village_code": "33833",
    "village": "KALIHARJO",
    "postal_code": "54175"
  },
  {
    "village_code": "34682",
    "village": "KEDUNGGUBAH",
    "postal_code": "54175"
  },
  {
    "village_code": "36139",
    "village": "NGADIREJO",
    "postal_code": "54175"
  },
  {
    "village_code": "36191",
    "village": "NGARAN",
    "postal_code": "54175"
  },
  {
    "village_code": "36564",
    "village": "PANDANREJO",
    "postal_code": "54175"
  },
  {
    "village_code": "37244",
    "village": "PUCUNGROTO",
    "postal_code": "54175"
  },
  {
    "village_code": "37322",
    "village": "PURBOWONO",
    "postal_code": "54175"
  },
  {
    "village_code": "38332",
    "village": "SOMONGARI",
    "postal_code": "54175"
  },
  {
    "village_code": "38336",
    "village": "SOMOWONO",
    "postal_code": "54175"
  },
  {
    "village_code": "38417",
    "village": "SUDOROGO",
    "postal_code": "54175"
  },
  {
    "village_code": "38876",
    "village": "TAWANGSARI",
    "postal_code": "54175"
  },
  {
    "village_code": "39148",
    "village": "TLOGO REJO",
    "postal_code": "54175"
  },
  {
    "village_code": "39157",
    "village": "TLOGOBULU",
    "postal_code": "54175"
  },
  {
    "village_code": "39161",
    "village": "TLOGOGUWO",
    "postal_code": "54175"
  }
]