[
  {
    "village_code": "69043",
    "village": "AIR BAJO",
    "postal_code": "93762"
  },
  {
    "village_code": "69214",
    "village": "BALOBONE",
    "postal_code": "93762"
  },
  {
    "village_code": "69224",
    "village": "BANGA",
    "postal_code": "93762"
  },
  {
    "village_code": "69364",
    "village": "DARIANGO",
    "postal_code": "93762"
  },
  {
    "village_code": "69401",
    "village": "GUMAMANO",
    "postal_code": "93762"
  },
  {
    "village_code": "69489",
    "village": "KANAPA-NAPA",
    "postal_code": "93762"
  },
  {
    "village_code": "69490",
    "village": "KANCE BUNGI",
    "postal_code": "93762"
  },
  {
    "village_code": "70111",
    "village": "MATARA (MATARA)",
    "postal_code": "93762"
  },
  {
    "village_code": "70123",
    "village": "MAWASANGKA",
    "postal_code": "93762"
  },
  {
    "village_code": "70205",
    "village": "NAPA",
    "postal_code": "93762"
  },
  {
    "village_code": "70250",
    "village": "ONGKOLAKI (OENGKOLAKI)",
    "postal_code": "93762"
  },
  {
    "village_code": "70358",
    "village": "POLINDU",
    "postal_code": "93762"
  },
  {
    "village_code": "70670",
    "village": "TANAILANDU",
    "postal_code": "93762"
  },
  {
    "village_code": "70734",
    "village": "TERAPUNG",
    "postal_code": "93762"
  },
  {
    "village_code": "70927",
    "village": "WAKAMBANGURA",
    "postal_code": "93762"
  },
  {
    "village_code": "70926",
    "village": "WAKAMBANGURA II",
    "postal_code": "93762"
  },
  {
    "village_code": "71004",
    "village": "WASILOMATA I",
    "postal_code": "93762"
  },
  {
    "village_code": "71005",
    "village": "WASILOMATA II",
    "postal_code": "93762"
  },
  {
    "village_code": "71014",
    "village": "WATOLO (WATALO)",
    "postal_code": "93762"
  }
]