[
  {
    "village_code": "69076",
    "village": "AMBUAU INDAH",
    "postal_code": "93756"
  },
  {
    "village_code": "69077",
    "village": "AMBUAU TOGO",
    "postal_code": "93756"
  },
  {
    "village_code": "69212",
    "village": "BALIMU",
    "postal_code": "93756"
  },
  {
    "village_code": "69412",
    "village": "HARAPAN JAYA",
    "postal_code": "93756"
  },
  {
    "village_code": "69546",
    "village": "KINAPANI MAKMUR",
    "postal_code": "93756"
  },
  {
    "village_code": "69903",
    "village": "LASALIMU",
    "postal_code": "93756"
  },
  {
    "village_code": "70126",
    "village": "MEGABAHARI",
    "postal_code": "93756"
  },
  {
    "village_code": "70174",
    "village": "MOPAANO / MOPANO",
    "postal_code": "93756"
  },
  {
    "village_code": "70195",
    "village": "MULIA JAYA",
    "postal_code": "93756"
  },
  {
    "village_code": "70518",
    "village": "REJO SARI",
    "postal_code": "93756"
  },
  {
    "village_code": "70564",
    "village": "SANGIA ARANO",
    "postal_code": "93756"
  },
  {
    "village_code": "70609",
    "village": "SIOMANURU",
    "postal_code": "93756"
  },
  {
    "village_code": "70610",
    "village": "SIONTAPINA (SIOTAPINA)",
    "postal_code": "93756"
  },
  {
    "village_code": "70633",
    "village": "SUMBER AGUNG",
    "postal_code": "93756"
  },
  {
    "village_code": "70887",
    "village": "UMALAOGE",
    "postal_code": "93756"
  },
  {
    "village_code": "70920",
    "village": "WAJAHJAYA",
    "postal_code": "93756"
  }
]