[
  {
    "village_code": "69223",
    "village": "BANDAR BATAUGA",
    "postal_code": "93752"
  },
  {
    "village_code": "69302",
    "village": "BOLA",
    "postal_code": "93752"
  },
  {
    "village_code": "69353",
    "village": "BUSOA",
    "postal_code": "93752"
  },
  {
    "village_code": "69676",
    "village": "LAKAMBAU",
    "postal_code": "93752"
  },
  {
    "village_code": "69860",
    "village": "LAOMPO",
    "postal_code": "93752"
  },
  {
    "village_code": "69867",
    "village": "LAPANAIRI (LAMPANAIRI)",
    "postal_code": "93752"
  },
  {
    "village_code": "69939",
    "village": "LAWELA",
    "postal_code": "93752"
  },
  {
    "village_code": "69938",
    "village": "LAWELA SELATAN",
    "postal_code": "93752"
  },
  {
    "village_code": "70018",
    "village": "MAJAPAHIT",
    "postal_code": "93752"
  },
  {
    "village_code": "70061",
    "village": "MASIRI",
    "postal_code": "93752"
  },
  {
    "village_code": "70160",
    "village": "MOLAGINA",
    "postal_code": "93752"
  },
  {
    "village_code": "70347",
    "village": "POGALAMPA (POOGALAMPA)",
    "postal_code": "93752"
  }
]