[
  {
    "village_code": "69236",
    "village": "BANTEA",
    "postal_code": "93761"
  },
  {
    "village_code": "69306",
    "village": "BOMBONAWULU",
    "postal_code": "93761"
  },
  {
    "village_code": "69472",
    "village": "KAMAMA MEKAR",
    "postal_code": "93761"
  },
  {
    "village_code": "69562",
    "village": "KOLOWA",
    "postal_code": "93761"
  },
  {
    "village_code": "69679",
    "village": "LAKAPERA",
    "postal_code": "93761"
  },
  {
    "village_code": "70010",
    "village": "LOWU-LOWU",
    "postal_code": "93761"
  },
  {
    "village_code": "70481",
    "village": "RAHIA",
    "postal_code": "93761"
  },
  {
    "village_code": "70906",
    "village": "WADIABERO",
    "postal_code": "93761"
  },
  {
    "village_code": "70929",
    "village": "WAKEA KEA",
    "postal_code": "93761"
  },
  {
    "village_code": "70942",
    "village": "WALANDO",
    "postal_code": "93761"
  },
  {
    "village_code": "70952",
    "village": "WALIKO",
    "postal_code": "93761"
  },
  {
    "village_code": "71033",
    "village": "WATULEA",
    "postal_code": "93761"
  }
]