[
  {
    "village_code": "69320",
    "village": "BONEOGE",
    "postal_code": "93763"
  },
  {
    "village_code": "69695",
    "village": "LAKUDO",
    "postal_code": "93763"
  },
  {
    "village_code": "70001",
    "village": "LOLIBU",
    "postal_code": "93763"
  },
  {
    "village_code": "70016",
    "village": "MADONGKA",
    "postal_code": "93763"
  },
  {
    "village_code": "70114",
    "village": "MATAWINE",
    "postal_code": "93763"
  },
  {
    "village_code": "70143",
    "village": "METERE",
    "postal_code": "93763"
  },
  {
    "village_code": "70148",
    "village": "MOKO",
    "postal_code": "93763"
  },
  {
    "village_code": "70171",
    "village": "MONE",
    "postal_code": "93763"
  },
  {
    "village_code": "70211",
    "village": "NEPA MEKAR",
    "postal_code": "93763"
  },
  {
    "village_code": "70243",
    "village": "ONE WAARA",
    "postal_code": "93763"
  },
  {
    "village_code": "70725",
    "village": "TELUKLASONGKO",
    "postal_code": "93763"
  },
  {
    "village_code": "70896",
    "village": "WAARA",
    "postal_code": "93763"
  },
  {
    "village_code": "70922",
    "village": "WAJOGU",
    "postal_code": "93763"
  },
  {
    "village_code": "70973",
    "village": "WANEPA NEPA",
    "postal_code": "93763"
  },
  {
    "village_code": "71125",
    "village": "WONGKO LAKUDO",
    "postal_code": "93763"
  }
]