[
  {
    "village_code": "274",
    "village": "ALUR KEUJRUN",
    "postal_code": "23772"
  },
  {
    "village_code": "2109",
    "village": "JAMBO PAPAN",
    "postal_code": "23772"
  },
  {
    "village_code": "2279",
    "village": "KAMPUNG PADANG",
    "postal_code": "23772"
  },
  {
    "village_code": "2284",
    "village": "KAMPUNG SAWAH",
    "postal_code": "23772"
  },
  {
    "village_code": "2570",
    "village": "KOTO INDARUNG",
    "postal_code": "23772"
  },
  {
    "village_code": "2571",
    "village": "KOTO MENGGAMAT",
    "postal_code": "23772"
  },
  {
    "village_code": "3207",
    "village": "LAWE MELANG",
    "postal_code": "23772"
  },
  {
    "village_code": "3523",
    "village": "MALAKA",
    "postal_code": "23772"
  },
  {
    "village_code": "3754",
    "village": "MERSAK",
    "postal_code": "23772"
  },
  {
    "village_code": "4875",
    "village": "PULO AIR",
    "postal_code": "23772"
  },
  {
    "village_code": "5587",
    "village": "SIMPANG DUA",
    "postal_code": "23772"
  },
  {
    "village_code": "5620",
    "village": "SIMPANG TIGA",
    "postal_code": "23772"
  },
  {
    "village_code": "5660",
    "village": "SIURAI-URAI",
    "postal_code": "23772"
  }
]