[
  {
    "village_code": "823",
    "village": "BLANG GEULINGGANG (GELINGGANG)",
    "postal_code": "23753"
  },
  {
    "village_code": "2740",
    "village": "KUTA BARO",
    "postal_code": "23753"
  },
  {
    "village_code": "3378",
    "village": "LHOK PAWOH",
    "postal_code": "23753"
  },
  {
    "village_code": "3841",
    "village": "MEULIGO",
    "postal_code": "23753"
  },
  {
    "village_code": "4165",
    "village": "MUTIARA",
    "postal_code": "23753"
  },
  {
    "village_code": "4445",
    "village": "PANTON LUAS",
    "postal_code": "23753"
  },
  {
    "village_code": "5301",
    "village": "SAWANG BAU",
    "postal_code": "23753"
  },
  {
    "village_code": "5302",
    "village": "SAWANG I",
    "postal_code": "23753"
  },
  {
    "village_code": "5303",
    "village": "SAWANG II",
    "postal_code": "23753"
  },
  {
    "village_code": "5576",
    "village": "SIKULAT",
    "postal_code": "23753"
  },
  {
    "village_code": "5622",
    "village": "SIMPANG TIGA",
    "postal_code": "23753"
  },
  {
    "village_code": "6126",
    "village": "TRIENG MEUDURO BAROH",
    "postal_code": "23753"
  },
  {
    "village_code": "6127",
    "village": "TRIENG MEUDURO TUNONG",
    "postal_code": "23753"
  },
  {
    "village_code": "6282",
    "village": "UJUNG KARANG",
    "postal_code": "23753"
  },
  {
    "village_code": "6292",
    "village": "UJUNG PADANG",
    "postal_code": "23753"
  }
]