[
  {
    "village_code": "2053",
    "village": "IE MEUDAMA",
    "postal_code": "23774"
  },
  {
    "village_code": "2466",
    "village": "KEUDE TRUMON",
    "postal_code": "23774"
  },
  {
    "village_code": "2741",
    "village": "KUTA BARO / BARU",
    "postal_code": "23774"
  },
  {
    "village_code": "2783",
    "village": "KUTA PADANG",
    "postal_code": "23774"
  },
  {
    "village_code": "4235",
    "village": "PADANG HARAPAN",
    "postal_code": "23774"
  },
  {
    "village_code": "4439",
    "village": "PANTON BILIE",
    "postal_code": "23774"
  },
  {
    "village_code": "5056",
    "village": "RAKET",
    "postal_code": "23774"
  },
  {
    "village_code": "5418",
    "village": "SEUNABOK JAYA",
    "postal_code": "23774"
  },
  {
    "village_code": "5569",
    "village": "SIGLENG (SINGLENG)",
    "postal_code": "23774"
  },
  {
    "village_code": "5986",
    "village": "TEPIN / TEUPIN TINGGI",
    "postal_code": "23774"
  },
  {
    "village_code": "6269",
    "village": "UJONG / UJUNG TANOH",
    "postal_code": "23774"
  }
]