[
  {
    "village_code": "14038",
    "village": "KEPENUHAN BARAT",
    "postal_code": "28559"
  },
  {
    "village_code": "14036",
    "village": "KEPENUHAN BARAT MULYA",
    "postal_code": "28559"
  },
  {
    "village_code": "14037",
    "village": "KEPENUHAN BARAT SEI ROKAN JAYA",
    "postal_code": "28559"
  },
  {
    "village_code": "14039",
    "village": "KEPENUHAN BARU",
    "postal_code": "28559"
  },
  {
    "village_code": "14040",
    "village": "KEPENUHAN HILIR",
    "postal_code": "28559"
  },
  {
    "village_code": "14043",
    "village": "KEPENUHAN RAYA",
    "postal_code": "28559"
  },
  {
    "village_code": "14044",
    "village": "KEPENUHAN SUKA",
    "postal_code": "28559"
  },
  {
    "village_code": "14045",
    "village": "KEPENUHAN TENGAH",
    "postal_code": "28559"
  },
  {
    "village_code": "14666",
    "village": "RANTAU BINUANG SAKTI",
    "postal_code": "28559"
  },
  {
    "village_code": "15367",
    "village": "ULAK PATIAN",
    "postal_code": "28559"
  }
]