[
  {
    "village_code": "13611",
    "village": "BAGAN TUJUH",
    "postal_code": "28556"
  },
  {
    "village_code": "13781",
    "village": "BUKIT INTAN MAKMUR",
    "postal_code": "28556"
  },
  {
    "village_code": "13934",
    "village": "INTAN JAYA",
    "postal_code": "28556"
  },
  {
    "village_code": "14071",
    "village": "KOTA BARU",
    "postal_code": "28556"
  },
  {
    "village_code": "14076",
    "village": "KOTA INTAN",
    "postal_code": "28556"
  },
  {
    "village_code": "14078",
    "village": "KOTA LAMA",
    "postal_code": "28556"
  },
  {
    "village_code": "14082",
    "village": "KOTA RAYA",
    "postal_code": "28556"
  },
  {
    "village_code": "14314",
    "village": "MUARA DILAM",
    "postal_code": "28556"
  },
  {
    "village_code": "14317",
    "village": "MUARA INTAN",
    "postal_code": "28556"
  },
  {
    "village_code": "14440",
    "village": "PASIR INDAH",
    "postal_code": "28556"
  },
  {
    "village_code": "14447",
    "village": "PASIR LUHUR",
    "postal_code": "28556"
  },
  {
    "village_code": "15037",
    "village": "SUNGAI KUTI",
    "postal_code": "28556"
  },
  {
    "village_code": "15141",
    "village": "TANAH DATAR",
    "postal_code": "28556"
  }
]