[
  {
    "village_code": "79673",
    "village": "ADORA",
    "postal_code": "98661"
  },
  {
    "village_code": "79875",
    "village": "DEGEN",
    "postal_code": "98661"
  },
  {
    "village_code": "80411",
    "village": "MAWAR",
    "postal_code": "98661"
  },
  {
    "village_code": "80587",
    "village": "OFIE",
    "postal_code": "98661"
  },
  {
    "village_code": "80606",
    "village": "PATIPI PASIR",
    "postal_code": "98661"
  },
  {
    "village_code": "80607",
    "village": "PATIPI PULAU (NUSA)",
    "postal_code": "98661"
  },
  {
    "village_code": "80618",
    "village": "PUAR",
    "postal_code": "98661"
  },
  {
    "village_code": "80652",
    "village": "RUMBATI",
    "postal_code": "98661"
  },
  {
    "village_code": "80673",
    "village": "SALAKITI",
    "postal_code": "98661"
  },
  {
    "village_code": "80847",
    "village": "SUM",
    "postal_code": "98661"
  },
  {
    "village_code": "80888",
    "village": "TANEHAMUR",
    "postal_code": "98661"
  },
  {
    "village_code": "80890",
    "village": "TANISAPATA (TANISAPATU)",
    "postal_code": "98661"
  },
  {
    "village_code": "80901",
    "village": "TAWAR",
    "postal_code": "98661"
  },
  {
    "village_code": "80911",
    "village": "TELUK PATIPI",
    "postal_code": "98661"
  },
  {
    "village_code": "80917",
    "village": "TETAR",
    "postal_code": "98661"
  },
  {
    "village_code": "80919",
    "village": "TIBATIBANANAM",
    "postal_code": "98661"
  },
  {
    "village_code": "80957",
    "village": "TUIMAR",
    "postal_code": "98661"
  },
  {
    "village_code": "81001",
    "village": "US",
    "postal_code": "98661"
  },
  {
    "village_code": "81141",
    "village": "WERFA (WERFRA)",
    "postal_code": "98661"
  }
]