[
  {
    "village_code": "79711",
    "village": "ANDAMATA",
    "postal_code": "98652"
  },
  {
    "village_code": "79730",
    "village": "ARGUNI",
    "postal_code": "98652"
  },
  {
    "village_code": "79802",
    "village": "BATUFIAFAS",
    "postal_code": "98652"
  },
  {
    "village_code": "79868",
    "village": "DAREMBANG",
    "postal_code": "98652"
  },
  {
    "village_code": "79946",
    "village": "FIOR",
    "postal_code": "98652"
  },
  {
    "village_code": "79968",
    "village": "FURIR",
    "postal_code": "98652"
  },
  {
    "village_code": "79985",
    "village": "GORAS",
    "postal_code": "98652"
  },
  {
    "village_code": "80153",
    "village": "KAMPUNG BARU",
    "postal_code": "98652"
  },
  {
    "village_code": "80199",
    "village": "KINAM",
    "postal_code": "98652"
  },
  {
    "village_code": "80260",
    "village": "KOKAS KOTA",
    "postal_code": "98652"
  },
  {
    "village_code": "80284",
    "village": "KRIAWASWAS",
    "postal_code": "98652"
  },
  {
    "village_code": "80362",
    "village": "MAMBUNIBUNI",
    "postal_code": "98652"
  },
  {
    "village_code": "80368",
    "village": "MANDONI",
    "postal_code": "98652"
  },
  {
    "village_code": "80413",
    "village": "MBAHAMDANDRA",
    "postal_code": "98652"
  },
  {
    "village_code": "80501",
    "village": "MITIMBER",
    "postal_code": "98652"
  },
  {
    "village_code": "80605",
    "village": "PATIMBURAK",
    "postal_code": "98652"
  },
  {
    "village_code": "80733",
    "village": "SEKAR",
    "postal_code": "98652"
  },
  {
    "village_code": "80797",
    "village": "SISIR",
    "postal_code": "98652"
  },
  {
    "village_code": "80969",
    "village": "UGAR",
    "postal_code": "98652"
  },
  {
    "village_code": "81007",
    "village": "WABUNG",
    "postal_code": "98652"
  },
  {
    "village_code": "81009",
    "village": "WAGAP",
    "postal_code": "98652"
  },
  {
    "village_code": "81065",
    "village": "WAREMU",
    "postal_code": "98652"
  },
  {
    "village_code": "81177",
    "village": "WOS",
    "postal_code": "98652"
  }
]