[
  {
    "village_code": "79850",
    "village": "BUMIMOROH INDAH",
    "postal_code": "98662"
  },
  {
    "village_code": "80417",
    "village": "MBIMAJAYA",
    "postal_code": "98662"
  },
  {
    "village_code": "80431",
    "village": "MEKARSARI",
    "postal_code": "98662"
  },
  {
    "village_code": "80589",
    "village": "ONIMSARI",
    "postal_code": "98662"
  },
  {
    "village_code": "80595",
    "village": "OTOWERI",
    "postal_code": "98662"
  },
  {
    "village_code": "80612",
    "village": "PINANG AGUNG",
    "postal_code": "98662"
  },
  {
    "village_code": "80914",
    "village": "TESHA",
    "postal_code": "98662"
  },
  {
    "village_code": "80933",
    "village": "TOMAGE",
    "postal_code": "98662"
  },
  {
    "village_code": "81078",
    "village": "WARISA MULYA",
    "postal_code": "98662"
  },
  {
    "village_code": "81113",
    "village": "WAWOSAN",
    "postal_code": "98662"
  },
  {
    "village_code": "81173",
    "village": "WONODADI MULYA",
    "postal_code": "98662"
  }
]