[
  {
    "village_code": "79903",
    "village": "DULANPOKPOK",
    "postal_code": "98611"
  },
  {
    "village_code": "79932",
    "village": "FAK FAK SELATAN",
    "postal_code": "98611"
  },
  {
    "village_code": "79933",
    "village": "FAK FAK UTARA",
    "postal_code": "98611"
  },
  {
    "village_code": "79978",
    "village": "GEWERPE",
    "postal_code": "98611"
  },
  {
    "village_code": "80163",
    "village": "KAPARTUTIN",
    "postal_code": "98611"
  },
  {
    "village_code": "80320",
    "village": "LUSI PERI",
    "postal_code": "98611"
  },
  {
    "village_code": "80734",
    "village": "SEKBAN",
    "postal_code": "98611"
  },
  {
    "village_code": "80735",
    "village": "SEKRU",
    "postal_code": "98611"
  },
  {
    "village_code": "80886",
    "village": "TANAMA",
    "postal_code": "98611"
  },
  {
    "village_code": "80942",
    "village": "TOREA",
    "postal_code": "98611"
  },
  {
    "village_code": "81011",
    "village": "WAGOM SELATAN",
    "postal_code": "98611"
  },
  {
    "village_code": "81012",
    "village": "WAGON UTARA",
    "postal_code": "98611"
  },
  {
    "village_code": "81182",
    "village": "WRIKAPAL",
    "postal_code": "98611"
  }
]