[
  {
    "village_code": "80130",
    "village": "KALAMANUK",
    "postal_code": "98662"
  },
  {
    "village_code": "80200",
    "village": "KIRIA BISA (AIR BISA)",
    "postal_code": "98662"
  },
  {
    "village_code": "80279",
    "village": "KOTAM",
    "postal_code": "98662"
  },
  {
    "village_code": "80300",
    "village": "KWAMA",
    "postal_code": "98662"
  },
  {
    "village_code": "80666",
    "village": "SAHAREI",
    "postal_code": "98662"
  },
  {
    "village_code": "80683",
    "village": "SANGGRAM",
    "postal_code": "98662"
  },
  {
    "village_code": "80959",
    "village": "TUNAS GAIN",
    "postal_code": "98662"
  },
  {
    "village_code": "80991",
    "village": "URAT",
    "postal_code": "98662"
  },
  {
    "village_code": "81038",
    "village": "WAMBAR (WAMBRAR)",
    "postal_code": "98662"
  },
  {
    "village_code": "81104",
    "village": "WASERAT",
    "postal_code": "98662"
  },
  {
    "village_code": "81118",
    "village": "WAYATI",
    "postal_code": "98662"
  },
  {
    "village_code": "81116",
    "village": "WAYATI BARAT (FAUKIA)",
    "postal_code": "98662"
  },
  {
    "village_code": "81117",
    "village": "WAYATI TIMUR",
    "postal_code": "98662"
  },
  {
    "village_code": "81142",
    "village": "WERI",
    "postal_code": "98662"
  }
]