[
  {
    "village_code": "50243",
    "village": "ABABI",
    "postal_code": "80852"
  },
  {
    "village_code": "50245",
    "village": "ABANG",
    "postal_code": "80852"
  },
  {
    "village_code": "50389",
    "village": "BUNUTAN",
    "postal_code": "80852"
  },
  {
    "village_code": "50408",
    "village": "CULIK",
    "postal_code": "80852"
  },
  {
    "village_code": "50419",
    "village": "DATAH",
    "postal_code": "80852"
  },
  {
    "village_code": "50525",
    "village": "KERTA MANDALA",
    "postal_code": "80852"
  },
  {
    "village_code": "50531",
    "village": "KESIMPAR",
    "postal_code": "80852"
  },
  {
    "village_code": "50549",
    "village": "LABA SARI",
    "postal_code": "80852"
  },
  {
    "village_code": "50615",
    "village": "NAWAKERTI",
    "postal_code": "80852"
  },
  {
    "village_code": "50720",
    "village": "PIDPID",
    "postal_code": "80852"
  },
  {
    "village_code": "50734",
    "village": "PURWAKERTI",
    "postal_code": "80852"
  },
  {
    "village_code": "50907",
    "village": "TISTA",
    "postal_code": "80852"
  },
  {
    "village_code": "50912",
    "village": "TIYINGTALI",
    "postal_code": "80852"
  },
  {
    "village_code": "50916",
    "village": "TRI BUANA",
    "postal_code": "80852"
  }
]