[
  {
    "village_code": "58067",
    "village": "PENDA NANGE",
    "postal_code": "74457"
  },
  {
    "village_code": "58130",
    "village": "RANGAN BAHEKANG",
    "postal_code": "74457"
  },
  {
    "village_code": "58151",
    "village": "RANTAU PANDAN",
    "postal_code": "74457"
  },
  {
    "village_code": "58172",
    "village": "RONGAN RONDAN",
    "postal_code": "74457"
  },
  {
    "village_code": "58451",
    "village": "TANJUNG BATIK",
    "postal_code": "74457"
  },
  {
    "village_code": "58578",
    "village": "TUMBANG DAHUEI",
    "postal_code": "74457"
  },
  {
    "village_code": "58584",
    "village": "TUMBANG GAEI",
    "postal_code": "74457"
  },
  {
    "village_code": "58606",
    "village": "TUMBANG KABURAI",
    "postal_code": "74457"
  },
  {
    "village_code": "58607",
    "village": "TUMBANG KAJAMEI",
    "postal_code": "74457"
  },
  {
    "village_code": "58615",
    "village": "TUMBANG KARUEI",
    "postal_code": "74457"
  },
  {
    "village_code": "58617",
    "village": "TUMBANG KATAEI",
    "postal_code": "74457"
  }
]