[
  {
    "village_code": "40521",
    "village": "BANGILAN",
    "postal_code": "62364"
  },
  {
    "village_code": "40648",
    "village": "BANJARWORO",
    "postal_code": "62364"
  },
  {
    "village_code": "40750",
    "village": "BATE",
    "postal_code": "62364"
  },
  {
    "village_code": "42625",
    "village": "KABLUKAN",
    "postal_code": "62364"
  },
  {
    "village_code": "43336",
    "village": "KEDUNGHARDJO",
    "postal_code": "62364"
  },
  {
    "village_code": "43340",
    "village": "KEDUNGJAMBANGAN",
    "postal_code": "62364"
  },
  {
    "village_code": "43359",
    "village": "KEDUNGMULYO",
    "postal_code": "62364"
  },
  {
    "village_code": "43753",
    "village": "KLAKEH",
    "postal_code": "62364"
  },
  {
    "village_code": "43963",
    "village": "KUMPULREJO",
    "postal_code": "62364"
  },
  {
    "village_code": "44991",
    "village": "NGROJO",
    "postal_code": "62364"
  },
  {
    "village_code": "46713",
    "village": "SIDODADI",
    "postal_code": "62364"
  },
  {
    "village_code": "46749",
    "village": "SIDOKUMPUL",
    "postal_code": "62364"
  },
  {
    "village_code": "46843",
    "village": "SIDOTENTREM",
    "postal_code": "62364"
  },
  {
    "village_code": "48480",
    "village": "WEDEN",
    "postal_code": "62364"
  }
]