[
  {
    "village_code": "6602",
    "village": "AFORE GOBO",
    "postal_code": "22881"
  },
  {
    "village_code": "6773",
    "village": "BALE-BALE",
    "postal_code": "22881"
  },
  {
    "village_code": "6772",
    "village": "BALE-BALE SIBOHOU",
    "postal_code": "22881"
  },
  {
    "village_code": "8733",
    "village": "LIMO BIANG",
    "postal_code": "22881"
  },
  {
    "village_code": "8940",
    "village": "MAJINO LORANG",
    "postal_code": "22881"
  },
  {
    "village_code": "9120",
    "village": "MEMONG",
    "postal_code": "22881"
  },
  {
    "village_code": "9134",
    "village": "MERIT BARU",
    "postal_code": "22881"
  },
  {
    "village_code": "11404",
    "village": "SIOFA BANUA LORANG",
    "postal_code": "22881"
  },
  {
    "village_code": "11405",
    "village": "SIOFA BANUA MARIT",
    "postal_code": "22881"
  },
  {
    "village_code": "12127",
    "village": "TELUK LIMO",
    "postal_code": "22881"
  },
  {
    "village_code": "12380",
    "village": "WAWA",
    "postal_code": "22881"
  },
  {
    "village_code": "12395",
    "village": "ZIABIANG",
    "postal_code": "22881"
  }
]