[
  {
    "village_code": "6636",
    "village": "AMANDRAYA ULUSUSUA",
    "postal_code": "22866"
  },
  {
    "village_code": "7504",
    "village": "FOIKHU FONDRAKO",
    "postal_code": "22866"
  },
  {
    "village_code": "7506",
    "village": "FONDRAKORAYA",
    "postal_code": "22866"
  },
  {
    "village_code": "7920",
    "village": "HILINIFAOSO",
    "postal_code": "22866"
  },
  {
    "village_code": "7975",
    "village": "HILIWOSI",
    "postal_code": "22866"
  },
  {
    "village_code": "8595",
    "village": "LAHUSA SUSUA",
    "postal_code": "22866"
  },
  {
    "village_code": "9414",
    "village": "ORAHILI FONDRAKO",
    "postal_code": "22866"
  },
  {
    "village_code": "9438",
    "village": "ORUDU SIBOHOU",
    "postal_code": "22866"
  },
  {
    "village_code": "10381",
    "village": "RAMBA-RAMBA",
    "postal_code": "22866"
  },
  {
    "village_code": "11018",
    "village": "SIFAOROASI",
    "postal_code": "22866"
  },
  {
    "village_code": "11529",
    "village": "SISARAHILI SUSUA",
    "postal_code": "22866"
  },
  {
    "village_code": "11830",
    "village": "SUSUA",
    "postal_code": "22866"
  }
]