[
  {
    "village_code": "6646",
    "village": "AMBUKHA SATU",
    "postal_code": "22867"
  },
  {
    "village_code": "6650",
    "village": "AMOROSA",
    "postal_code": "22867"
  },
  {
    "village_code": "7052",
    "village": "BAWO LOLOMATUA",
    "postal_code": "22867"
  },
  {
    "village_code": "7209",
    "village": "BOROWOSI",
    "postal_code": "22867"
  },
  {
    "village_code": "7824",
    "village": "HILIFAKHE",
    "postal_code": "22867"
  },
  {
    "village_code": "7870",
    "village": "HILIMAERA",
    "postal_code": "22867"
  },
  {
    "village_code": "7964",
    "village": "HILIWAEBU",
    "postal_code": "22867"
  },
  {
    "village_code": "8770",
    "village": "LOLOANA\\A",
    "postal_code": "22867"
  },
  {
    "village_code": "9005",
    "village": "MARAO",
    "postal_code": "22867"
  },
  {
    "village_code": "9424",
    "village": "ORAHILI ULUNOYO",
    "postal_code": "22867"
  },
  {
    "village_code": "10323",
    "village": "PUNCAK LOLOMATUA",
    "postal_code": "22867"
  },
  {
    "village_code": "10541",
    "village": "SAMBULU",
    "postal_code": "22867"
  },
  {
    "village_code": "11735",
    "village": "SUKA MAJU",
    "postal_code": "22867"
  }
]