[
  {
    "village_code": "6659",
    "village": "ANAOMA",
    "postal_code": "22864"
  },
  {
    "village_code": "7116",
    "village": "BERUA SIWALAWA",
    "postal_code": "22864"
  },
  {
    "village_code": "7254",
    "village": "BUKITBURASI",
    "postal_code": "22864"
  },
  {
    "village_code": "7818",
    "village": "HILIDULO",
    "postal_code": "22864"
  },
  {
    "village_code": "7852",
    "village": "HILIGODU",
    "postal_code": "22864"
  },
  {
    "village_code": "8955",
    "village": "MALUO",
    "postal_code": "22864"
  },
  {
    "village_code": "8967",
    "village": "MANAWADANO",
    "postal_code": "22864"
  },
  {
    "village_code": "11542",
    "village": "SISOBAHILI SIWALAWA",
    "postal_code": "22864"
  },
  {
    "village_code": "11846",
    "village": "TALIO",
    "postal_code": "22864"
  },
  {
    "village_code": "12360",
    "village": "UMBU\\ASI",
    "postal_code": "22864"
  },
  {
    "village_code": "12357",
    "village": "UMBUASI BARAT",
    "postal_code": "22864"
  }
]