[
  {
    "village_code": "6786",
    "village": "BALOGIA",
    "postal_code": "22881"
  },
  {
    "village_code": "6954",
    "village": "BARUYU LASARA",
    "postal_code": "22881"
  },
  {
    "village_code": "7049",
    "village": "BAWO AMA HELATO",
    "postal_code": "22881"
  },
  {
    "village_code": "7056",
    "village": "BAWO OMASIO",
    "postal_code": "22881"
  },
  {
    "village_code": "7061",
    "village": "BAWODOBARA",
    "postal_code": "22881"
  },
  {
    "village_code": "7777",
    "village": "HILI AMO DULA",
    "postal_code": "22881"
  },
  {
    "village_code": "7933",
    "village": "HILIOTALUA",
    "postal_code": "22881"
  },
  {
    "village_code": "8464",
    "village": "KOTO",
    "postal_code": "22881"
  },
  {
    "village_code": "8642",
    "village": "LASONDE",
    "postal_code": "22881"
  },
  {
    "village_code": "8745",
    "village": "LOBOI",
    "postal_code": "22881"
  },
  {
    "village_code": "9378",
    "village": "ONAYA",
    "postal_code": "22881"
  },
  {
    "village_code": "9428",
    "village": "ORAHILI",
    "postal_code": "22881"
  },
  {
    "village_code": "9904",
    "village": "PASAR PULAU TELO",
    "postal_code": "22881"
  },
  {
    "village_code": "10416",
    "village": "RAPA RAPA MELAYU",
    "postal_code": "22881"
  },
  {
    "village_code": "10627",
    "village": "SEBUASI",
    "postal_code": "22881"
  },
  {
    "village_code": "10998",
    "village": "SIDUAEWALI",
    "postal_code": "22881"
  },
  {
    "village_code": "11022",
    "village": "SIFITU EWALI",
    "postal_code": "22881"
  },
  {
    "village_code": "11197",
    "village": "SILIMAEWALI",
    "postal_code": "22881"
  },
  {
    "village_code": "11224",
    "village": "SIMALUAYA",
    "postal_code": "22881"
  },
  {
    "village_code": "11381",
    "village": "SINAURU",
    "postal_code": "22881"
  },
  {
    "village_code": "11407",
    "village": "SIOFA EWALI",
    "postal_code": "22881"
  },
  {
    "village_code": "11533",
    "village": "SISARAHILI",
    "postal_code": "22881"
  }
]