[
  {
    "village_code": "6790",
    "village": "BALOHILI O\\O\\U",
    "postal_code": "22864"
  },
  {
    "village_code": "7078",
    "village": "BAWOSALO\\O BAWOLUO",
    "postal_code": "22864"
  },
  {
    "village_code": "7895",
    "village": "HILIMBOWO",
    "postal_code": "22864"
  },
  {
    "village_code": "7898",
    "village": "HILIMBUASI",
    "postal_code": "22864"
  },
  {
    "village_code": "7913",
    "village": "HILINAMOZIHONO",
    "postal_code": "22864"
  },
  {
    "village_code": "7912",
    "village": "HILINAMOZIHONO MOALE",
    "postal_code": "22864"
  },
  {
    "village_code": "7929",
    "village": "HILIORU DUA",
    "postal_code": "22864"
  },
  {
    "village_code": "8784",
    "village": "LOLOMAYA",
    "postal_code": "22864"
  },
  {
    "village_code": "11238",
    "village": "SIMANDRAOLO  /  SIMANDAOLO",
    "postal_code": "22864"
  },
  {
    "village_code": "11239",
    "village": "SIMANDRAOLO O\\OU",
    "postal_code": "22864"
  },
  {
    "village_code": "11729",
    "village": "SUKA MAJU",
    "postal_code": "22864"
  }
]