[
  {
    "village_code": "25319",
    "village": "BABAKAN",
    "postal_code": "16128"
  },
  {
    "village_code": "25309",
    "village": "BABAKAN PASAR",
    "postal_code": "16126"
  },
  {
    "village_code": "25987",
    "village": "CIBOGOR",
    "postal_code": "16124"
  },
  {
    "village_code": "26879",
    "village": "CIWARINGIN",
    "postal_code": "16124"
  },
  {
    "village_code": "27177",
    "village": "GUDANG",
    "postal_code": "16123"
  },
  {
    "village_code": "27892",
    "village": "KEBON KELAPA",
    "postal_code": "16125"
  },
  {
    "village_code": "28929",
    "village": "PABATON",
    "postal_code": "16121"
  },
  {
    "village_code": "29062",
    "village": "PALEDANG",
    "postal_code": "16122"
  },
  {
    "village_code": "29114",
    "village": "PANARAGAN",
    "postal_code": "16125"
  },
  {
    "village_code": "29814",
    "village": "SEMPUR",
    "postal_code": "16129"
  },
  {
    "village_code": "30867",
    "village": "TEGAL PANJANG",
    "postal_code": "16129"
  }
]