[
  {
    "village_code": "25380",
    "village": "BALUNGBANG JAYA",
    "postal_code": "16116"
  },
  {
    "village_code": "25687",
    "village": "BUBULAK",
    "postal_code": "16115"
  },
  {
    "village_code": "26428",
    "village": "CILENDEK BARAT",
    "postal_code": "16112"
  },
  {
    "village_code": "26429",
    "village": "CILENDEK TIMUR",
    "postal_code": "16112"
  },
  {
    "village_code": "26902",
    "village": "CURUG",
    "postal_code": "16113"
  },
  {
    "village_code": "26900",
    "village": "CURUG MEKAR",
    "postal_code": "16113"
  },
  {
    "village_code": "27212",
    "village": "GUNUNGBATU",
    "postal_code": "16118"
  },
  {
    "village_code": "28343",
    "village": "LOJI",
    "postal_code": "16117"
  },
  {
    "village_code": "28488",
    "village": "MARGAJAYA",
    "postal_code": "16116"
  },
  {
    "village_code": "28737",
    "village": "MENTENG",
    "postal_code": "16111"
  },
  {
    "village_code": "29298",
    "village": "PASIR JAYA",
    "postal_code": "16119"
  },
  {
    "village_code": "29301",
    "village": "PASIR KUDA",
    "postal_code": "16119"
  },
  {
    "village_code": "29304",
    "village": "PASIR MULYA",
    "postal_code": "16118"
  },
  {
    "village_code": "29811",
    "village": "SEMPLAK",
    "postal_code": "16114"
  },
  {
    "village_code": "29916",
    "village": "SINDANGBARANG",
    "postal_code": "16117"
  },
  {
    "village_code": "30076",
    "village": "SITU GEDE",
    "postal_code": "16115"
  }
]