[
  {
    "village_code": "25474",
    "village": "BARENGKOK",
    "postal_code": "16640"
  },
  {
    "village_code": "25903",
    "village": "CIBEBER 1",
    "postal_code": "16640"
  },
  {
    "village_code": "25904",
    "village": "CIBEBER 2",
    "postal_code": "16640"
  },
  {
    "village_code": "27656",
    "village": "KARACAK",
    "postal_code": "16640"
  },
  {
    "village_code": "27821",
    "village": "KAREHKEL",
    "postal_code": "16640"
  },
  {
    "village_code": "27855",
    "village": "KARYASARI",
    "postal_code": "16640"
  },
  {
    "village_code": "28285",
    "village": "LEUWILIANG",
    "postal_code": "16640"
  },
  {
    "village_code": "28287",
    "village": "LEUWIMEKAR",
    "postal_code": "16640"
  },
  {
    "village_code": "28928",
    "village": "PABANGBON",
    "postal_code": "16640"
  },
  {
    "village_code": "29482",
    "village": "PURASARI",
    "postal_code": "16640"
  },
  {
    "village_code": "29483",
    "village": "PURASEDA",
    "postal_code": "16640"
  }
]