[
  {
    "village_code": "25811",
    "village": "CEMPLANG",
    "postal_code": "16630"
  },
  {
    "village_code": "25836",
    "village": "CIARUTEUN ILIR",
    "postal_code": "16630"
  },
  {
    "village_code": "25837",
    "village": "CIARUTEUN UDIK",
    "postal_code": "16630"
  },
  {
    "village_code": "25893",
    "village": "CIBATOK 1",
    "postal_code": "16630"
  },
  {
    "village_code": "25894",
    "village": "CIBATOK 2",
    "postal_code": "16630"
  },
  {
    "village_code": "26223",
    "village": "CIJUJUNG",
    "postal_code": "16630"
  },
  {
    "village_code": "26480",
    "village": "CIMANGGU 1",
    "postal_code": "16630"
  },
  {
    "village_code": "26481",
    "village": "CIMANGGU 2",
    "postal_code": "16630"
  },
  {
    "village_code": "26986",
    "village": "DUKUH",
    "postal_code": "16630"
  },
  {
    "village_code": "27035",
    "village": "GALUGA",
    "postal_code": "16630"
  },
  {
    "village_code": "27161",
    "village": "GIRIMULYA",
    "postal_code": "16630"
  },
  {
    "village_code": "28267",
    "village": "LEUWEUNG KOLOT",
    "postal_code": "16630"
  },
  {
    "village_code": "30077",
    "village": "SITU ILIR",
    "postal_code": "16630"
  },
  {
    "village_code": "30078",
    "village": "SITU UDIK",
    "postal_code": "16630"
  },
  {
    "village_code": "30310",
    "village": "SUKAMAJU",
    "postal_code": "16630"
  }
]