[
  {
    "village_code": "25834",
    "village": "CIAPUS",
    "postal_code": "16610"
  },
  {
    "village_code": "26594",
    "village": "CIOMAS",
    "postal_code": "16610"
  },
  {
    "village_code": "26592",
    "village": "CIOMAS RAHAYU",
    "postal_code": "16610"
  },
  {
    "village_code": "28100",
    "village": "KOTA BATU",
    "postal_code": "16610"
  },
  {
    "village_code": "28173",
    "village": "LALADON",
    "postal_code": "16610"
  },
  {
    "village_code": "28611",
    "village": "MEKARJAYA",
    "postal_code": "16610"
  },
  {
    "village_code": "28994",
    "village": "PADASUKA",
    "postal_code": "16610"
  },
  {
    "village_code": "29006",
    "village": "PAGELARAN",
    "postal_code": "16610"
  },
  {
    "village_code": "29223",
    "village": "PARAKAN",
    "postal_code": "16610"
  },
  {
    "village_code": "30192",
    "village": "SUKAHARJA",
    "postal_code": "16610"
  },
  {
    "village_code": "30338",
    "village": "SUKAMAKMUR",
    "postal_code": "16610"
  }
]