[
  {
    "village_code": "71357",
    "village": "DUTOHE",
    "postal_code": "96583"
  },
  {
    "village_code": "71356",
    "village": "DUTOHE BARAT",
    "postal_code": "96583"
  },
  {
    "village_code": "71621",
    "village": "OLUHUTA",
    "postal_code": "96583"
  },
  {
    "village_code": "71618",
    "village": "OLUHUTA UTARA",
    "postal_code": "96583"
  },
  {
    "village_code": "71635",
    "village": "PADENGO",
    "postal_code": "96583"
  },
  {
    "village_code": "71658",
    "village": "PAUWO",
    "postal_code": "96583"
  },
  {
    "village_code": "71700",
    "village": "POOWO",
    "postal_code": "96583"
  },
  {
    "village_code": "71699",
    "village": "POOWO BARAT",
    "postal_code": "96583"
  },
  {
    "village_code": "71764",
    "village": "TALANGO",
    "postal_code": "96583"
  },
  {
    "village_code": "71784",
    "village": "TANGGILINGO",
    "postal_code": "96583"
  },
  {
    "village_code": "71846",
    "village": "TOTO SELATAN",
    "postal_code": "96583"
  },
  {
    "village_code": "71863",
    "village": "TUMBIHE",
    "postal_code": "96583"
  }
]