[
  {
    "village_code": "72503",
    "village": "ABULATE",
    "postal_code": "97554"
  },
  {
    "village_code": "72508",
    "village": "ADABAI",
    "postal_code": "97554"
  },
  {
    "village_code": "72634",
    "village": "DIHIL",
    "postal_code": "97554"
  },
  {
    "village_code": "72654",
    "village": "ELNUSA",
    "postal_code": "97554"
  },
  {
    "village_code": "72944",
    "village": "LAPELA",
    "postal_code": "97554"
  },
  {
    "village_code": "72990",
    "village": "LILIAMA",
    "postal_code": "97554"
  },
  {
    "village_code": "73101",
    "village": "NAIWEL AHINULIN",
    "postal_code": "97554"
  },
  {
    "village_code": "73123",
    "village": "NAYET",
    "postal_code": "97554"
  },
  {
    "village_code": "73220",
    "village": "POLIN",
    "postal_code": "97554"
  },
  {
    "village_code": "73278",
    "village": "SABUAI",
    "postal_code": "97554"
  },
  {
    "village_code": "73444",
    "village": "TUNSAI",
    "postal_code": "97554"
  }
]