[
  {
    "village_code": "72509",
    "village": "ADAR",
    "postal_code": "97596"
  },
  {
    "village_code": "72538",
    "village": "AMARWAWATU",
    "postal_code": "97596"
  },
  {
    "village_code": "72547",
    "village": "ARAN",
    "postal_code": "97596"
  },
  {
    "village_code": "72551",
    "village": "ARMADA",
    "postal_code": "97596"
  },
  {
    "village_code": "72574",
    "village": "BAS",
    "postal_code": "97596"
  },
  {
    "village_code": "72577",
    "village": "BASARIN",
    "postal_code": "97596"
  },
  {
    "village_code": "72696",
    "village": "GOHA",
    "postal_code": "97596"
  },
  {
    "village_code": "72879",
    "village": "KILKODA",
    "postal_code": "97596"
  },
  {
    "village_code": "72907",
    "village": "KOTA SIRI (KOTA SIRIH)",
    "postal_code": "97596"
  },
  {
    "village_code": "73080",
    "village": "MIRAN",
    "postal_code": "97596"
  },
  {
    "village_code": "73239",
    "village": "RARAT",
    "postal_code": "97596"
  },
  {
    "village_code": "73279",
    "village": "SAGEY",
    "postal_code": "97596"
  },
  {
    "village_code": "73416",
    "village": "TINARIN",
    "postal_code": "97596"
  },
  {
    "village_code": "73435",
    "village": "TUHA",
    "postal_code": "97596"
  },
  {
    "village_code": "73440",
    "village": "TUNAS ILUR",
    "postal_code": "97596"
  },
  {
    "village_code": "73558",
    "village": "WAISALAN",
    "postal_code": "97596"
  }
]