[
  {
    "village_code": "72513",
    "village": "AFANG DEFOL",
    "postal_code": "97594"
  },
  {
    "village_code": "72514",
    "village": "AFANG KOTA",
    "postal_code": "97594"
  },
  {
    "village_code": "72706",
    "village": "GUNAK",
    "postal_code": "97594"
  },
  {
    "village_code": "72821",
    "village": "KAMAR",
    "postal_code": "97594"
  },
  {
    "village_code": "72882",
    "village": "KILMURY",
    "postal_code": "97594"
  },
  {
    "village_code": "72915",
    "village": "KUMELANG",
    "postal_code": "97594"
  },
  {
    "village_code": "73081",
    "village": "MISING",
    "postal_code": "97594"
  },
  {
    "village_code": "73127",
    "village": "NEKAN",
    "postal_code": "97594"
  },
  {
    "village_code": "73316",
    "village": "SELOR",
    "postal_code": "97594"
  },
  {
    "village_code": "73363",
    "village": "SUMBAWA",
    "postal_code": "97594"
  },
  {
    "village_code": "73460",
    "village": "UNDUR",
    "postal_code": "97594"
  }
]