[
  {
    "village_code": "72523",
    "village": "AKI JAYA",
    "postal_code": "97554"
  },
  {
    "village_code": "72600",
    "village": "BENGGOI (BANGGOI)",
    "postal_code": "97554"
  },
  {
    "village_code": "72751",
    "village": "HOTE",
    "postal_code": "97554"
  },
  {
    "village_code": "72787",
    "village": "JAKARTA BARU",
    "postal_code": "97554"
  },
  {
    "village_code": "72791",
    "village": "JEMBATAN BASAH",
    "postal_code": "97554"
  },
  {
    "village_code": "73260",
    "village": "RUKUN JAYA",
    "postal_code": "97554"
  },
  {
    "village_code": "73334",
    "village": "SILOHAN",
    "postal_code": "97554"
  },
  {
    "village_code": "73364",
    "village": "SUMBER AGUNG",
    "postal_code": "97554"
  },
  {
    "village_code": "73503",
    "village": "WAEMATAKABO",
    "postal_code": "97554"
  },
  {
    "village_code": "73540",
    "village": "WAIKETAM BARU",
    "postal_code": "97554"
  },
  {
    "village_code": "73559",
    "village": "WAISAMET",
    "postal_code": "97554"
  }
]