[
  {
    "village_code": "72536",
    "village": "AMAR LAUT",
    "postal_code": "97595"
  },
  {
    "village_code": "72646",
    "village": "EFA (EFFA)",
    "postal_code": "97595"
  },
  {
    "village_code": "72704",
    "village": "GULIAR",
    "postal_code": "97595"
  },
  {
    "village_code": "72773",
    "village": "ILILI",
    "postal_code": "97595"
  },
  {
    "village_code": "72847",
    "village": "KARLOMIN",
    "postal_code": "97595"
  },
  {
    "village_code": "72858",
    "village": "KELANGAN",
    "postal_code": "97595"
  },
  {
    "village_code": "72860",
    "village": "KELDOR",
    "postal_code": "97595"
  },
  {
    "village_code": "72930",
    "village": "LAHEMA",
    "postal_code": "97595"
  },
  {
    "village_code": "73199",
    "village": "OTADEMAN",
    "postal_code": "97595"
  },
  {
    "village_code": "73375",
    "village": "TAMHER BARAT",
    "postal_code": "97595"
  },
  {
    "village_code": "73376",
    "village": "TAMHER TIMUR",
    "postal_code": "97595"
  },
  {
    "village_code": "73378",
    "village": "TANAH BARU",
    "postal_code": "97595"
  },
  {
    "village_code": "73473",
    "village": "UTIIA",
    "postal_code": "97595"
  },
  {
    "village_code": "73651",
    "village": "WUNIN ELDEDORA",
    "postal_code": "97595"
  }
]