[
  {
    "village_code": "72537",
    "village": "AMARSEKARU",
    "postal_code": "97595"
  },
  {
    "village_code": "72627",
    "village": "DAY (DAI)",
    "postal_code": "97595"
  },
  {
    "village_code": "72772",
    "village": "ILILI",
    "postal_code": "97595"
  },
  {
    "village_code": "72851",
    "village": "KATALOKA",
    "postal_code": "97595"
  },
  {
    "village_code": "72861",
    "village": "KELIBINGAN",
    "postal_code": "97595"
  },
  {
    "village_code": "72912",
    "village": "KULUGOWA",
    "postal_code": "97595"
  },
  {
    "village_code": "73001",
    "village": "LOKO",
    "postal_code": "97595"
  },
  {
    "village_code": "73078",
    "village": "MIDA",
    "postal_code": "97595"
  },
  {
    "village_code": "73079",
    "village": "MIRAN GOTA",
    "postal_code": "97595"
  },
  {
    "village_code": "73110",
    "village": "NAMALEAN",
    "postal_code": "97595"
  },
  {
    "village_code": "73197",
    "village": "ONDOR",
    "postal_code": "97595"
  },
  {
    "village_code": "73272",
    "village": "RUMEON",
    "postal_code": "97595"
  },
  {
    "village_code": "73320",
    "village": "SERA",
    "postal_code": "97595"
  }
]