[
  {
    "village_code": "74845",
    "village": "ADORBARI",
    "postal_code": "98152"
  },
  {
    "village_code": "74846",
    "village": "AFEFBO",
    "postal_code": "98152"
  },
  {
    "village_code": "75359",
    "village": "BINDUSI",
    "postal_code": "98152"
  },
  {
    "village_code": "75454",
    "village": "BOSNIK SUP",
    "postal_code": "98152"
  },
  {
    "village_code": "76272",
    "village": "INMDI",
    "postal_code": "98152"
  },
  {
    "village_code": "76273",
    "village": "INOFI",
    "postal_code": "98152"
  },
  {
    "village_code": "76278",
    "village": "INSUMAMIRES (INSUMARIRES)",
    "postal_code": "98152"
  },
  {
    "village_code": "76425",
    "village": "KAJASBO",
    "postal_code": "98152"
  },
  {
    "village_code": "76426",
    "village": "KAJASI",
    "postal_code": "98152"
  },
  {
    "village_code": "77152",
    "village": "MANDON",
    "postal_code": "98152"
  },
  {
    "village_code": "77771",
    "village": "ORWER",
    "postal_code": "98152"
  },
  {
    "village_code": "77779",
    "village": "OWI",
    "postal_code": "98152"
  },
  {
    "village_code": "78074",
    "village": "RIM",
    "postal_code": "98152"
  },
  {
    "village_code": "78076",
    "village": "RIMBA JAYA",
    "postal_code": "98152"
  },
  {
    "village_code": "78094",
    "village": "RUAR",
    "postal_code": "98152"
  },
  {
    "village_code": "78184",
    "village": "SAREIDI (SARAEIDI)",
    "postal_code": "98152"
  },
  {
    "village_code": "78234",
    "village": "SEEPSE (SEPSE)",
    "postal_code": "98152"
  },
  {
    "village_code": "78421",
    "village": "SOON",
    "postal_code": "98152"
  },
  {
    "village_code": "78434",
    "village": "SORYAR",
    "postal_code": "98152"
  },
  {
    "village_code": "78485",
    "village": "SUNDE",
    "postal_code": "98152"
  },
  {
    "village_code": "78918",
    "village": "WADERBO",
    "postal_code": "98152"
  },
  {
    "village_code": "79115",
    "village": "WASORI",
    "postal_code": "98152"
  },
  {
    "village_code": "79292",
    "village": "WONIKI",
    "postal_code": "98152"
  },
  {
    "village_code": "79532",
    "village": "YENBEROK",
    "postal_code": "98152"
  },
  {
    "village_code": "79534",
    "village": "YENDAKEM",
    "postal_code": "98152"
  },
  {
    "village_code": "79547",
    "village": "YENUSI",
    "postal_code": "98152"
  }
]