[
  {
    "village_code": "74988",
    "village": "ANDEI",
    "postal_code": "98153"
  },
  {
    "village_code": "75617",
    "village": "DERNAFI",
    "postal_code": "98153"
  },
  {
    "village_code": "75664",
    "village": "DOFYO WAFOR",
    "postal_code": "98153"
  },
  {
    "village_code": "76705",
    "village": "KOBEOSER",
    "postal_code": "98153"
  },
  {
    "village_code": "76779",
    "village": "KOREM",
    "postal_code": "98153"
  },
  {
    "village_code": "77121",
    "village": "MAMBESAK",
    "postal_code": "98153"
  },
  {
    "village_code": "77344",
    "village": "MNUSWOR",
    "postal_code": "98153"
  },
  {
    "village_code": "77553",
    "village": "NERMNU",
    "postal_code": "98153"
  },
  {
    "village_code": "78088",
    "village": "ROSAYENDO",
    "postal_code": "98153"
  },
  {
    "village_code": "78198",
    "village": "SARWOM",
    "postal_code": "98153"
  },
  {
    "village_code": "78205",
    "village": "SAUKOBYE",
    "postal_code": "98153"
  },
  {
    "village_code": "79080",
    "village": "WARBON",
    "postal_code": "98153"
  },
  {
    "village_code": "79086",
    "village": "WARI",
    "postal_code": "98153"
  },
  {
    "village_code": "79104",
    "village": "WAROMI",
    "postal_code": "98153"
  },
  {
    "village_code": "79107",
    "village": "WARSANSAN",
    "postal_code": "98153"
  },
  {
    "village_code": "79586",
    "village": "YOBDI",
    "postal_code": "98153"
  }
]