[
  {
    "village_code": "62318",
    "village": "ATOGA",
    "postal_code": "95775"
  },
  {
    "village_code": "62317",
    "village": "ATOGA TIMUR",
    "postal_code": "95775"
  },
  {
    "village_code": "62329",
    "village": "BAI",
    "postal_code": "95775"
  },
  {
    "village_code": "62640",
    "village": "IDUMUN",
    "postal_code": "95775"
  },
  {
    "village_code": "62659",
    "village": "IYOK",
    "postal_code": "95775"
  },
  {
    "village_code": "62664",
    "village": "JIKO",
    "postal_code": "95775"
  },
  {
    "village_code": "62662",
    "village": "JIKO BELANGA",
    "postal_code": "95775"
  },
  {
    "village_code": "62663",
    "village": "JIKO UTARA",
    "postal_code": "95775"
  },
  {
    "village_code": "63020",
    "village": "LOYOW",
    "postal_code": "95775"
  },
  {
    "village_code": "63115",
    "village": "MATABULU",
    "postal_code": "95775"
  },
  {
    "village_code": "63114",
    "village": "MATABULU TIMUR",
    "postal_code": "95775"
  },
  {
    "village_code": "63182",
    "village": "MOLOBOG",
    "postal_code": "95775"
  },
  {
    "village_code": "63180",
    "village": "MOLOBOG BARAT",
    "postal_code": "95775"
  },
  {
    "village_code": "63181",
    "village": "MOLOBOG TIMUR",
    "postal_code": "95775"
  },
  {
    "village_code": "63235",
    "village": "MOTONGKAD",
    "postal_code": "95775"
  },
  {
    "village_code": "63232",
    "village": "MOTONGKAD SELATAN",
    "postal_code": "95775"
  },
  {
    "village_code": "63233",
    "village": "MOTONGKAD TENGAH",
    "postal_code": "95775"
  },
  {
    "village_code": "63234",
    "village": "MOTONGKAD UTARA",
    "postal_code": "95775"
  },
  {
    "village_code": "63281",
    "village": "NUANGAN",
    "postal_code": "95775"
  },
  {
    "village_code": "63278",
    "village": "NUANGAN BARAT",
    "postal_code": "95775"
  },
  {
    "village_code": "63279",
    "village": "NUANGAN I",
    "postal_code": "95775"
  },
  {
    "village_code": "63280",
    "village": "NUANGAN SELATAN",
    "postal_code": "95775"
  }
]