[
  {
    "village_code": "79689",
    "village": "AINOD",
    "postal_code": "98463"
  },
  {
    "village_code": "79694",
    "village": "AISYO",
    "postal_code": "98463"
  },
  {
    "village_code": "79838",
    "village": "BORI",
    "postal_code": "98463"
  },
  {
    "village_code": "79837",
    "village": "BORI TIMUR",
    "postal_code": "98463"
  },
  {
    "village_code": "79926",
    "village": "FAITMAYAF",
    "postal_code": "98463"
  },
  {
    "village_code": "79927",
    "village": "FAITMAYAT BARAT",
    "postal_code": "98463"
  },
  {
    "village_code": "79928",
    "village": "FAITSAWE",
    "postal_code": "98652"
  },
  {
    "village_code": "79961",
    "village": "FRAWEBO",
    "postal_code": "98463"
  },
  {
    "village_code": "79970",
    "village": "FUTON",
    "postal_code": "98463"
  },
  {
    "village_code": "80254",
    "village": "KOCUAS UTARA",
    "postal_code": "98463"
  },
  {
    "village_code": "80256",
    "village": "KOCUWER",
    "postal_code": "98463"
  },
  {
    "village_code": "80255",
    "village": "KOCUWER SELATAN",
    "postal_code": "98463"
  },
  {
    "village_code": "80261",
    "village": "KOKAS",
    "postal_code": "98652"
  },
  {
    "village_code": "80271",
    "village": "KONJA",
    "postal_code": "98463"
  },
  {
    "village_code": "80294",
    "village": "KUMURKEK",
    "postal_code": "98463"
  },
  {
    "village_code": "80293",
    "village": "KUMURKEK BARAT",
    "postal_code": "98463"
  },
  {
    "village_code": "80396",
    "village": "MARTAIM",
    "postal_code": "98652"
  },
  {
    "village_code": "80679",
    "village": "SAMPIKA",
    "postal_code": "98463"
  },
  {
    "village_code": "80776",
    "village": "SIKOF",
    "postal_code": "98463"
  },
  {
    "village_code": "80854",
    "village": "SUNEI",
    "postal_code": "98463"
  },
  {
    "village_code": "80861",
    "village": "SUSUMUK",
    "postal_code": "98463"
  },
  {
    "village_code": "80876",
    "village": "TAHAHITE",
    "postal_code": "98463"
  },
  {
    "village_code": "81147",
    "village": "WERJAYA",
    "postal_code": "98463"
  }
]