[
  {
    "village_code": "72520",
    "village": "AIR TERNATE",
    "postal_code": "97572"
  },
  {
    "village_code": "72565",
    "village": "BALA-BALA",
    "postal_code": "97572"
  },
  {
    "village_code": "72568",
    "village": "BALPETU",
    "postal_code": "97572"
  },
  {
    "village_code": "72585",
    "village": "BATU LAYAR",
    "postal_code": "97572"
  },
  {
    "village_code": "72607",
    "village": "BILORO",
    "postal_code": "97572"
  },
  {
    "village_code": "72660",
    "village": "EMHUGEN",
    "postal_code": "97572"
  },
  {
    "village_code": "72682",
    "village": "FOGI",
    "postal_code": "97572"
  },
  {
    "village_code": "73120",
    "village": "NANALI",
    "postal_code": "97572"
  },
  {
    "village_code": "73209",
    "village": "PASIR PUTIH",
    "postal_code": "97572"
  },
  {
    "village_code": "73309",
    "village": "SEKAT",
    "postal_code": "97572"
  },
  {
    "village_code": "73337",
    "village": "SIOPOT",
    "postal_code": "97572"
  },
  {
    "village_code": "73486",
    "village": "WAEHA",
    "postal_code": "97572"
  },
  {
    "village_code": "73491",
    "village": "WAEKEKA",
    "postal_code": "97572"
  },
  {
    "village_code": "73511",
    "village": "WAEPANDAN",
    "postal_code": "97572"
  },
  {
    "village_code": "73573",
    "village": "WALBELE",
    "postal_code": "97572"
  }
]