[
  {
    "village_code": "72584",
    "village": "BATU KASA",
    "postal_code": "97574"
  },
  {
    "village_code": "72752",
    "village": "HOTE",
    "postal_code": "97574"
  },
  {
    "village_code": "72973",
    "village": "LENA",
    "postal_code": "97574"
  },
  {
    "village_code": "73218",
    "village": "POHON BATU",
    "postal_code": "97574"
  },
  {
    "village_code": "73335",
    "village": "SIMI",
    "postal_code": "97574"
  },
  {
    "village_code": "73498",
    "village": "WAELIKUT",
    "postal_code": "97574"
  },
  {
    "village_code": "73502",
    "village": "WAEMASING",
    "postal_code": "97574"
  },
  {
    "village_code": "73521",
    "village": "WAESILI",
    "postal_code": "97574"
  },
  {
    "village_code": "73522",
    "village": "WAETAWA",
    "postal_code": "97574"
  },
  {
    "village_code": "73523",
    "village": "WAETEBA (WAETABA)",
    "postal_code": "97574"
  },
  {
    "village_code": "73580",
    "village": "WAMSISI",
    "postal_code": "97574"
  }
]