[
  {
    "village_code": "52359",
    "village": "BONI",
    "postal_code": "85981"
  },
  {
    "village_code": "52398",
    "village": "BUSALANGGA",
    "postal_code": "85981"
  },
  {
    "village_code": "52454",
    "village": "DAUDOLU",
    "postal_code": "85981"
  },
  {
    "village_code": "52828",
    "village": "INGGUINAK",
    "postal_code": "85981"
  },
  {
    "village_code": "53367",
    "village": "LIDOR",
    "postal_code": "85981"
  },
  {
    "village_code": "53646",
    "village": "MODOSINAL",
    "postal_code": "85981"
  },
  {
    "village_code": "53825",
    "village": "NETENAEN",
    "postal_code": "85981"
  },
  {
    "village_code": "53992",
    "village": "OEBELA",
    "postal_code": "85981"
  },
  {
    "village_code": "54037",
    "village": "OELUA",
    "postal_code": "85981"
  },
  {
    "village_code": "54092",
    "village": "OETUTULU",
    "postal_code": "85981"
  },
  {
    "village_code": "54712",
    "village": "TEMAS",
    "postal_code": "85981"
  },
  {
    "village_code": "54789",
    "village": "TOLAMA",
    "postal_code": "85981"
  },
  {
    "village_code": "54819",
    "village": "TUALIMA",
    "postal_code": "85981"
  }
]