[
  {
    "village_code": "20173",
    "village": "AUR RINGIT",
    "postal_code": "38955"
  },
  {
    "village_code": "20253",
    "village": "BERIANG TINGGI",
    "postal_code": "38955"
  },
  {
    "village_code": "20812",
    "village": "PADANG KEDONDONG",
    "postal_code": "38955"
  },
  {
    "village_code": "20815",
    "village": "PADANG LEBAN",
    "postal_code": "38955"
  },
  {
    "village_code": "20842",
    "village": "PADANG TINGGI",
    "postal_code": "38955"
  },
  {
    "village_code": "20936",
    "village": "PELAJARAN I",
    "postal_code": "38955"
  },
  {
    "village_code": "20937",
    "village": "PELAJARAN II",
    "postal_code": "38955"
  },
  {
    "village_code": "21088",
    "village": "SELIKA I",
    "postal_code": "38955"
  },
  {
    "village_code": "21089",
    "village": "SELIKA II",
    "postal_code": "38955"
  },
  {
    "village_code": "21090",
    "village": "SELIKA III",
    "postal_code": "38955"
  },
  {
    "village_code": "21223",
    "village": "SULAUWANGI (SULA WANGI)",
    "postal_code": "38955"
  },
  {
    "village_code": "21430",
    "village": "TANJUNG AUR",
    "postal_code": "38955"
  },
  {
    "village_code": "21424",
    "village": "TANJUNG AUR II",
    "postal_code": "38955"
  },
  {
    "village_code": "21443",
    "village": "TANJUNG BULAN",
    "postal_code": "38955"
  },
  {
    "village_code": "21466",
    "village": "TANJUNG IMAN",
    "postal_code": "38955"
  },
  {
    "village_code": "21464",
    "village": "TANJUNG IMAN II",
    "postal_code": "38955"
  },
  {
    "village_code": "21473",
    "village": "TANJUNG KEMUNING",
    "postal_code": "38955"
  },
  {
    "village_code": "21471",
    "village": "TANJUNG KEMUNING II",
    "postal_code": "38955"
  },
  {
    "village_code": "21472",
    "village": "TANJUNG KEMUNING III",
    "postal_code": "38955"
  },
  {
    "village_code": "21543",
    "village": "TINGGI ARI",
    "postal_code": "38955"
  }
]