[
  {
    "village_code": "20197",
    "village": "BANDU AGUNG",
    "postal_code": "38956"
  },
  {
    "village_code": "20317",
    "village": "COKO ENAU",
    "postal_code": "38956"
  },
  {
    "village_code": "20411",
    "village": "GUNUNG AGUNG",
    "postal_code": "38956"
  },
  {
    "village_code": "20434",
    "village": "GURU AGUNG",
    "postal_code": "38956"
  },
  {
    "village_code": "20433",
    "village": "GURU AGUNG II",
    "postal_code": "38956"
  },
  {
    "village_code": "20819",
    "village": "PADANG MANIS",
    "postal_code": "38956"
  },
  {
    "village_code": "20884",
    "village": "PANCUR NEGARA",
    "postal_code": "38956"
  },
  {
    "village_code": "20981",
    "village": "PERUGIAN",
    "postal_code": "38956"
  },
  {
    "village_code": "21139",
    "village": "SIMPANG TIGA",
    "postal_code": "38956"
  },
  {
    "village_code": "21441",
    "village": "TANJUNG BETUNG I",
    "postal_code": "38956"
  },
  {
    "village_code": "21442",
    "village": "TANJUNG BETUNG II",
    "postal_code": "38956"
  }
]