[
  {
    "village_code": "20205",
    "village": "BANGUN JIWA",
    "postal_code": "38961"
  },
  {
    "village_code": "20251",
    "village": "BENUA RATU",
    "postal_code": "38961"
  },
  {
    "village_code": "20304",
    "village": "CAHAYA NEGERI / NEGRI",
    "postal_code": "38961"
  },
  {
    "village_code": "20346",
    "village": "DURIAN BESAR",
    "postal_code": "38961"
  },
  {
    "village_code": "20385",
    "village": "GANDA SULI (GINDO SULI)",
    "postal_code": "38961"
  },
  {
    "village_code": "20558",
    "village": "KEPAHYANG",
    "postal_code": "38961"
  },
  {
    "village_code": "20805",
    "village": "PADANG JATI",
    "postal_code": "38961"
  },
  {
    "village_code": "21005",
    "village": "PULANG PANGGUNG",
    "postal_code": "38961"
  },
  {
    "village_code": "21435",
    "village": "TANJUNG BERINGIN",
    "postal_code": "38961"
  },
  {
    "village_code": "21551",
    "village": "TUGUK (PUGUK)",
    "postal_code": "38961"
  },
  {
    "village_code": "21584",
    "village": "UMBUL",
    "postal_code": "38961"
  }
]