[
  {
    "village_code": "15556",
    "village": "BUNGA TANJUNG",
    "postal_code": "36555"
  },
  {
    "village_code": "15934",
    "village": "LUBUK TERENTANG",
    "postal_code": "36555"
  },
  {
    "village_code": "15940",
    "village": "MAKMUR JAYA",
    "postal_code": "36555"
  },
  {
    "village_code": "15946",
    "village": "MANDALA JAYA",
    "postal_code": "36555"
  },
  {
    "village_code": "15974",
    "village": "MEKAR JAYA",
    "postal_code": "36555"
  },
  {
    "village_code": "16068",
    "village": "MUNTIALO",
    "postal_code": "36555"
  },
  {
    "village_code": "16190",
    "village": "PEMATANG BULUH",
    "postal_code": "36555"
  },
  {
    "village_code": "16199",
    "village": "PEMATANG LUMUT",
    "postal_code": "36555"
  },
  {
    "village_code": "16460",
    "village": "SERDANG JAYA",
    "postal_code": "36555"
  },
  {
    "village_code": "16676",
    "village": "SUNGAI TERA",
    "postal_code": "36555"
  },
  {
    "village_code": "16869",
    "village": "TELUKKULBI",
    "postal_code": "36555"
  },
  {
    "village_code": "16885",
    "village": "TERJUN GAJAH",
    "postal_code": "36555"
  }
]