[
  {
    "village_code": "15613",
    "village": "DUSUN KEBON / KEBUN",
    "postal_code": "36552"
  },
  {
    "village_code": "15679",
    "village": "KAMPUNG BARU",
    "postal_code": "36552"
  },
  {
    "village_code": "15902",
    "village": "LUBUK BERNAI",
    "postal_code": "36552"
  },
  {
    "village_code": "15911",
    "village": "LUBUK LAWAS",
    "postal_code": "36552"
  },
  {
    "village_code": "16369",
    "village": "RAWA MEDANG",
    "postal_code": "36552"
  },
  {
    "village_code": "16371",
    "village": "RAWANG KEMPAS",
    "postal_code": "36552"
  },
  {
    "village_code": "16522",
    "village": "SRI AGUNG",
    "postal_code": "36552"
  },
  {
    "village_code": "16529",
    "village": "SUBAN",
    "postal_code": "36552"
  },
  {
    "village_code": "16569",
    "village": "SUNGAI BADAR",
    "postal_code": "36552"
  },
  {
    "village_code": "16650",
    "village": "SUNGAI PENOBAN",
    "postal_code": "36552"
  },
  {
    "village_code": "16756",
    "village": "TANJUNG BOJO",
    "postal_code": "36552"
  }
]