[
  {
    "village_code": "12420",
    "village": "AIR / AIA DINGIN",
    "postal_code": "27419"
  },
  {
    "village_code": "12416",
    "village": "AIR MULYO (AURMULYO)",
    "postal_code": "27418"
  },
  {
    "village_code": "12845",
    "village": "KUBANG SIRAKUK / SIRAKUAK SELATAN",
    "postal_code": "27415"
  },
  {
    "village_code": "12846",
    "village": "KUBANG SIRAKUK / SIRAKUAK UTARA",
    "postal_code": "27415"
  },
  {
    "village_code": "12847",
    "village": "KUBANG TANGAH",
    "postal_code": "27413"
  },
  {
    "village_code": "12848",
    "village": "KUBANG UTARA SIKABU",
    "postal_code": "27412"
  },
  {
    "village_code": "12955",
    "village": "LUNTO BARAT",
    "postal_code": "27418"
  },
  {
    "village_code": "12956",
    "village": "LUNTO TIMUR",
    "postal_code": "27416"
  },
  {
    "village_code": "13127",
    "village": "PASAR",
    "postal_code": "27411"
  },
  {
    "village_code": "13121",
    "village": "PASAR KUBANG",
    "postal_code": "27415"
  },
  {
    "village_code": "13443",
    "village": "TANAH LAPANG",
    "postal_code": "27411"
  }
]