[
  {
    "village_code": "12532",
    "village": "BATU TANJUANG",
    "postal_code": "27443"
  },
  {
    "village_code": "12558",
    "village": "BUKIK GADANG",
    "postal_code": "27444"
  },
  {
    "village_code": "12604",
    "village": "DATAR MANSIANG",
    "postal_code": "27441"
  },
  {
    "village_code": "12860",
    "village": "KUMBAYAU",
    "postal_code": "27443"
  },
  {
    "village_code": "13194",
    "village": "RANTIH",
    "postal_code": "27449"
  },
  {
    "village_code": "13208",
    "village": "SALAK",
    "postal_code": "27447"
  },
  {
    "village_code": "13263",
    "village": "SIJANTANG KOTO",
    "postal_code": "27446"
  },
  {
    "village_code": "13269",
    "village": "SIKALANG",
    "postal_code": "27448"
  },
  {
    "village_code": "13427",
    "village": "TALAWI HILIR / HILIA",
    "postal_code": "27445"
  },
  {
    "village_code": "13428",
    "village": "TALAWI MUDIK / MUDIAK",
    "postal_code": "27444"
  },
  {
    "village_code": "13529",
    "village": "TUMPUAK TANGAH",
    "postal_code": "27442"
  }
]