[
  {
    "village_code": "6490",
    "village": "AEK GODANG",
    "postal_code": "22454"
  },
  {
    "village_code": "7023",
    "village": "BATU NAGODANG SIATAS",
    "postal_code": "22454"
  },
  {
    "village_code": "8169",
    "village": "HUTAJULU",
    "postal_code": "22454"
  },
  {
    "village_code": "8261",
    "village": "JANJI NAGODANG",
    "postal_code": "22454"
  },
  {
    "village_code": "9370",
    "village": "ONAN GANJANG",
    "postal_code": "22454"
  },
  {
    "village_code": "9716",
    "village": "PARBOTIHAN",
    "postal_code": "22454"
  },
  {
    "village_code": "9812",
    "village": "PARNAPA",
    "postal_code": "22454"
  },
  {
    "village_code": "10552",
    "village": "SAMPETUA",
    "postal_code": "22454"
  },
  {
    "village_code": "10569",
    "village": "SANGGARAN II",
    "postal_code": "22454"
  },
  {
    "village_code": "10936",
    "village": "SIBULUAN",
    "postal_code": "22454"
  },
  {
    "village_code": "11035",
    "village": "SIGALOGO",
    "postal_code": "22454"
  },
  {
    "village_code": "11104",
    "village": "SIHIKKIT",
    "postal_code": "22454"
  }
]