[
  {
    "village_code": "66031",
    "village": "ALLAKUANG",
    "postal_code": "91611"
  },
  {
    "village_code": "67029",
    "village": "KANIE",
    "postal_code": "91611"
  },
  {
    "village_code": "67168",
    "village": "LAKESSI",
    "postal_code": "91611"
  },
  {
    "village_code": "67267",
    "village": "LAUTANG BENTENG",
    "postal_code": "91611"
  },
  {
    "village_code": "67454",
    "village": "MAJELLING WATANG",
    "postal_code": "91611"
  },
  {
    "village_code": "67455",
    "village": "MAJJELLING",
    "postal_code": "91611"
  },
  {
    "village_code": "67932",
    "village": "PANGKAJENE",
    "postal_code": "91611"
  },
  {
    "village_code": "68255",
    "village": "RIJANG PITTU",
    "postal_code": "91611"
  },
  {
    "village_code": "68437",
    "village": "SEREANG",
    "postal_code": "91615"
  },
  {
    "village_code": "68571",
    "village": "TAKKALASI",
    "postal_code": "91611"
  },
  {
    "village_code": "68661",
    "village": "TANETE",
    "postal_code": "91611"
  },
  {
    "village_code": "68968",
    "village": "WALA",
    "postal_code": "91611"
  }
]