[
  {
    "village_code": "74879",
    "village": "AIR GARAM",
    "postal_code": "99571"
  },
  {
    "village_code": "75020",
    "village": "ANJELMA",
    "postal_code": "99571"
  },
  {
    "village_code": "75823",
    "village": "EROMA",
    "postal_code": "99571"
  },
  {
    "village_code": "75830",
    "village": "ESALIEN",
    "postal_code": "99571"
  },
  {
    "village_code": "76103",
    "village": "HESMAT",
    "postal_code": "99571"
  },
  {
    "village_code": "76107",
    "village": "HIHUNDES",
    "postal_code": "99571"
  },
  {
    "village_code": "76181",
    "village": "HUGLOT",
    "postal_code": "99571"
  },
  {
    "village_code": "76182",
    "village": "HUGUMA",
    "postal_code": "99571"
  },
  {
    "village_code": "76185",
    "village": "HUKEN",
    "postal_code": "99571"
  },
  {
    "village_code": "76195",
    "village": "HULUAGAIMA",
    "postal_code": "99571"
  },
  {
    "village_code": "76210",
    "village": "IBIROMA",
    "postal_code": "99571"
  },
  {
    "village_code": "76649",
    "village": "KILISE",
    "postal_code": "99571"
  },
  {
    "village_code": "76656",
    "village": "KIMA",
    "postal_code": "99571"
  },
  {
    "village_code": "77051",
    "village": "LUKULEMA",
    "postal_code": "99571"
  },
  {
    "village_code": "77665",
    "village": "OBOLMA",
    "postal_code": "99571"
  },
  {
    "village_code": "77845",
    "village": "PARELA",
    "postal_code": "99571"
  },
  {
    "village_code": "78039",
    "village": "PUSUAGA",
    "postal_code": "99571"
  },
  {
    "village_code": "78432",
    "village": "SOROH",
    "postal_code": "99571"
  },
  {
    "village_code": "78783",
    "village": "TUKUAREK",
    "postal_code": "99571"
  },
  {
    "village_code": "78963",
    "village": "WAKUNYAMA",
    "postal_code": "99571"
  },
  {
    "village_code": "79030",
    "village": "WANEM",
    "postal_code": "99571"
  },
  {
    "village_code": "79326",
    "village": "WULIK PUNUA",
    "postal_code": "99571"
  },
  {
    "village_code": "79391",
    "village": "YAGARELO",
    "postal_code": "99571"
  }
]