[
  {
    "village_code": "74950",
    "village": "AMDUA",
    "postal_code": "99578"
  },
  {
    "village_code": "75257",
    "village": "BASAL",
    "postal_code": "99578"
  },
  {
    "village_code": "75262",
    "village": "BATKUK",
    "postal_code": "99578"
  },
  {
    "village_code": "75541",
    "village": "DAGI",
    "postal_code": "99578"
  },
  {
    "village_code": "75638",
    "village": "DILDAU",
    "postal_code": "99578"
  },
  {
    "village_code": "76784",
    "village": "KOROPUN (KORUPUN)",
    "postal_code": "99578"
  },
  {
    "village_code": "77110",
    "village": "MALDUA",
    "postal_code": "99578"
  },
  {
    "village_code": "77389",
    "village": "MOO",
    "postal_code": "99578"
  },
  {
    "village_code": "77395",
    "village": "MOROME",
    "postal_code": "99578"
  },
  {
    "village_code": "78418",
    "village": "SOMSEK",
    "postal_code": "99578"
  },
  {
    "village_code": "79155",
    "village": "WEMIN",
    "postal_code": "99578"
  },
  {
    "village_code": "79440",
    "village": "YAMDUA",
    "postal_code": "99578"
  }
]