[
  {
    "village_code": "75034",
    "village": "APDAGMA (APDAKMA)",
    "postal_code": "99571"
  },
  {
    "village_code": "76067",
    "village": "HARAP",
    "postal_code": "99571"
  },
  {
    "village_code": "76731",
    "village": "KOLODOMA",
    "postal_code": "99571"
  },
  {
    "village_code": "77413",
    "village": "MUGI (MOGI)",
    "postal_code": "99571"
  },
  {
    "village_code": "77420",
    "village": "MUL",
    "postal_code": "99571"
  },
  {
    "village_code": "78104",
    "village": "SABIN",
    "postal_code": "99571"
  },
  {
    "village_code": "78167",
    "village": "SANGATUR",
    "postal_code": "99571"
  },
  {
    "village_code": "78441",
    "village": "SOWALING",
    "postal_code": "99571"
  },
  {
    "village_code": "78493",
    "village": "SUOK",
    "postal_code": "99571"
  },
  {
    "village_code": "78981",
    "village": "WALKUMA",
    "postal_code": "99571"
  },
  {
    "village_code": "79553",
    "village": "YEREKAMA",
    "postal_code": "99571"
  }
]