[
  {
    "village_code": "75519",
    "village": "BUSUPA",
    "postal_code": "99571"
  },
  {
    "village_code": "76156",
    "village": "HOMHOM",
    "postal_code": "99571"
  },
  {
    "village_code": "76342",
    "village": "JIBAK",
    "postal_code": "99571"
  },
  {
    "village_code": "76908",
    "village": "KWAKENORO",
    "postal_code": "99571"
  },
  {
    "village_code": "77443",
    "village": "MUNU",
    "postal_code": "99571"
  },
  {
    "village_code": "77660",
    "village": "OBIO",
    "postal_code": "99571"
  },
  {
    "village_code": "77862",
    "village": "PATIN",
    "postal_code": "99571"
  },
  {
    "village_code": "77879",
    "village": "PENIGIK",
    "postal_code": "99571"
  },
  {
    "village_code": "78010",
    "village": "PUGUN",
    "postal_code": "99571"
  },
  {
    "village_code": "78822",
    "village": "UJIN",
    "postal_code": "99571"
  },
  {
    "village_code": "79164",
    "village": "WENDAME",
    "postal_code": "99571"
  },
  {
    "village_code": "79383",
    "village": "YAGABO",
    "postal_code": "99571"
  },
  {
    "village_code": "79398",
    "village": "YAHUFA",
    "postal_code": "99571"
  }
]