[
  {
    "village_code": "75589",
    "village": "DEKAI",
    "postal_code": "99571"
  },
  {
    "village_code": "76574",
    "village": "KEIKEY",
    "postal_code": "99571"
  },
  {
    "village_code": "76682",
    "village": "KIRIBUN",
    "postal_code": "99571"
  },
  {
    "village_code": "76720",
    "village": "KOKAMU",
    "postal_code": "99571"
  },
  {
    "village_code": "76822",
    "village": "KUARI",
    "postal_code": "99571"
  },
  {
    "village_code": "76824",
    "village": "KUASERAMA",
    "postal_code": "99571"
  },
  {
    "village_code": "77219",
    "village": "MARUKU",
    "postal_code": "99571"
  },
  {
    "village_code": "77229",
    "village": "MASSI",
    "postal_code": "99571"
  },
  {
    "village_code": "77410",
    "village": "MUARA",
    "postal_code": "99571"
  },
  {
    "village_code": "78407",
    "village": "SOKAMU",
    "postal_code": "99571"
  },
  {
    "village_code": "78734",
    "village": "TOMAN I",
    "postal_code": "99571"
  },
  {
    "village_code": "78735",
    "village": "TOMAN II",
    "postal_code": "99571"
  }
]