[
  {
    "village_code": "76099",
    "village": "HEREAPINI (HERIAPINI)",
    "postal_code": "99582"
  },
  {
    "village_code": "76128",
    "village": "HOET",
    "postal_code": "99582"
  },
  {
    "village_code": "76154",
    "village": "HOMBOKI",
    "postal_code": "99582"
  },
  {
    "village_code": "76390",
    "village": "KABUKAL",
    "postal_code": "99582"
  },
  {
    "village_code": "76673",
    "village": "KINKUN",
    "postal_code": "99582"
  },
  {
    "village_code": "77283",
    "village": "MENETSING",
    "postal_code": "99582"
  },
  {
    "village_code": "77417",
    "village": "MUHUMU",
    "postal_code": "99582"
  },
  {
    "village_code": "77541",
    "village": "NELISA",
    "postal_code": "99582"
  },
  {
    "village_code": "77680",
    "village": "OHENA",
    "postal_code": "99582"
  },
  {
    "village_code": "77875",
    "village": "PELENTUM (PALENTUM)",
    "postal_code": "99582"
  },
  {
    "village_code": "78004",
    "village": "PUE",
    "postal_code": "99582"
  }
]