[
  {
    "village_code": "76100",
    "village": "HEREKI (HEREKY)",
    "postal_code": "99582"
  },
  {
    "village_code": "76981",
    "village": "LETFET",
    "postal_code": "99582"
  },
  {
    "village_code": "77276",
    "village": "MEMBAHAM (MIMBAHAM)",
    "postal_code": "99582"
  },
  {
    "village_code": "78128",
    "village": "SALAKMA",
    "postal_code": "99582"
  },
  {
    "village_code": "78156",
    "village": "SAMIYUL",
    "postal_code": "99582"
  },
  {
    "village_code": "78236",
    "village": "SEHELU",
    "postal_code": "99582"
  },
  {
    "village_code": "78547",
    "village": "TALAMBELA (TALEMPELA)",
    "postal_code": "99582"
  },
  {
    "village_code": "78807",
    "village": "UBALIHION",
    "postal_code": "99582"
  },
  {
    "village_code": "78965",
    "village": "WALAHAN",
    "postal_code": "99582"
  },
  {
    "village_code": "79019",
    "village": "WANAN (WANAM)",
    "postal_code": "99582"
  },
  {
    "village_code": "79240",
    "village": "WISOMY (WISOMI)",
    "postal_code": "99582"
  }
]