[
  {
    "village_code": "75194",
    "village": "BAIDUB",
    "postal_code": "99652"
  },
  {
    "village_code": "75287",
    "village": "BELBELAND",
    "postal_code": "99652"
  },
  {
    "village_code": "76396",
    "village": "KAFYAMKE",
    "postal_code": "99652"
  },
  {
    "village_code": "76483",
    "village": "KANDRAKAI",
    "postal_code": "99652"
  },
  {
    "village_code": "76667",
    "village": "KINDIKI",
    "postal_code": "99652"
  },
  {
    "village_code": "76680",
    "village": "KIRELI",
    "postal_code": "99652"
  },
  {
    "village_code": "76857",
    "village": "KUMAAF",
    "postal_code": "99652"
  },
  {
    "village_code": "77149",
    "village": "MANDEKMAN",
    "postal_code": "99652"
  },
  {
    "village_code": "77557",
    "village": "NGGAYU",
    "postal_code": "99652"
  },
  {
    "village_code": "78064",
    "village": "RAWAHAYU",
    "postal_code": "99652"
  },
  {
    "village_code": "78250",
    "village": "SELIL",
    "postal_code": "99652"
  }
]