[
  {
    "village_code": "75239",
    "village": "BANLI",
    "postal_code": "99655"
  },
  {
    "village_code": "75588",
    "village": "DEKA",
    "postal_code": "99655"
  },
  {
    "village_code": "76412",
    "village": "KAIMAAN (KIMAAM)",
    "postal_code": "99655"
  },
  {
    "village_code": "76442",
    "village": "KALILAM",
    "postal_code": "99655"
  },
  {
    "village_code": "76691",
    "village": "KIWORO",
    "postal_code": "99655"
  },
  {
    "village_code": "76743",
    "village": "KOMOLOM",
    "postal_code": "99655"
  },
  {
    "village_code": "76861",
    "village": "KUMBIS",
    "postal_code": "99655"
  },
  {
    "village_code": "77126",
    "village": "MAMBUM (MAMBAI)",
    "postal_code": "99655"
  },
  {
    "village_code": "78110",
    "village": "SABUDOM (SABUDON)",
    "postal_code": "99655"
  },
  {
    "village_code": "78636",
    "village": "TERI",
    "postal_code": "99655"
  },
  {
    "village_code": "78797",
    "village": "TURIRAM",
    "postal_code": "99655"
  },
  {
    "village_code": "79015",
    "village": "WANAM KEM",
    "postal_code": "99655"
  },
  {
    "village_code": "79288",
    "village": "WONER",
    "postal_code": "99655"
  }
]