[
  {
    "village_code": "25644",
    "village": "BOJONGMENGGER",
    "postal_code": "46271"
  },
  {
    "village_code": "26150",
    "village": "CIHARALANG",
    "postal_code": "46271"
  },
  {
    "village_code": "26219",
    "village": "CIJEUNGJING",
    "postal_code": "46271"
  },
  {
    "village_code": "26974",
    "village": "DEWASARI",
    "postal_code": "46271"
  },
  {
    "village_code": "27251",
    "village": "HANDAPHERANG",
    "postal_code": "46271"
  },
  {
    "village_code": "27685",
    "village": "KARANGANYAR",
    "postal_code": "46271"
  },
  {
    "village_code": "27725",
    "village": "KARANGKAMULYAN",
    "postal_code": "46271"
  },
  {
    "village_code": "27982",
    "village": "KERTABUMI",
    "postal_code": "46271"
  },
  {
    "village_code": "27983",
    "village": "KERTAHARJA",
    "postal_code": "46271"
  },
  {
    "village_code": "29072",
    "village": "PAMALAYAN",
    "postal_code": "46271"
  },
  {
    "village_code": "31017",
    "village": "UTAMA",
    "postal_code": "46271"
  }
]