[
  {
    "village_code": "64079",
    "village": "AMBESIA",
    "postal_code": "94476"
  },
  {
    "village_code": "64077",
    "village": "AMBESIA BARAT",
    "postal_code": "94476"
  },
  {
    "village_code": "64078",
    "village": "AMBESIA SELATAN",
    "postal_code": "94476"
  },
  {
    "village_code": "64243",
    "village": "BIGA",
    "postal_code": "94476"
  },
  {
    "village_code": "65143",
    "village": "OGOTOMUBU (OGOTUMUBU)",
    "postal_code": "94476"
  },
  {
    "village_code": "65614",
    "village": "SUPILOPONG",
    "postal_code": "94476"
  },
  {
    "village_code": "65733",
    "village": "TILUNG",
    "postal_code": "94476"
  },
  {
    "village_code": "65749",
    "village": "TINGKULANG",
    "postal_code": "94476"
  },
  {
    "village_code": "65831",
    "village": "TOMINI",
    "postal_code": "94476"
  },
  {
    "village_code": "65829",
    "village": "TOMINI BARAT",
    "postal_code": "94476"
  },
  {
    "village_code": "65830",
    "village": "TOMINI UTARA",
    "postal_code": "94476"
  }
]