[
  {
    "village_code": "64130",
    "village": "BAJO",
    "postal_code": "94479"
  },
  {
    "village_code": "64228",
    "village": "BERINGIN JAYA",
    "postal_code": "94479"
  },
  {
    "village_code": "64279",
    "village": "BOLANO",
    "postal_code": "94479"
  },
  {
    "village_code": "64276",
    "village": "BOLANO BARAT",
    "postal_code": "94479"
  },
  {
    "village_code": "64277",
    "village": "BOLANO TENGAH",
    "postal_code": "94479"
  },
  {
    "village_code": "64278",
    "village": "BOLANO UTARA",
    "postal_code": "94479"
  },
  {
    "village_code": "64799",
    "village": "LEMBAH BOMBAN",
    "postal_code": "94479"
  },
  {
    "village_code": "65520",
    "village": "SIDOMUKTI",
    "postal_code": "94479"
  },
  {
    "village_code": "65594",
    "village": "SRITABAANG",
    "postal_code": "94479"
  },
  {
    "village_code": "65957",
    "village": "WANAMUKTI",
    "postal_code": "94479"
  },
  {
    "village_code": "65955",
    "village": "WANAMUKTI BARAT",
    "postal_code": "94479"
  },
  {
    "village_code": "65956",
    "village": "WANAMUKTI UTARA",
    "postal_code": "94479"
  }
]