[
  {
    "village_code": "64245",
    "village": "BILALEA",
    "postal_code": "94479"
  },
  {
    "village_code": "64591",
    "village": "KARYA ABADI",
    "postal_code": "94479"
  },
  {
    "village_code": "64592",
    "village": "KARYA AGUNG",
    "postal_code": "94479"
  },
  {
    "village_code": "65125",
    "village": "NUNURANTAI",
    "postal_code": "94479"
  },
  {
    "village_code": "65214",
    "village": "PALAPI",
    "postal_code": "94479"
  },
  {
    "village_code": "65262",
    "village": "PARIA",
    "postal_code": "94479"
  },
  {
    "village_code": "65698",
    "village": "TAOPA",
    "postal_code": "94479"
  },
  {
    "village_code": "65696",
    "village": "TAOPA BARAT",
    "postal_code": "94479"
  },
  {
    "village_code": "65697",
    "village": "TAOPA UTARA",
    "postal_code": "94479"
  },
  {
    "village_code": "65837",
    "village": "TOMPO",
    "postal_code": "94479"
  },
  {
    "village_code": "65888",
    "village": "TULADENGGI SIBATANG",
    "postal_code": "94479"
  }
]