[
  {
    "village_code": "64438",
    "village": "DONGGULU",
    "postal_code": "94474"
  },
  {
    "village_code": "64437",
    "village": "DONGGULU SELATAN",
    "postal_code": "94474"
  },
  {
    "village_code": "64602",
    "village": "KASIMBAR",
    "postal_code": "94474"
  },
  {
    "village_code": "64599",
    "village": "KASIMBAR BARAT",
    "postal_code": "94474"
  },
  {
    "village_code": "64600",
    "village": "KASIMBAR PALAPI",
    "postal_code": "94474"
  },
  {
    "village_code": "64601",
    "village": "KASIMBAR SELATAN",
    "postal_code": "94474"
  },
  {
    "village_code": "64714",
    "village": "LABUAN DONGGULU",
    "postal_code": "94474"
  },
  {
    "village_code": "64729",
    "village": "LAEMANTA",
    "postal_code": "94474"
  },
  {
    "village_code": "65348",
    "village": "POSONA",
    "postal_code": "94474"
  },
  {
    "village_code": "65535",
    "village": "SILAMPAYANG",
    "postal_code": "94474"
  },
  {
    "village_code": "65711",
    "village": "TAVALO",
    "postal_code": "94474"
  }
]