[
  {
    "village_code": "69222",
    "village": "BANDAEHA",
    "postal_code": "93353"
  },
  {
    "village_code": "69277",
    "village": "BENDEWUTA",
    "postal_code": "93353"
  },
  {
    "village_code": "69593",
    "village": "KOTA MAJU",
    "postal_code": "93353"
  },
  {
    "village_code": "69780",
    "village": "LAMEORU",
    "postal_code": "93353"
  },
  {
    "village_code": "69817",
    "village": "LANDAWE",
    "postal_code": "93353"
  },
  {
    "village_code": "69898",
    "village": "LAROONAHA",
    "postal_code": "93353"
  },
  {
    "village_code": "69982",
    "village": "LINOMIOYO (LINOMOIYO)",
    "postal_code": "93353"
  },
  {
    "village_code": "70175",
    "village": "MOPUTE",
    "postal_code": "93353"
  },
  {
    "village_code": "70268",
    "village": "PAKA INDAH",
    "postal_code": "93353"
  },
  {
    "village_code": "70433",
    "village": "PUUHIALU",
    "postal_code": "93353"
  },
  {
    "village_code": "70548",
    "village": "SAMBANDETE",
    "postal_code": "93353"
  },
  {
    "village_code": "70639",
    "village": "TADOLOIYO (TODOLOIYO)",
    "postal_code": "93353"
  },
  {
    "village_code": "70761",
    "village": "TINONDO",
    "postal_code": "93353"
  },
  {
    "village_code": "70787",
    "village": "TODOLOIYO TRANS",
    "postal_code": "93353"
  },
  {
    "village_code": "70940",
    "village": "WALANDAWE",
    "postal_code": "93353"
  },
  {
    "village_code": "71113",
    "village": "WIWIRANO",
    "postal_code": "93353"
  }
]