[
  {
    "village_code": "69357",
    "village": "CULAMBATU",
    "postal_code": "93353"
  },
  {
    "village_code": "69414",
    "village": "HIALU UTAMA",
    "postal_code": "93353"
  },
  {
    "village_code": "69561",
    "village": "KOLOSUA",
    "postal_code": "93353"
  },
  {
    "village_code": "69606",
    "village": "KURATAO",
    "postal_code": "93353"
  },
  {
    "village_code": "69797",
    "village": "LAMONAE",
    "postal_code": "93353"
  },
  {
    "village_code": "69796",
    "village": "LAMONAE UTAMA",
    "postal_code": "93353"
  },
  {
    "village_code": "69806",
    "village": "LAMPARINGA",
    "postal_code": "93353"
  },
  {
    "village_code": "69816",
    "village": "LANDAWE UTAMA",
    "postal_code": "93353"
  },
  {
    "village_code": "69819",
    "village": "LANDIWO",
    "postal_code": "93353"
  },
  {
    "village_code": "69896",
    "village": "LAROMPANA",
    "postal_code": "93353"
  },
  {
    "village_code": "69929",
    "village": "LAUMOSO",
    "postal_code": "93353"
  },
  {
    "village_code": "70014",
    "village": "MACUMELEWE (WACUMELEWE)",
    "postal_code": "93353"
  },
  {
    "village_code": "70065",
    "village": "MATA BENUA",
    "postal_code": "93353"
  },
  {
    "village_code": "70075",
    "village": "MATA OSOLE (MOLORE)",
    "postal_code": "93353"
  },
  {
    "village_code": "70259",
    "village": "PADALERE",
    "postal_code": "93353"
  },
  {
    "village_code": "70258",
    "village": "PADALERE UTAMA",
    "postal_code": "93353"
  },
  {
    "village_code": "70361",
    "village": "POLO-POLORA",
    "postal_code": "93353"
  },
  {
    "village_code": "70369",
    "village": "PONDOA",
    "postal_code": "93353"
  },
  {
    "village_code": "70653",
    "village": "TAMBAKUA",
    "postal_code": "93353"
  },
  {
    "village_code": "70750",
    "village": "TETEWATU",
    "postal_code": "93353"
  },
  {
    "village_code": "70902",
    "village": "WACU PINODO",
    "postal_code": "93353"
  },
  {
    "village_code": "71069",
    "village": "WAWOHEO",
    "postal_code": "93353"
  },
  {
    "village_code": "71083",
    "village": "WAWONTOAHA",
    "postal_code": "93353"
  },
  {
    "village_code": "71096",
    "village": "WAWOSANGI",
    "postal_code": "93353"
  }
]