[
  {
    "village_code": "69502",
    "village": "KAPOLANO",
    "postal_code": "93352"
  },
  {
    "village_code": "69552",
    "village": "KOKAPI",
    "postal_code": "93352"
  },
  {
    "village_code": "69670",
    "village": "LAIMEO",
    "postal_code": "93352"
  },
  {
    "village_code": "69698",
    "village": "LALEMBO",
    "postal_code": "93352"
  },
  {
    "village_code": "70107",
    "village": "MATANGGONAWE",
    "postal_code": "93352"
  },
  {
    "village_code": "70398",
    "village": "PUDONGGALA UTAMA",
    "postal_code": "93352"
  },
  {
    "village_code": "70429",
    "village": "PUUDONGGALA (PUDONGGALA)",
    "postal_code": "93352"
  },
  {
    "village_code": "70452",
    "village": "PUUPI",
    "postal_code": "93352"
  },
  {
    "village_code": "70582",
    "village": "SAWA",
    "postal_code": "93352"
  },
  {
    "village_code": "70674",
    "village": "TANGAUNA (TONGAUNA)",
    "postal_code": "93352"
  },
  {
    "village_code": "70781",
    "village": "TOBI MEITA",
    "postal_code": "93352"
  },
  {
    "village_code": "70874",
    "village": "ULU SAWA",
    "postal_code": "93352"
  }
]