[
  {
    "village_code": "79669",
    "village": "ACEMO",
    "postal_code": "98315"
  },
  {
    "village_code": "79713",
    "village": "ANDAY",
    "postal_code": "98315"
  },
  {
    "village_code": "79716",
    "village": "ANGRISI (ANGGRESI)",
    "postal_code": "98315"
  },
  {
    "village_code": "79888",
    "village": "DIHARA",
    "postal_code": "98315"
  },
  {
    "village_code": "79895",
    "village": "DOBUT (DOOPUD / DOPUT)",
    "postal_code": "98315"
  },
  {
    "village_code": "80179",
    "village": "KATEBU",
    "postal_code": "98315"
  },
  {
    "village_code": "80397",
    "village": "MARUNI",
    "postal_code": "98315"
  },
  {
    "village_code": "80401",
    "village": "MASIEPI (MASYEPI)",
    "postal_code": "98315"
  },
  {
    "village_code": "80496",
    "village": "MISAPMEYSI",
    "postal_code": "98315"
  },
  {
    "village_code": "80543",
    "village": "MUPI",
    "postal_code": "98315"
  },
  {
    "village_code": "80567",
    "village": "NGUNIBOUW (NGINIBOUW / NGINYBOU)",
    "postal_code": "98315"
  },
  {
    "village_code": "80571",
    "village": "NIMBIAUW (NIMBAUW)",
    "postal_code": "98315"
  },
  {
    "village_code": "80831",
    "village": "SOWI",
    "postal_code": "98315"
  },
  {
    "village_code": "81080",
    "village": "WARKOMI",
    "postal_code": "98315"
  },
  {
    "village_code": "81089",
    "village": "WARMUMI (WARMOMI)",
    "postal_code": "98315"
  },
  {
    "village_code": "81094",
    "village": "WARSUAMI (WASWAMI)",
    "postal_code": "98315"
  },
  {
    "village_code": "81098",
    "village": "WARURI (WELURI)",
    "postal_code": "98315"
  },
  {
    "village_code": "81101",
    "village": "WASAY (WASAI)",
    "postal_code": "98315"
  }
]