[
  {
    "village_code": "79738",
    "village": "ASAI",
    "postal_code": "98315"
  },
  {
    "village_code": "79842",
    "village": "BREMI",
    "postal_code": "98315"
  },
  {
    "village_code": "79852",
    "village": "CABAN DUA",
    "postal_code": "98315"
  },
  {
    "village_code": "80058",
    "village": "INDO OUFA",
    "postal_code": "98315"
  },
  {
    "village_code": "80070",
    "village": "INYA",
    "postal_code": "98315"
  },
  {
    "village_code": "80084",
    "village": "IRODUAS",
    "postal_code": "98315"
  },
  {
    "village_code": "80309",
    "village": "LEBAU",
    "postal_code": "98315"
  },
  {
    "village_code": "80369",
    "village": "MANDOPI",
    "postal_code": "98315"
  },
  {
    "village_code": "80420",
    "village": "MEBJI",
    "postal_code": "98315"
  },
  {
    "village_code": "80469",
    "village": "MEYES",
    "postal_code": "98315"
  },
  {
    "village_code": "80475",
    "village": "MEYUNFOKA",
    "postal_code": "98315"
  },
  {
    "village_code": "80536",
    "village": "MUBRAIDIBA",
    "postal_code": "98315"
  },
  {
    "village_code": "80537",
    "village": "MUBRI",
    "postal_code": "98315"
  },
  {
    "village_code": "80600",
    "village": "PAMI",
    "postal_code": "98315"
  },
  {
    "village_code": "80706",
    "village": "SAUBEBA",
    "postal_code": "98315"
  },
  {
    "village_code": "80724",
    "village": "SAYRO",
    "postal_code": "98315"
  },
  {
    "village_code": "80783",
    "village": "SINGGIMEBA",
    "postal_code": "98315"
  },
  {
    "village_code": "80885",
    "village": "TANAH RUBU",
    "postal_code": "98315"
  },
  {
    "village_code": "80910",
    "village": "TELUK MUBRI",
    "postal_code": "98315"
  },
  {
    "village_code": "81060",
    "village": "WARBEFOR",
    "postal_code": "98315"
  },
  {
    "village_code": "81219",
    "village": "YONGGAM",
    "postal_code": "98315"
  },
  {
    "village_code": "81221",
    "village": "YOOM I",
    "postal_code": "98315"
  },
  {
    "village_code": "81222",
    "village": "YOOM II",
    "postal_code": "98315"
  }
]