[
  {
    "village_code": "79743",
    "village": "ASKA",
    "postal_code": "98357"
  },
  {
    "village_code": "79758",
    "village": "AURMIOS",
    "postal_code": "98357"
  },
  {
    "village_code": "79841",
    "village": "BOWI SUBUR",
    "postal_code": "98357"
  },
  {
    "village_code": "80030",
    "village": "IGOR",
    "postal_code": "98357"
  },
  {
    "village_code": "80073",
    "village": "INYEI",
    "postal_code": "98357"
  },
  {
    "village_code": "80115",
    "village": "JOWEN",
    "postal_code": "98357"
  },
  {
    "village_code": "80132",
    "village": "KALI MERAH",
    "postal_code": "98357"
  },
  {
    "village_code": "80280",
    "village": "KOYANI (KOYAMI)",
    "postal_code": "98357"
  },
  {
    "village_code": "80324",
    "village": "MACUAN",
    "postal_code": "98357"
  },
  {
    "village_code": "80343",
    "village": "MAKWAN",
    "postal_code": "98357"
  },
  {
    "village_code": "80383",
    "village": "MANSABURI (SMARYAM)",
    "postal_code": "98357"
  },
  {
    "village_code": "80385",
    "village": "MANTEDI",
    "postal_code": "98357"
  },
  {
    "village_code": "80404",
    "village": "MASNI",
    "postal_code": "98357"
  },
  {
    "village_code": "80426",
    "village": "MEIFORGA",
    "postal_code": "98357"
  },
  {
    "village_code": "80436",
    "village": "MEMBOWI",
    "postal_code": "98357"
  },
  {
    "village_code": "80455",
    "village": "MEREJEMEG (MEREJNEG)",
    "postal_code": "98357"
  },
  {
    "village_code": "80468",
    "village": "MEYERUK",
    "postal_code": "98357"
  },
  {
    "village_code": "80472",
    "village": "MEYOF II",
    "postal_code": "98357"
  },
  {
    "village_code": "80528",
    "village": "MOWBJA (MOUBJA / MOBJA)",
    "postal_code": "98357"
  },
  {
    "village_code": "80533",
    "village": "MUARA PRAFI",
    "postal_code": "98357"
  },
  {
    "village_code": "80534",
    "village": "MUARA WARIORI",
    "postal_code": "98357"
  },
  {
    "village_code": "80616",
    "village": "PRAFI BARAT",
    "postal_code": "98357"
  },
  {
    "village_code": "80647",
    "village": "RIRINFOS",
    "postal_code": "98357"
  },
  {
    "village_code": "80739",
    "village": "SEMBAB",
    "postal_code": "98357"
  },
  {
    "village_code": "80767",
    "village": "SIBUNI",
    "postal_code": "98357"
  },
  {
    "village_code": "80851",
    "village": "SUMBER BOGA",
    "postal_code": "98357"
  },
  {
    "village_code": "80984",
    "village": "UNDI",
    "postal_code": "98357"
  },
  {
    "village_code": "80994",
    "village": "UREY",
    "postal_code": "98357"
  },
  {
    "village_code": "81045",
    "village": "WAMFOURA (WAM BOLA)",
    "postal_code": "98357"
  },
  {
    "village_code": "81077",
    "village": "WARIORI",
    "postal_code": "98357"
  },
  {
    "village_code": "81076",
    "village": "WARIORI INDAH",
    "postal_code": "98357"
  },
  {
    "village_code": "81211",
    "village": "YENSUM",
    "postal_code": "98357"
  },
  {
    "village_code": "81220",
    "village": "YONSORIBO (YEN SORIBO)",
    "postal_code": "98357"
  }
]