[
  {
    "village_code": "79889",
    "village": "DINDEY",
    "postal_code": "98352"
  },
  {
    "village_code": "79910",
    "village": "DUWIN (DUWIN UMSINI)",
    "postal_code": "98352"
  },
  {
    "village_code": "79987",
    "village": "GUEINTUY (GUENTUY)",
    "postal_code": "98352"
  },
  {
    "village_code": "80007",
    "village": "HINGK",
    "postal_code": "98352"
  },
  {
    "village_code": "80026",
    "village": "IBUWAU",
    "postal_code": "98352"
  },
  {
    "village_code": "80044",
    "village": "IMBOISRATI (IBOISRATI)",
    "postal_code": "98352"
  },
  {
    "village_code": "80056",
    "village": "INDISEY",
    "postal_code": "98352"
  },
  {
    "village_code": "80325",
    "village": "MADRAT",
    "postal_code": "98352"
  },
  {
    "village_code": "80445",
    "village": "MENIY (MENY)",
    "postal_code": "98352"
  },
  {
    "village_code": "80566",
    "village": "NGUNGGUEN",
    "postal_code": "98352"
  },
  {
    "village_code": "80569",
    "village": "NIMBAY",
    "postal_code": "98352"
  },
  {
    "village_code": "80810",
    "village": "SNAIMBOY",
    "postal_code": "98352"
  },
  {
    "village_code": "80827",
    "village": "SOTEA",
    "postal_code": "98352"
  },
  {
    "village_code": "80833",
    "village": "SRAYNDABEY (SRAINDABEY)",
    "postal_code": "98352"
  },
  {
    "village_code": "80842",
    "village": "SUBSAY",
    "postal_code": "98352"
  },
  {
    "village_code": "80884",
    "village": "TANAH MERAH",
    "postal_code": "98352"
  },
  {
    "village_code": "80979",
    "village": "UMCEN (UMCEM)",
    "postal_code": "98352"
  },
  {
    "village_code": "81085",
    "village": "WARMARE",
    "postal_code": "98352"
  }
]