[
  {
    "village_code": "40197",
    "village": "AENGTONGTONG",
    "postal_code": "69467"
  },
  {
    "village_code": "42597",
    "village": "JULUK",
    "postal_code": "69467"
  },
  {
    "village_code": "42796",
    "village": "KAMBINGAN TIMUR",
    "postal_code": "69467"
  },
  {
    "village_code": "43236",
    "village": "KEBUNDADAP BARAT",
    "postal_code": "69467"
  },
  {
    "village_code": "43237",
    "village": "KEBUNDADAP TIMUR",
    "postal_code": "69467"
  },
  {
    "village_code": "44064",
    "village": "LANGSAR",
    "postal_code": "69467"
  },
  {
    "village_code": "44675",
    "village": "MUANGAN",
    "postal_code": "69467"
  },
  {
    "village_code": "44729",
    "village": "NAMBAKOR",
    "postal_code": "69467"
  },
  {
    "village_code": "45140",
    "village": "PAGARBATU",
    "postal_code": "69467"
  },
  {
    "village_code": "46393",
    "village": "SAROKA",
    "postal_code": "69467"
  },
  {
    "village_code": "46395",
    "village": "SARONGGI",
    "postal_code": "69467"
  },
  {
    "village_code": "47629",
    "village": "TALANG",
    "postal_code": "69467"
  },
  {
    "village_code": "47785",
    "village": "TANAH MERAH",
    "postal_code": "69467"
  },
  {
    "village_code": "47853",
    "village": "TANJUNG",
    "postal_code": "69467"
  }
]