[
  {
    "village_code": "40457",
    "village": "BANA SARE",
    "postal_code": "69456"
  },
  {
    "village_code": "40739",
    "village": "BASOKA",
    "postal_code": "69456"
  },
  {
    "village_code": "41269",
    "village": "BUNBARAT",
    "postal_code": "69456"
  },
  {
    "village_code": "41668",
    "village": "DUKO",
    "postal_code": "69456"
  },
  {
    "village_code": "42669",
    "village": "KALEBENGAN",
    "postal_code": "69456"
  },
  {
    "village_code": "43005",
    "village": "KARANGNANGKA",
    "postal_code": "69456"
  },
  {
    "village_code": "44281",
    "village": "MANDALA",
    "postal_code": "69456"
  },
  {
    "village_code": "44399",
    "village": "MATANAIR",
    "postal_code": "69456"
  },
  {
    "village_code": "45228",
    "village": "PAKONDANG",
    "postal_code": "69456"
  },
  {
    "village_code": "46266",
    "village": "RUBARU",
    "postal_code": "69456"
  },
  {
    "village_code": "47749",
    "village": "TAMBAKSARI",
    "postal_code": "69456"
  }
]