[
  {
    "village_code": "40471",
    "village": "BANARESEP BARAT",
    "postal_code": "69461"
  },
  {
    "village_code": "40472",
    "village": "BANARESEP TIMUR",
    "postal_code": "69461"
  },
  {
    "village_code": "40965",
    "village": "BILAPORA REBA",
    "postal_code": "69461"
  },
  {
    "village_code": "41361",
    "village": "CANGKRENG",
    "postal_code": "69461"
  },
  {
    "village_code": "41526",
    "village": "DARAMESTA",
    "postal_code": "69461"
  },
  {
    "village_code": "41739",
    "village": "ELLAK DAYA",
    "postal_code": "69461"
  },
  {
    "village_code": "41740",
    "village": "ELLAK LAOK",
    "postal_code": "69461"
  },
  {
    "village_code": "42303",
    "village": "JAMBU",
    "postal_code": "69461"
  },
  {
    "village_code": "42794",
    "village": "KAMBINGAN BARAT",
    "postal_code": "69461"
  },
  {
    "village_code": "44143",
    "village": "LEMBUNG BARAT",
    "postal_code": "69461"
  },
  {
    "village_code": "44146",
    "village": "LEMBUNG TIMUR",
    "postal_code": "69461"
  },
  {
    "village_code": "44159",
    "village": "LENTENG BARAT",
    "postal_code": "69461"
  },
  {
    "village_code": "44160",
    "village": "LENTENG TIMUR",
    "postal_code": "69461"
  },
  {
    "village_code": "44417",
    "village": "MEDELAN",
    "postal_code": "69461"
  },
  {
    "village_code": "44633",
    "village": "MONCEK BARAT",
    "postal_code": "69461"
  },
  {
    "village_code": "44634",
    "village": "MONCEK TENGAH",
    "postal_code": "69461"
  },
  {
    "village_code": "44635",
    "village": "MONCEK TIMUR",
    "postal_code": "69461"
  },
  {
    "village_code": "45859",
    "village": "POREH",
    "postal_code": "69461"
  },
  {
    "village_code": "46638",
    "village": "SENDIR",
    "postal_code": "69461"
  },
  {
    "village_code": "47895",
    "village": "TAROGAN",
    "postal_code": "69461"
  }
]