[
  {
    "village_code": "40754",
    "village": "BATES",
    "postal_code": "69454"
  },
  {
    "village_code": "40776",
    "village": "BATUBELAH BARAT",
    "postal_code": "69454"
  },
  {
    "village_code": "40777",
    "village": "BATUBELAH TIMUR",
    "postal_code": "69454"
  },
  {
    "village_code": "41134",
    "village": "BRINGIN",
    "postal_code": "69454"
  },
  {
    "village_code": "41538",
    "village": "DASUK BARAT",
    "postal_code": "69454"
  },
  {
    "village_code": "41539",
    "village": "DASUK LAOK",
    "postal_code": "69454"
  },
  {
    "village_code": "41540",
    "village": "DASUK TIMUR",
    "postal_code": "69454"
  },
  {
    "village_code": "42457",
    "village": "JELBUDAN",
    "postal_code": "69454"
  },
  {
    "village_code": "43240",
    "village": "KECER",
    "postal_code": "69454"
  },
  {
    "village_code": "43625",
    "village": "KERTA BARAT",
    "postal_code": "69454"
  },
  {
    "village_code": "43626",
    "village": "KERTA TIMUR",
    "postal_code": "69454"
  },
  {
    "village_code": "44337",
    "village": "MANTAJUN",
    "postal_code": "69454"
  },
  {
    "village_code": "45058",
    "village": "NYAPAR",
    "postal_code": "69454"
  },
  {
    "village_code": "46544",
    "village": "SEMAAN",
    "postal_code": "69454"
  },
  {
    "village_code": "46938",
    "village": "SLOPENG",
    "postal_code": "69454"
  }
]