[
  {
    "village_code": "58780",
    "village": "AKAR BAGANTUNG",
    "postal_code": "70617"
  },
  {
    "village_code": "58781",
    "village": "AKAR BARU",
    "postal_code": "70617"
  },
  {
    "village_code": "58841",
    "village": "ANTASAN SENOR",
    "postal_code": "70617"
  },
  {
    "village_code": "58840",
    "village": "ANTASAN SENOR ILIR",
    "postal_code": "70617"
  },
  {
    "village_code": "59180",
    "village": "DALAM PAGAR",
    "postal_code": "70617"
  },
  {
    "village_code": "59179",
    "village": "DALAM PAGAR ULU",
    "postal_code": "70617"
  },
  {
    "village_code": "59536",
    "village": "KERAMAT",
    "postal_code": "70617"
  },
  {
    "village_code": "59533",
    "village": "KERAMAT BARU",
    "postal_code": "70617"
  },
  {
    "village_code": "59793",
    "village": "MEKAR",
    "postal_code": "70617"
  },
  {
    "village_code": "59795",
    "village": "MELAYU ILIR",
    "postal_code": "70617"
  },
  {
    "village_code": "59796",
    "village": "MELAYU TENGAH",
    "postal_code": "70617"
  },
  {
    "village_code": "59797",
    "village": "MELAYU ULU",
    "postal_code": "70617"
  },
  {
    "village_code": "60035",
    "village": "PEKAUMAN",
    "postal_code": "70617"
  },
  {
    "village_code": "60032",
    "village": "PEKAUMAN DALAM",
    "postal_code": "70617"
  },
  {
    "village_code": "60033",
    "village": "PEKAUMAN ULU",
    "postal_code": "70617"
  },
  {
    "village_code": "60048",
    "village": "PEMATANG BARU",
    "postal_code": "70617"
  },
  {
    "village_code": "60299",
    "village": "SEI / SUNGAI KITANO",
    "postal_code": "70617"
  },
  {
    "village_code": "60542",
    "village": "TAMBAK ANYAR",
    "postal_code": "70617"
  },
  {
    "village_code": "60540",
    "village": "TAMBAK ANYAR ILIR",
    "postal_code": "70617"
  },
  {
    "village_code": "60541",
    "village": "TAMBAK ANYAR ULU",
    "postal_code": "70617"
  }
]