[
  {
    "village_code": "58788",
    "village": "ALIMUKIM",
    "postal_code": "70674"
  },
  {
    "village_code": "58836",
    "village": "ANTARAKU",
    "postal_code": "70674"
  },
  {
    "village_code": "58859",
    "village": "ATI IM",
    "postal_code": "70674"
  },
  {
    "village_code": "59074",
    "village": "BENTENG",
    "postal_code": "70674"
  },
  {
    "village_code": "59545",
    "village": "KERTAK EMPAT",
    "postal_code": "70674"
  },
  {
    "village_code": "59641",
    "village": "LOBANG BARU",
    "postal_code": "70674"
  },
  {
    "village_code": "59666",
    "village": "LOKTUNGGUL",
    "postal_code": "70674"
  },
  {
    "village_code": "59676",
    "village": "LUMPANGI",
    "postal_code": "70674"
  },
  {
    "village_code": "59732",
    "village": "MANGKAUK",
    "postal_code": "70674"
  },
  {
    "village_code": "59739",
    "village": "MANIAPUN",
    "postal_code": "70674"
  },
  {
    "village_code": "59980",
    "village": "PANYIURAN",
    "postal_code": "70674"
  },
  {
    "village_code": "60074",
    "village": "PENGARON",
    "postal_code": "70674"
  }
]