[
  {
    "village_code": "58795",
    "village": "ALUH ALUH KECIL",
    "postal_code": "70655"
  },
  {
    "village_code": "58794",
    "village": "ALUH ALUH KECIL MUARA",
    "postal_code": "70655"
  },
  {
    "village_code": "58796",
    "village": "ALUH-ALUH BESAR",
    "postal_code": "70655"
  },
  {
    "village_code": "58897",
    "village": "BAKAMBAT",
    "postal_code": "70655"
  },
  {
    "village_code": "58913",
    "village": "BALIMAU",
    "postal_code": "70655"
  },
  {
    "village_code": "59157",
    "village": "BUNIPAH",
    "postal_code": "70655"
  },
  {
    "village_code": "59304",
    "village": "HANDIL BARU",
    "postal_code": "70655"
  },
  {
    "village_code": "59307",
    "village": "HANDIL BUJUR",
    "postal_code": "70655"
  },
  {
    "village_code": "59574",
    "village": "KUIN BESAR",
    "postal_code": "70655"
  },
  {
    "village_code": "59576",
    "village": "KUIN KECIL",
    "postal_code": "70655"
  },
  {
    "village_code": "59596",
    "village": "LABAT MUARA",
    "postal_code": "70655"
  },
  {
    "village_code": "60068",
    "village": "PEMURUS",
    "postal_code": "70655"
  },
  {
    "village_code": "60097",
    "village": "PODOK",
    "postal_code": "70655"
  },
  {
    "village_code": "60110",
    "village": "PULANTAN",
    "postal_code": "70655"
  },
  {
    "village_code": "60323",
    "village": "SEI / SUNGAI MUSANG",
    "postal_code": "70655"
  },
  {
    "village_code": "60453",
    "village": "SIMPANG WARGA",
    "postal_code": "70655"
  },
  {
    "village_code": "60452",
    "village": "SIMPANG WARGA DALAM",
    "postal_code": "70655"
  },
  {
    "village_code": "60601",
    "village": "TANIPAH",
    "postal_code": "70655"
  },
  {
    "village_code": "60711",
    "village": "TERAPU",
    "postal_code": "70655"
  }
]