[
  {
    "village_code": "58858",
    "village": "ASTAMBUL",
    "postal_code": "70671"
  },
  {
    "village_code": "58857",
    "village": "ASTAMBUL SEBERANG",
    "postal_code": "70671"
  },
  {
    "village_code": "58941",
    "village": "BANUA ANYAR I (BENUA ANYAR I)",
    "postal_code": "70671"
  },
  {
    "village_code": "58942",
    "village": "BANUA ANYAR II (BENUA ANYAR II)",
    "postal_code": "70671"
  },
  {
    "village_code": "59191",
    "village": "DANAU SALAK",
    "postal_code": "70671"
  },
  {
    "village_code": "59383",
    "village": "JATI",
    "postal_code": "70671"
  },
  {
    "village_code": "59424",
    "village": "KALAMPAYAN",
    "postal_code": "70671"
  },
  {
    "village_code": "59423",
    "village": "KALAMPAYAN ULU",
    "postal_code": "70671"
  },
  {
    "village_code": "59430",
    "village": "KALIUKAN",
    "postal_code": "70671"
  },
  {
    "village_code": "59519",
    "village": "KELAMPAIAN ILIR",
    "postal_code": "70671"
  },
  {
    "village_code": "59632",
    "village": "LIMAMAR",
    "postal_code": "70671"
  },
  {
    "village_code": "59658",
    "village": "LOKGABANG",
    "postal_code": "70671"
  },
  {
    "village_code": "59826",
    "village": "MUNGGU RAYA",
    "postal_code": "70671"
  },
  {
    "village_code": "60002",
    "village": "PASAR JATI",
    "postal_code": "70671"
  },
  {
    "village_code": "60052",
    "village": "PEMATANG HAMBAWANG",
    "postal_code": "70671"
  },
  {
    "village_code": "60093",
    "village": "PINGARAN ILIR",
    "postal_code": "70671"
  },
  {
    "village_code": "60094",
    "village": "PINGARAN ULU",
    "postal_code": "70671"
  },
  {
    "village_code": "60247",
    "village": "SEI / SUNGAI ALAT",
    "postal_code": "70671"
  },
  {
    "village_code": "60389",
    "village": "SEI / SUNGAI TUAN ILIR",
    "postal_code": "70671"
  },
  {
    "village_code": "60390",
    "village": "SEI / SUNGAI TUAN ULU",
    "postal_code": "70671"
  },
  {
    "village_code": "60547",
    "village": "TAMBAK DANAU",
    "postal_code": "70671"
  },
  {
    "village_code": "60569",
    "village": "TAMBANGAN",
    "postal_code": "70671"
  }
]