[
  {
    "village_code": "59067",
    "village": "BELIMBING BARU",
    "postal_code": "70675"
  },
  {
    "village_code": "59068",
    "village": "BELIMBING LAMA",
    "postal_code": "70675"
  },
  {
    "village_code": "59276",
    "village": "HAKIM MAKMUR",
    "postal_code": "70675"
  },
  {
    "village_code": "59416",
    "village": "KAHELAAN",
    "postal_code": "70675"
  },
  {
    "village_code": "59582",
    "village": "KUPANG REJO",
    "postal_code": "70675"
  },
  {
    "village_code": "59901",
    "village": "PAKUTIK",
    "postal_code": "70675"
  },
  {
    "village_code": "60159",
    "village": "RANTAU BAKULA",
    "postal_code": "70675"
  },
  {
    "village_code": "60179",
    "village": "RANTAU NANGKA",
    "postal_code": "70675"
  },
  {
    "village_code": "60341",
    "village": "SEI / SUNGAI PINANG",
    "postal_code": "70675"
  },
  {
    "village_code": "60483",
    "village": "SUMBER BARU",
    "postal_code": "70675"
  },
  {
    "village_code": "60484",
    "village": "SUMBER HARAPAN",
    "postal_code": "70675"
  }
]