[
  {
    "village_code": "52202",
    "village": "BATAJAWA",
    "postal_code": "86452"
  },
  {
    "village_code": "52453",
    "village": "DARIWALI",
    "postal_code": "86452"
  },
  {
    "village_code": "53504",
    "village": "MANUBHARA",
    "postal_code": "86452"
  },
  {
    "village_code": "53764",
    "village": "NARUWOLO",
    "postal_code": "86452"
  },
  {
    "village_code": "53762",
    "village": "NARUWOLO I",
    "postal_code": "86452"
  },
  {
    "village_code": "53763",
    "village": "NARUWOLO II",
    "postal_code": "86452"
  },
  {
    "village_code": "53821",
    "village": "NENOWEA",
    "postal_code": "86452"
  },
  {
    "village_code": "53881",
    "village": "NIO LEWA",
    "postal_code": "86452"
  },
  {
    "village_code": "54765",
    "village": "TIWORIWU",
    "postal_code": "86452"
  },
  {
    "village_code": "54763",
    "village": "TIWORIWU I",
    "postal_code": "86452"
  },
  {
    "village_code": "54764",
    "village": "TIWORIWU II",
    "postal_code": "86452"
  },
  {
    "village_code": "55070",
    "village": "WATUMANU",
    "postal_code": "86452"
  }
]