[
  {
    "village_code": "52220",
    "village": "BAWARANI",
    "postal_code": "86461"
  },
  {
    "village_code": "52326",
    "village": "BOBA",
    "postal_code": "86461"
  },
  {
    "village_code": "52325",
    "village": "BOBA I",
    "postal_code": "86461"
  },
  {
    "village_code": "53001",
    "village": "KEZEWEA",
    "postal_code": "86461"
  },
  {
    "village_code": "53886",
    "village": "NIRMALA",
    "postal_code": "86461"
  },
  {
    "village_code": "54327",
    "village": "RADAMASA",
    "postal_code": "86461"
  },
  {
    "village_code": "54468",
    "village": "SADHA",
    "postal_code": "86461"
  },
  {
    "village_code": "54624",
    "village": "TAKATUNGA",
    "postal_code": "86461"
  },
  {
    "village_code": "54954",
    "village": "WAGOWELA",
    "postal_code": "86461"
  },
  {
    "village_code": "55081",
    "village": "WATUSIPI",
    "postal_code": "86461"
  },
  {
    "village_code": "55133",
    "village": "WERE II",
    "postal_code": "86461"
  },
  {
    "village_code": "55134",
    "village": "WERE III",
    "postal_code": "86461"
  }
]