[
  {
    "village_code": "52631",
    "village": "GENAMERE",
    "postal_code": "86413"
  },
  {
    "village_code": "52825",
    "village": "INEGENA",
    "postal_code": "86413"
  },
  {
    "village_code": "52826",
    "village": "INELIKA",
    "postal_code": "86413"
  },
  {
    "village_code": "53688",
    "village": "NABELENA",
    "postal_code": "86413"
  },
  {
    "village_code": "54862",
    "village": "TURA MURI",
    "postal_code": "86413"
  },
  {
    "village_code": "54892",
    "village": "ULUWAE",
    "postal_code": "86413"
  },
  {
    "village_code": "54890",
    "village": "ULUWAE I",
    "postal_code": "86413"
  },
  {
    "village_code": "54891",
    "village": "ULUWAE II",
    "postal_code": "86413"
  },
  {
    "village_code": "54953",
    "village": "WAEWEA",
    "postal_code": "86413"
  },
  {
    "village_code": "55067",
    "village": "WATUKAPU",
    "postal_code": "86413"
  },
  {
    "village_code": "55175",
    "village": "WOLOLIKA",
    "postal_code": "86413"
  }
]