[
  {
    "village_code": "66067",
    "village": "ARIANG",
    "postal_code": "91811"
  },
  {
    "village_code": "66262",
    "village": "BATU PAPAN",
    "postal_code": "91813"
  },
  {
    "village_code": "66399",
    "village": "BOMBONGAN",
    "postal_code": "91811"
  },
  {
    "village_code": "66594",
    "village": "BOTANG",
    "postal_code": "91817"
  },
  {
    "village_code": "66689",
    "village": "BUNTU BURAKE",
    "postal_code": "91817"
  },
  {
    "village_code": "67001",
    "village": "KAMALI PENTALLUAN",
    "postal_code": "91817"
  },
  {
    "village_code": "67211",
    "village": "LAMUNAN",
    "postal_code": "91811"
  },
  {
    "village_code": "67236",
    "village": "LAPANDAN",
    "postal_code": "91817"
  },
  {
    "village_code": "67280",
    "village": "LEA",
    "postal_code": "91817"
  },
  {
    "village_code": "67530",
    "village": "MANGGAU",
    "postal_code": "91814"
  },
  {
    "village_code": "67943",
    "village": "PANTAN",
    "postal_code": "91811"
  },
  {
    "village_code": "68223",
    "village": "RANTE",
    "postal_code": "91817"
  },
  {
    "village_code": "68625",
    "village": "TAMPO MAKALE",
    "postal_code": "91817"
  },
  {
    "village_code": "68695",
    "village": "TARONGKO",
    "postal_code": "91811"
  },
  {
    "village_code": "68842",
    "village": "TONDON MAMULLU",
    "postal_code": "91817"
  }
]