[
  {
    "village_code": "66310",
    "village": "BENTENG DEATA",
    "postal_code": "91871"
  },
  {
    "village_code": "66337",
    "village": "BENTENGAMBESO",
    "postal_code": "91871"
  },
  {
    "village_code": "66698",
    "village": "BUNTU LIMBONG",
    "postal_code": "91871"
  },
  {
    "village_code": "66708",
    "village": "BUNTU TABANG",
    "postal_code": "91871"
  },
  {
    "village_code": "66848",
    "village": "GANDANGBATU",
    "postal_code": "91871"
  },
  {
    "village_code": "66856",
    "village": "GARASSIK",
    "postal_code": "91871"
  },
  {
    "village_code": "66946",
    "village": "KADUAJA",
    "postal_code": "91871"
  },
  {
    "village_code": "67704",
    "village": "MEBALI",
    "postal_code": "91871"
  },
  {
    "village_code": "68080",
    "village": "PEMANUKAN",
    "postal_code": "91871"
  },
  {
    "village_code": "68095",
    "village": "PERINDINGAN",
    "postal_code": "91871"
  },
  {
    "village_code": "68329",
    "village": "SALUBARANI",
    "postal_code": "91871"
  },
  {
    "village_code": "68460",
    "village": "SILLANAN",
    "postal_code": "91871"
  }
]