[
  {
    "village_code": "79682",
    "village": "AIGA",
    "postal_code": "98358"
  },
  {
    "village_code": "79820",
    "village": "BINGRAYUD (BINGGARUD)",
    "postal_code": "98358"
  },
  {
    "village_code": "79821",
    "village": "BINGWAIMOD (BIGWAIMUD)",
    "postal_code": "98358"
  },
  {
    "village_code": "79854",
    "village": "CATUBOUW",
    "postal_code": "98358"
  },
  {
    "village_code": "79860",
    "village": "COIJUT (COIJUD)",
    "postal_code": "98358"
  },
  {
    "village_code": "80027",
    "village": "IDEMAI",
    "postal_code": "98358"
  },
  {
    "village_code": "80033",
    "village": "IJIGREK (IJIGREG)",
    "postal_code": "98358"
  },
  {
    "village_code": "80038",
    "village": "IMANDRIGO",
    "postal_code": "98358"
  },
  {
    "village_code": "80110",
    "village": "JIM",
    "postal_code": "98358"
  },
  {
    "village_code": "80183",
    "village": "KAUNGWAM",
    "postal_code": "98358"
  },
  {
    "village_code": "80374",
    "village": "MANGGESUK",
    "postal_code": "98358"
  },
  {
    "village_code": "80478",
    "village": "MIEICOMTI (MIEY COMTY / MIEYCOMTI)",
    "postal_code": "98358"
  },
  {
    "village_code": "80481",
    "village": "MIHIJ",
    "postal_code": "98358"
  },
  {
    "village_code": "80487",
    "village": "MINHOU (MIHOU)",
    "postal_code": "98358"
  },
  {
    "village_code": "80488",
    "village": "MINMO",
    "postal_code": "98358"
  },
  {
    "village_code": "80555",
    "village": "NDABOUW",
    "postal_code": "98358"
  },
  {
    "village_code": "80807",
    "village": "SLOMIOU",
    "postal_code": "98358"
  },
  {
    "village_code": "80828",
    "village": "SOUDIN",
    "postal_code": "98358"
  },
  {
    "village_code": "80845",
    "village": "SUGEMAH (SUGEMEH)",
    "postal_code": "98358"
  },
  {
    "village_code": "80922",
    "village": "TIMTOU (TIMTOUW)",
    "postal_code": "98358"
  },
  {
    "village_code": "80988",
    "village": "UNTI",
    "postal_code": "98358"
  }
]