[
  {
    "village_code": "79719",
    "village": "ANUK",
    "postal_code": "98359"
  },
  {
    "village_code": "79901",
    "village": "DUGUHANI (DUGAHANI)",
    "postal_code": "98359"
  },
  {
    "village_code": "80071",
    "village": "INYAUB",
    "postal_code": "98359"
  },
  {
    "village_code": "80253",
    "village": "KOBREY",
    "postal_code": "98359"
  },
  {
    "village_code": "80273",
    "village": "KOPO",
    "postal_code": "98359"
  },
  {
    "village_code": "80278",
    "village": "KOSTERA",
    "postal_code": "98359"
  },
  {
    "village_code": "80442",
    "village": "MENESRIJ",
    "postal_code": "98359"
  },
  {
    "village_code": "80709",
    "village": "SAUGEMEBA",
    "postal_code": "98359"
  },
  {
    "village_code": "80855",
    "village": "SUNGEDES (SUNGUDES)",
    "postal_code": "98359"
  },
  {
    "village_code": "80857",
    "village": "SURUREY (SURURAI)",
    "postal_code": "98359"
  },
  {
    "village_code": "80939",
    "village": "TOMSTERA",
    "postal_code": "98359"
  },
  {
    "village_code": "80956",
    "village": "TUHUBEA (DUHUBEYA)",
    "postal_code": "98359"
  }
]