[
  {
    "village_code": "79731",
    "village": "ARION (ARYON)",
    "postal_code": "98357"
  },
  {
    "village_code": "79853",
    "village": "CANGOISI",
    "postal_code": "98357"
  },
  {
    "village_code": "79882",
    "village": "DEMUNTI",
    "postal_code": "98357"
  },
  {
    "village_code": "79990",
    "village": "GUWEUTI (GUEIUTI / GUWEI UTI)",
    "postal_code": "98357"
  },
  {
    "village_code": "79991",
    "village": "GWEIPINGBAI (GUEIPINBAI)",
    "postal_code": "98357"
  },
  {
    "village_code": "80005",
    "village": "HEATIE BOUW (HAKTIEBOU)",
    "postal_code": "98357"
  },
  {
    "village_code": "80020",
    "village": "HUMEYSI (HUMEISI)",
    "postal_code": "98357"
  },
  {
    "village_code": "80035",
    "village": "IKIMABOW (IKIMABOU)",
    "postal_code": "98357"
  },
  {
    "village_code": "80201",
    "village": "KISAP",
    "postal_code": "98357"
  },
  {
    "village_code": "80298",
    "village": "KWAIYEHEP",
    "postal_code": "98357"
  },
  {
    "village_code": "80304",
    "village": "KWOK I",
    "postal_code": "98357"
  },
  {
    "village_code": "80305",
    "village": "KWOK II (KWOKWISNGUNG)",
    "postal_code": "98357"
  },
  {
    "village_code": "80310",
    "village": "LEIHEAK (LIEHAK)",
    "postal_code": "98357"
  },
  {
    "village_code": "80415",
    "village": "MBEGAU",
    "postal_code": "98357"
  },
  {
    "village_code": "80418",
    "village": "MBRANDE",
    "postal_code": "98357"
  },
  {
    "village_code": "80485",
    "village": "MINGGOT (MANGGOT)",
    "postal_code": "98357"
  },
  {
    "village_code": "80489",
    "village": "MINYEIMEMUT (MINYEIMEMUD)",
    "postal_code": "98357"
  },
  {
    "village_code": "80518",
    "village": "MONUT",
    "postal_code": "98357"
  },
  {
    "village_code": "80564",
    "village": "NGIMOUBRE (NGIMOUBRI)",
    "postal_code": "98357"
  },
  {
    "village_code": "80578",
    "village": "NTAP",
    "postal_code": "98357"
  },
  {
    "village_code": "80580",
    "village": "NUNGKIMOR",
    "postal_code": "98357"
  },
  {
    "village_code": "80609",
    "village": "PENIBUT",
    "postal_code": "98357"
  },
  {
    "village_code": "80620",
    "village": "PUNGGUNG (PUNGUG)",
    "postal_code": "98357"
  },
  {
    "village_code": "80822",
    "village": "SOPNYAI",
    "postal_code": "98357"
  },
  {
    "village_code": "80921",
    "village": "TIGAU COMTI",
    "postal_code": "98357"
  },
  {
    "village_code": "80923",
    "village": "TINGKWOIKIO (TINGWOIKIOU)",
    "postal_code": "98357"
  },
  {
    "village_code": "80958",
    "village": "TUMBEIBEHEI",
    "postal_code": "98357"
  },
  {
    "village_code": "80980",
    "village": "UMCEP",
    "postal_code": "98357"
  },
  {
    "village_code": "80999",
    "village": "URWONG",
    "postal_code": "98357"
  }
]