[
  {
    "village_code": "79737",
    "village": "ASAI II (ASAY II)",
    "postal_code": "98357"
  },
  {
    "village_code": "79855",
    "village": "CENING",
    "postal_code": "98352"
  },
  {
    "village_code": "79881",
    "village": "DEMOURA (DEMUORA)",
    "postal_code": "98315"
  },
  {
    "village_code": "79907",
    "village": "DUMBRE (DUMBREY)",
    "postal_code": "98315"
  },
  {
    "village_code": "80023",
    "village": "IBA",
    "postal_code": "98315"
  },
  {
    "village_code": "80109",
    "village": "JIGJA (JIJGA)",
    "postal_code": "98315"
  },
  {
    "village_code": "80424",
    "village": "MEIDOGDA",
    "postal_code": "98315"
  },
  {
    "village_code": "80425",
    "village": "MEIFEKENI",
    "postal_code": "98315"
  },
  {
    "village_code": "80427",
    "village": "MEIFOWOSKA",
    "postal_code": "98315"
  },
  {
    "village_code": "80428",
    "village": "MEIMERSA",
    "postal_code": "98315"
  },
  {
    "village_code": "80433",
    "village": "MEKSI",
    "postal_code": "98315"
  },
  {
    "village_code": "80443",
    "village": "MENGEHENA (MEIGEHENAWU)",
    "postal_code": "98315"
  },
  {
    "village_code": "80446",
    "village": "MENJUGIJI (MEJUGIJI)",
    "postal_code": "98315"
  },
  {
    "village_code": "80511",
    "village": "MOFOUKEDA",
    "postal_code": "98315"
  },
  {
    "village_code": "80522",
    "village": "MORUMFEYI",
    "postal_code": "98315"
  },
  {
    "village_code": "80916",
    "village": "TESTEGA",
    "postal_code": "98315"
  }
]