[
  {
    "village_code": "79752",
    "village": "ASUM (ANSUM)",
    "postal_code": "98354"
  },
  {
    "village_code": "79762",
    "village": "AWIGAU (AWAIKUM / AWAIGAU)",
    "postal_code": "98354"
  },
  {
    "village_code": "79883",
    "village": "DEROUBU (DEUROBA)",
    "postal_code": "98354"
  },
  {
    "village_code": "79894",
    "village": "DISURA",
    "postal_code": "98354"
  },
  {
    "village_code": "79976",
    "village": "GENYU",
    "postal_code": "98354"
  },
  {
    "village_code": "80013",
    "village": "HORETA",
    "postal_code": "98354"
  },
  {
    "village_code": "80082",
    "village": "IRBOS",
    "postal_code": "98354"
  },
  {
    "village_code": "80799",
    "village": "SISKEDOUW (SISKEDOWO)",
    "postal_code": "98354"
  },
  {
    "village_code": "80879",
    "village": "TAIGA (TAIGE)",
    "postal_code": "98354"
  },
  {
    "village_code": "80946",
    "village": "TRIDAGA",
    "postal_code": "98354"
  },
  {
    "village_code": "80965",
    "village": "UBEISA",
    "postal_code": "98354"
  }
]