[
  {
    "village_code": "79768",
    "village": "AYAU (AYAUBEY)",
    "postal_code": "98354"
  },
  {
    "village_code": "80021",
    "village": "HUNGKU",
    "postal_code": "98354"
  },
  {
    "village_code": "80028",
    "village": "IGMBAI (IGEMBAI / IMBEISBA)",
    "postal_code": "98354"
  },
  {
    "village_code": "80039",
    "village": "IMBAI",
    "postal_code": "98354"
  },
  {
    "village_code": "80078",
    "village": "IRAIWERI",
    "postal_code": "98354"
  },
  {
    "village_code": "80447",
    "village": "MENTUBEI (MENTUBEY)",
    "postal_code": "98354"
  },
  {
    "village_code": "80599",
    "village": "PAMAHA",
    "postal_code": "98354"
  },
  {
    "village_code": "80832",
    "village": "SPIYOUGUP",
    "postal_code": "98354"
  },
  {
    "village_code": "80837",
    "village": "SRUBEY",
    "postal_code": "98354"
  },
  {
    "village_code": "80859",
    "village": "SUSI",
    "postal_code": "98354"
  },
  {
    "village_code": "80864",
    "village": "SUTEIBEI (SUTEIBEY)",
    "postal_code": "98354"
  },
  {
    "village_code": "80915",
    "village": "TESTEGA PAMAHA",
    "postal_code": "98354"
  },
  {
    "village_code": "80977",
    "village": "ULONG (ULLONG)",
    "postal_code": "98354"
  },
  {
    "village_code": "80989",
    "village": "UPER",
    "postal_code": "98354"
  }
]