[
  {
    "village_code": "79857",
    "village": "CIGERA",
    "postal_code": "98359"
  },
  {
    "village_code": "79858",
    "village": "CIRNOHU",
    "postal_code": "98359"
  },
  {
    "village_code": "79867",
    "village": "DANMOU",
    "postal_code": "98359"
  },
  {
    "village_code": "79873",
    "village": "DEBETIK (DIBETIK)",
    "postal_code": "98359"
  },
  {
    "village_code": "79879",
    "village": "DEMDAMEI",
    "postal_code": "98359"
  },
  {
    "village_code": "79885",
    "village": "DESRA (DISRA)",
    "postal_code": "98359"
  },
  {
    "village_code": "79900",
    "village": "DUGRIMOG",
    "postal_code": "98359"
  },
  {
    "village_code": "79975",
    "village": "GEDEIRA",
    "postal_code": "98359"
  },
  {
    "village_code": "80079",
    "village": "IRANMEBA",
    "postal_code": "98359"
  },
  {
    "village_code": "80297",
    "village": "KUSMENAU",
    "postal_code": "98359"
  },
  {
    "village_code": "80498",
    "village": "MISEDA",
    "postal_code": "98359"
  },
  {
    "village_code": "80793",
    "village": "SIRGEMEIH (SERGEMEH)",
    "postal_code": "98359"
  },
  {
    "village_code": "80811",
    "village": "SNERANER (SNEREMER)",
    "postal_code": "98359"
  },
  {
    "village_code": "80938",
    "village": "TOMSIR",
    "postal_code": "98359"
  }
]