[
  {
    "village_code": "66190",
    "village": "BARAMAMASE",
    "postal_code": "92254"
  },
  {
    "village_code": "66307",
    "village": "BENTANG",
    "postal_code": "92254"
  },
  {
    "village_code": "66442",
    "village": "BONTO KASSI",
    "postal_code": "92254"
  },
  {
    "village_code": "66463",
    "village": "BONTO MARANNU",
    "postal_code": "92254"
  },
  {
    "village_code": "66520",
    "village": "BONTOKANANG",
    "postal_code": "92254"
  },
  {
    "village_code": "66939",
    "village": "KADATONG",
    "postal_code": "92254"
  },
  {
    "village_code": "66965",
    "village": "KALE BENTAN",
    "postal_code": "92254"
  },
  {
    "village_code": "66996",
    "village": "KALUKUBODO",
    "postal_code": "92254"
  },
  {
    "village_code": "67532",
    "village": "MANGINDARA",
    "postal_code": "92254"
  },
  {
    "village_code": "68158",
    "village": "POPO",
    "postal_code": "92254"
  },
  {
    "village_code": "68405",
    "village": "SAWAKONG",
    "postal_code": "92254"
  },
  {
    "village_code": "68696",
    "village": "TAROWANG",
    "postal_code": "92254"
  }
]