[
  {
    "village_code": "66386",
    "village": "BODDIA",
    "postal_code": "92254"
  },
  {
    "village_code": "66452",
    "village": "BONTO LOE",
    "postal_code": "92254"
  },
  {
    "village_code": "66541",
    "village": "BONTOMANGAPE",
    "postal_code": "92254"
  },
  {
    "village_code": "66735",
    "village": "CAMPAGAYA",
    "postal_code": "92255"
  },
  {
    "village_code": "66840",
    "village": "GALESONG BARU",
    "postal_code": "92254"
  },
  {
    "village_code": "66841",
    "village": "GALESONG KOTA",
    "postal_code": "92254"
  },
  {
    "village_code": "66972",
    "village": "KALENNA BONTONGAPE",
    "postal_code": "92255"
  },
  {
    "village_code": "66994",
    "village": "KALUKUANG",
    "postal_code": "92255"
  },
  {
    "village_code": "67559",
    "village": "MAPPAKALOMPO",
    "postal_code": "92255"
  },
  {
    "village_code": "68073",
    "village": "PA\\LALAKKANG",
    "postal_code": "92255"
  },
  {
    "village_code": "68074",
    "village": "PA\\RASANGANG BERU",
    "postal_code": "92255"
  },
  {
    "village_code": "67966",
    "village": "PARAMBAMBE",
    "postal_code": "92254"
  },
  {
    "village_code": "67978",
    "village": "PARANGMATA",
    "postal_code": "92254"
  },
  {
    "village_code": "68053",
    "village": "PATTINOANG",
    "postal_code": "92255"
  }
]