[
  {
    "village_code": "66024",
    "village": "ALENANGKA",
    "postal_code": "92661"
  },
  {
    "village_code": "66072",
    "village": "ASKA",
    "postal_code": "92661"
  },
  {
    "village_code": "66644",
    "village": "BULU KAMASE",
    "postal_code": "92661"
  },
  {
    "village_code": "66860",
    "village": "GARECCING",
    "postal_code": "92661"
  },
  {
    "village_code": "67861",
    "village": "PALAE",
    "postal_code": "92661"
  },
  {
    "village_code": "67871",
    "village": "PALANGKA",
    "postal_code": "92661"
  },
  {
    "village_code": "68129",
    "village": "POLEWALI",
    "postal_code": "92661"
  },
  {
    "village_code": "68180",
    "village": "PUNCAK",
    "postal_code": "92661"
  },
  {
    "village_code": "68368",
    "village": "SANGIASSERI",
    "postal_code": "92661"
  },
  {
    "village_code": "68492",
    "village": "SONGING",
    "postal_code": "92661"
  },
  {
    "village_code": "68581",
    "village": "TALLE",
    "postal_code": "92661"
  }
]