[
  {
    "village_code": "66216",
    "village": "BARU",
    "postal_code": "92652"
  },
  {
    "village_code": "66495",
    "village": "BONTO",
    "postal_code": "92652"
  },
  {
    "village_code": "66851",
    "village": "GANTARANG",
    "postal_code": "92652"
  },
  {
    "village_code": "67034",
    "village": "KANRUNG",
    "postal_code": "92652"
  },
  {
    "village_code": "67114",
    "village": "KOMPANG",
    "postal_code": "92652"
  },
  {
    "village_code": "67699",
    "village": "MATTUNRENG TELLUE",
    "postal_code": "92652"
  },
  {
    "village_code": "68065",
    "village": "PATTONGKO",
    "postal_code": "92652"
  },
  {
    "village_code": "68346",
    "village": "SAMAENRE",
    "postal_code": "92652"
  },
  {
    "village_code": "68378",
    "village": "SAOHIRING",
    "postal_code": "92652"
  },
  {
    "village_code": "68379",
    "village": "SAOTANRE",
    "postal_code": "92652"
  },
  {
    "village_code": "68381",
    "village": "SAOTENGNGA",
    "postal_code": "92652"
  }
]