[
  {
    "village_code": "64209",
    "village": "BATU RATA",
    "postal_code": "94568"
  },
  {
    "village_code": "64445",
    "village": "DOPALAK",
    "postal_code": "94568"
  },
  {
    "village_code": "64455",
    "village": "DUTUNO",
    "postal_code": "94568"
  },
  {
    "village_code": "64695",
    "village": "KUALA BESAR",
    "postal_code": "94568"
  },
  {
    "village_code": "64842",
    "village": "LILITO",
    "postal_code": "94568"
  },
  {
    "village_code": "64847",
    "village": "LINTIDU",
    "postal_code": "94568"
  },
  {
    "village_code": "65095",
    "village": "MULANGATO",
    "postal_code": "94568"
  },
  {
    "village_code": "65219",
    "village": "PALELEH",
    "postal_code": "94568"
  },
  {
    "village_code": "65313",
    "village": "PIONOTO",
    "postal_code": "94568"
  },
  {
    "village_code": "65637",
    "village": "TALAKI",
    "postal_code": "94568"
  },
  {
    "village_code": "65807",
    "village": "TOLAU",
    "postal_code": "94568"
  },
  {
    "village_code": "65932",
    "village": "UMU",
    "postal_code": "94568"
  }
]