[
  {
    "village_code": "64353",
    "village": "BULAGIDUN",
    "postal_code": "94568"
  },
  {
    "village_code": "64352",
    "village": "BULAGIDUN TANJUNG",
    "postal_code": "94568"
  },
  {
    "village_code": "64414",
    "village": "DIAPATIH",
    "postal_code": "94568"
  },
  {
    "village_code": "64727",
    "village": "LABUTON",
    "postal_code": "94568"
  },
  {
    "village_code": "64849",
    "village": "LIPUBOGU",
    "postal_code": "94568"
  },
  {
    "village_code": "64858",
    "village": "LOKODIDI",
    "postal_code": "94568"
  },
  {
    "village_code": "64859",
    "village": "LOKODOKA",
    "postal_code": "94568"
  },
  {
    "village_code": "65013",
    "village": "MATINAN",
    "postal_code": "94568"
  },
  {
    "village_code": "65109",
    "village": "NANDU",
    "postal_code": "94568"
  },
  {
    "village_code": "65236",
    "village": "PANDANGAN",
    "postal_code": "94568"
  },
  {
    "village_code": "65616",
    "village": "TAAT",
    "postal_code": "94568"
  }
]