[
  {
    "village_code": "62328",
    "village": "BAHU",
    "postal_code": "95856"
  },
  {
    "village_code": "62386",
    "village": "BEHA",
    "postal_code": "95856"
  },
  {
    "village_code": "62391",
    "village": "BENGKETANG",
    "postal_code": "95856"
  },
  {
    "village_code": "62484",
    "village": "BOWONGKULU",
    "postal_code": "95856"
  },
  {
    "village_code": "62483",
    "village": "BOWONGKULU I",
    "postal_code": "95856"
  },
  {
    "village_code": "62696",
    "village": "KALASUGE",
    "postal_code": "95856"
  },
  {
    "village_code": "62701",
    "village": "KALEKUBE",
    "postal_code": "95856"
  },
  {
    "village_code": "62700",
    "village": "KALEKUBE I",
    "postal_code": "95856"
  },
  {
    "village_code": "62715",
    "village": "KALURAE",
    "postal_code": "95856"
  },
  {
    "village_code": "62953",
    "village": "LENGANENG",
    "postal_code": "95856"
  },
  {
    "village_code": "62968",
    "village": "LIKUANG",
    "postal_code": "95856"
  },
  {
    "village_code": "63065",
    "village": "MALA",
    "postal_code": "95856"
  },
  {
    "village_code": "63156",
    "village": "MOADE",
    "postal_code": "95856"
  },
  {
    "village_code": "63255",
    "village": "NAHA (NAHASAHABE)",
    "postal_code": "95856"
  },
  {
    "village_code": "63256",
    "village": "NAHA I",
    "postal_code": "95856"
  },
  {
    "village_code": "63395",
    "village": "PETTA",
    "postal_code": "95856"
  },
  {
    "village_code": "63392",
    "village": "PETTA BARAT",
    "postal_code": "95856"
  },
  {
    "village_code": "63393",
    "village": "PETTA SELATAN",
    "postal_code": "95856"
  },
  {
    "village_code": "63394",
    "village": "PETTA TIMUR",
    "postal_code": "95856"
  },
  {
    "village_code": "63484",
    "village": "PUSUNGE",
    "postal_code": "95856"
  },
  {
    "village_code": "63494",
    "village": "RAKU",
    "postal_code": "95856"
  },
  {
    "village_code": "63762",
    "village": "TAROLANG",
    "postal_code": "95856"
  },
  {
    "village_code": "63830",
    "village": "TOLA",
    "postal_code": "95856"
  },
  {
    "village_code": "63963",
    "village": "UTAURANO",
    "postal_code": "95856"
  }
]