[
  {
    "village_code": "32122",
    "village": "BUNTAR",
    "postal_code": "57752"
  },
  {
    "village_code": "32772",
    "village": "GEBYOK",
    "postal_code": "57752"
  },
  {
    "village_code": "32889",
    "village": "GENTUNGAN",
    "postal_code": "57752"
  },
  {
    "village_code": "33794",
    "village": "KALIBOTO",
    "postal_code": "57752"
  },
  {
    "village_code": "34690",
    "village": "KEDUNGJERUK",
    "postal_code": "57752"
  },
  {
    "village_code": "35969",
    "village": "MOJOGEDANG",
    "postal_code": "57752"
  },
  {
    "village_code": "35986",
    "village": "MOJOROTO",
    "postal_code": "57752"
  },
  {
    "village_code": "36070",
    "village": "MUNGGUR",
    "postal_code": "57716"
  },
  {
    "village_code": "36141",
    "village": "NGADIREJO",
    "postal_code": "57752"
  },
  {
    "village_code": "36865",
    "village": "PENDEM",
    "postal_code": "57752"
  },
  {
    "village_code": "36931",
    "village": "PERENG",
    "postal_code": "57752"
  },
  {
    "village_code": "37111",
    "village": "POJOK",
    "postal_code": "57752"
  },
  {
    "village_code": "37988",
    "village": "SEWUREJO",
    "postal_code": "57752"
  }
]