[
  {
    "village_code": "71209",
    "village": "BINTANA",
    "postal_code": "96253"
  },
  {
    "village_code": "71248",
    "village": "BUATA",
    "postal_code": "96253"
  },
  {
    "village_code": "71406",
    "village": "ILOHELUMA",
    "postal_code": "96253"
  },
  {
    "village_code": "71420",
    "village": "IMANA",
    "postal_code": "96253"
  },
  {
    "village_code": "71423",
    "village": "INOMATA (ILOMATA)",
    "postal_code": "96253"
  },
  {
    "village_code": "71461",
    "village": "KOTAJIN (KOTA JIN)",
    "postal_code": "96253"
  },
  {
    "village_code": "71462",
    "village": "KOTAJIN UTARA",
    "postal_code": "96253"
  },
  {
    "village_code": "71582",
    "village": "MONGGUPO",
    "postal_code": "96253"
  },
  {
    "village_code": "71619",
    "village": "OLUHUTA",
    "postal_code": "96253"
  },
  {
    "village_code": "71685",
    "village": "PINONTOYONGA",
    "postal_code": "96253"
  },
  {
    "village_code": "71705",
    "village": "POSONO",
    "postal_code": "96253"
  },
  {
    "village_code": "71738",
    "village": "SIGASO",
    "postal_code": "96253"
  },
  {
    "village_code": "71836",
    "village": "TOMBULILATO",
    "postal_code": "96253"
  },
  {
    "village_code": "71883",
    "village": "WAPALO",
    "postal_code": "96253"
  }
]