[
  {
    "village_code": "71212",
    "village": "BOHUSAMI",
    "postal_code": "96253"
  },
  {
    "village_code": "71349",
    "village": "DUMOLODO",
    "postal_code": "96253"
  },
  {
    "village_code": "71355",
    "village": "DURIAN",
    "postal_code": "96253"
  },
  {
    "village_code": "71363",
    "village": "GENTUMA",
    "postal_code": "96253"
  },
  {
    "village_code": "71425",
    "village": "IPILO",
    "postal_code": "96253"
  },
  {
    "village_code": "71457",
    "village": "KETAPANG",
    "postal_code": "96253"
  },
  {
    "village_code": "71475",
    "village": "LANGKE",
    "postal_code": "96253"
  },
  {
    "village_code": "71568",
    "village": "MOLONGGOTA",
    "postal_code": "96253"
  },
  {
    "village_code": "71603",
    "village": "MOTOMINGO",
    "postal_code": "96253"
  },
  {
    "village_code": "71611",
    "village": "NANATI JAYA",
    "postal_code": "96253"
  },
  {
    "village_code": "71654",
    "village": "PASALAE",
    "postal_code": "96253"
  }
]