[
  {
    "village_code": "72517",
    "village": "AIR BESAR",
    "postal_code": "97557"
  },
  {
    "village_code": "72605",
    "village": "BESI",
    "postal_code": "97557"
  },
  {
    "village_code": "72754",
    "village": "HUAULU",
    "postal_code": "97557"
  },
  {
    "village_code": "72818",
    "village": "KALOA",
    "postal_code": "97557"
  },
  {
    "village_code": "72835",
    "village": "KANIKEH (KANIKE)",
    "postal_code": "97557"
  },
  {
    "village_code": "73035",
    "village": "MALAKU",
    "postal_code": "97557"
  },
  {
    "village_code": "73047",
    "village": "MANUSELA",
    "postal_code": "97557"
  },
  {
    "village_code": "73206",
    "village": "PASAHARI",
    "postal_code": "97557"
  },
  {
    "village_code": "73252",
    "village": "ROHO",
    "postal_code": "97557"
  },
  {
    "village_code": "73262",
    "village": "RUMAH SOKAT",
    "postal_code": "97557"
  },
  {
    "village_code": "73303",
    "village": "SAWAI",
    "postal_code": "97557"
  },
  {
    "village_code": "73531",
    "village": "WAHAI",
    "postal_code": "97557"
  }
]