[
  {
    "village_code": "72533",
    "village": "AMAHAI (AMAIIAI)",
    "postal_code": "97516"
  },
  {
    "village_code": "72569",
    "village": "BANDA BARU",
    "postal_code": "97516"
  },
  {
    "village_code": "72719",
    "village": "HARURU",
    "postal_code": "97516"
  },
  {
    "village_code": "72746",
    "village": "HOLLO",
    "postal_code": "97516"
  },
  {
    "village_code": "73032",
    "village": "MAKARIKI",
    "postal_code": "97516"
  },
  {
    "village_code": "73276",
    "village": "RUTAH",
    "postal_code": "97516"
  },
  {
    "village_code": "73305",
    "village": "SEHATI",
    "postal_code": "97516"
  },
  {
    "village_code": "73319",
    "village": "SEPA",
    "postal_code": "97516"
  },
  {
    "village_code": "73348",
    "village": "SOAHUKU",
    "postal_code": "97516"
  },
  {
    "village_code": "73377",
    "village": "TAMILOUW",
    "postal_code": "97516"
  },
  {
    "village_code": "73654",
    "village": "YAFILA",
    "postal_code": "97516"
  },
  {
    "village_code": "73655",
    "village": "YAINUELO",
    "postal_code": "97516"
  }
]