[
  {
    "village_code": "72542",
    "village": "AMETH",
    "postal_code": "97558"
  },
  {
    "village_code": "72617",
    "village": "BUMEY",
    "postal_code": "97558"
  },
  {
    "village_code": "72784",
    "village": "ISU (ISSU)",
    "postal_code": "97558"
  },
  {
    "village_code": "72792",
    "village": "JERILI",
    "postal_code": "97558"
  },
  {
    "village_code": "72900",
    "village": "KOKROMAN",
    "postal_code": "97558"
  },
  {
    "village_code": "72918",
    "village": "KURALELE",
    "postal_code": "97558"
  },
  {
    "village_code": "72959",
    "village": "LAYENI",
    "postal_code": "97558"
  },
  {
    "village_code": "72977",
    "village": "LESLURU",
    "postal_code": "97558"
  },
  {
    "village_code": "73072",
    "village": "MESA (MESSA)",
    "postal_code": "97558"
  },
  {
    "village_code": "73104",
    "village": "NAKUPIA",
    "postal_code": "97558"
  },
  {
    "village_code": "73304",
    "village": "SEFLURU (SIFLURU)",
    "postal_code": "97558"
  },
  {
    "village_code": "73428",
    "village": "TRANA",
    "postal_code": "97558"
  },
  {
    "village_code": "73471",
    "village": "USLIAPAN",
    "postal_code": "97558"
  },
  {
    "village_code": "73600",
    "village": "WARU",
    "postal_code": "97558"
  },
  {
    "village_code": "73610",
    "village": "WATLUDAN",
    "postal_code": "97558"
  },
  {
    "village_code": "73646",
    "village": "WOTAY",
    "postal_code": "97558"
  }
]