[
  {
    "village_code": "72558",
    "village": "ASILULU",
    "postal_code": "97581"
  },
  {
    "village_code": "72735",
    "village": "HILA",
    "postal_code": "97581"
  },
  {
    "village_code": "72737",
    "village": "HITU LAMA",
    "postal_code": "97581"
  },
  {
    "village_code": "72738",
    "village": "HITU MESING",
    "postal_code": "97581"
  },
  {
    "village_code": "72813",
    "village": "KAITETU",
    "postal_code": "97581"
  },
  {
    "village_code": "73037",
    "village": "MAMALA",
    "postal_code": "97581"
  },
  {
    "village_code": "73086",
    "village": "MORELA",
    "postal_code": "97581"
  },
  {
    "village_code": "73126",
    "village": "NEGERI LIMA",
    "postal_code": "97581"
  },
  {
    "village_code": "73307",
    "village": "SEITH",
    "postal_code": "97581"
  },
  {
    "village_code": "73466",
    "village": "URENG",
    "postal_code": "97581"
  },
  {
    "village_code": "73564",
    "village": "WAKAL",
    "postal_code": "97581"
  }
]