[
  {
    "village_code": "72645",
    "village": "DWIWARNA",
    "postal_code": "97593"
  },
  {
    "village_code": "72827",
    "village": "KAMPUNG BARU",
    "postal_code": "97593"
  },
  {
    "village_code": "73006",
    "village": "LONTHOIR",
    "postal_code": "97593"
  },
  {
    "village_code": "73070",
    "village": "MERDEKA",
    "postal_code": "97593"
  },
  {
    "village_code": "73159",
    "village": "NUSANTARA",
    "postal_code": "97593"
  },
  {
    "village_code": "73226",
    "village": "PULAU AI / AY",
    "postal_code": "97593"
  },
  {
    "village_code": "73227",
    "village": "PULAU HATTA",
    "postal_code": "97593"
  },
  {
    "village_code": "73229",
    "village": "PULAU RHUM",
    "postal_code": "97593"
  },
  {
    "village_code": "73237",
    "village": "RAJAWALI",
    "postal_code": "97593"
  },
  {
    "village_code": "73310",
    "village": "SELAMON",
    "postal_code": "97593"
  },
  {
    "village_code": "73381",
    "village": "TANAH RATA",
    "postal_code": "97593"
  },
  {
    "village_code": "73514",
    "village": "WAER",
    "postal_code": "97593"
  }
]