[
  {
    "village_code": "72690",
    "village": "GALE-GALE",
    "postal_code": "97557"
  },
  {
    "village_code": "72750",
    "village": "HORALE",
    "postal_code": "97557"
  },
  {
    "village_code": "72819",
    "village": "KALUTU (KARLUTU KARA)",
    "postal_code": "97557"
  },
  {
    "village_code": "72924",
    "village": "LABUAN",
    "postal_code": "97557"
  },
  {
    "village_code": "72950",
    "village": "LATEA",
    "postal_code": "97557"
  },
  {
    "village_code": "72996",
    "village": "LISABATA TIMUR",
    "postal_code": "97557"
  },
  {
    "village_code": "73201",
    "village": "PAA",
    "postal_code": "97557"
  },
  {
    "village_code": "73207",
    "village": "PASANEA",
    "postal_code": "97557"
  },
  {
    "village_code": "73266",
    "village": "RUMAHWEY",
    "postal_code": "97557"
  },
  {
    "village_code": "73286",
    "village": "SALEMAN",
    "postal_code": "97557"
  },
  {
    "village_code": "73563",
    "village": "WAIULU",
    "postal_code": "97557"
  },
  {
    "village_code": "73592",
    "village": "WARASIWA",
    "postal_code": "97557"
  }
]