[
  {
    "village_code": "361",
    "village": "ASAM PEUTEK",
    "postal_code": "24416"
  },
  {
    "village_code": "568",
    "village": "BAROH LANGSA LAMA",
    "postal_code": "24416"
  },
  {
    "village_code": "577",
    "village": "BATE PUTEH",
    "postal_code": "24411"
  },
  {
    "village_code": "1692",
    "village": "GAMPONG BARO",
    "postal_code": "24416"
  },
  {
    "village_code": "4065",
    "village": "MEURANDEH",
    "postal_code": "24416"
  },
  {
    "village_code": "4059",
    "village": "MEURANDEH ACEH",
    "postal_code": "24416"
  },
  {
    "village_code": "4061",
    "village": "MEURANDEH DAYAH",
    "postal_code": "24416"
  },
  {
    "village_code": "4064",
    "village": "MEURANDEH TEUNGOH",
    "postal_code": "24416"
  },
  {
    "village_code": "4840",
    "village": "PONDOK KEUMUNING",
    "postal_code": "24416"
  },
  {
    "village_code": "4841",
    "village": "PONDOK PABRIK",
    "postal_code": "24416"
  },
  {
    "village_code": "5391",
    "village": "SEULALAH",
    "postal_code": "24416"
  },
  {
    "village_code": "5390",
    "village": "SEULALAH BARU",
    "postal_code": "24416"
  },
  {
    "village_code": "5561",
    "village": "SIDODADI",
    "postal_code": "24411"
  },
  {
    "village_code": "5564",
    "village": "SIDOREJO",
    "postal_code": "24411"
  },
  {
    "village_code": "5721",
    "village": "SUKA JD KBN IRENG",
    "postal_code": "24411"
  }
]