[
  {
    "village_code": "15553",
    "village": "BULURAN KENALI",
    "postal_code": "36123"
  },
  {
    "village_code": "15875",
    "village": "LEGOK",
    "postal_code": "36121"
  },
  {
    "village_code": "16069",
    "village": "MURNI",
    "postal_code": "36121"
  },
  {
    "village_code": "16208",
    "village": "PEMATANG SULUR",
    "postal_code": "36129"
  },
  {
    "village_code": "16236",
    "village": "PENYENGAT RENDAH",
    "postal_code": "36124"
  },
  {
    "village_code": "16428",
    "village": "SELAMAT",
    "postal_code": "36129"
  },
  {
    "village_code": "16479",
    "village": "SIMPANG EMPAT SIPIN",
    "postal_code": "36124"
  },
  {
    "village_code": "16520",
    "village": "SOLOK SIPIN",
    "postal_code": "36121"
  },
  {
    "village_code": "16657",
    "village": "SUNGAI PUTRI",
    "postal_code": "36122"
  },
  {
    "village_code": "16830",
    "village": "TELANAIPURA",
    "postal_code": "36122"
  },
  {
    "village_code": "16840",
    "village": "TELUK KENALI",
    "postal_code": "36123"
  }
]