[
  {
    "village_code": "40470",
    "village": "BANARAN",
    "postal_code": "66318"
  },
  {
    "village_code": "41600",
    "village": "DERMOSARI",
    "postal_code": "66352"
  },
  {
    "village_code": "41714",
    "village": "DUREN",
    "postal_code": "66352"
  },
  {
    "village_code": "41759",
    "village": "GADING",
    "postal_code": "66352"
  },
  {
    "village_code": "42094",
    "village": "GONDANG",
    "postal_code": "66352"
  },
  {
    "village_code": "42304",
    "village": "JAMBU",
    "postal_code": "66352"
  },
  {
    "village_code": "44879",
    "village": "NGEPEH",
    "postal_code": "66352"
  },
  {
    "village_code": "44933",
    "village": "NGLINGGIS",
    "postal_code": "66352"
  },
  {
    "village_code": "44935",
    "village": "NGLONGSOR",
    "postal_code": "66352"
  },
  {
    "village_code": "45883",
    "village": "PRAMBON",
    "postal_code": "66352"
  },
  {
    "village_code": "45930",
    "village": "PUCANGANAK",
    "postal_code": "66352"
  },
  {
    "village_code": "47204",
    "village": "SUKOREJO",
    "postal_code": "66352"
  },
  {
    "village_code": "47989",
    "village": "TEGAREN",
    "postal_code": "66352"
  },
  {
    "village_code": "48318",
    "village": "TUMPUK",
    "postal_code": "66352"
  },
  {
    "village_code": "48515",
    "village": "WINONG",
    "postal_code": "66352"
  }
]