[
  {
    "village_code": "17021",
    "village": "ALAI",
    "postal_code": "31171"
  },
  {
    "village_code": "17056",
    "village": "BABAT",
    "postal_code": "31171"
  },
  {
    "village_code": "17438",
    "village": "GAUNG ASAM",
    "postal_code": "31171"
  },
  {
    "village_code": "17540",
    "village": "IBUL",
    "postal_code": "31171"
  },
  {
    "village_code": "17796",
    "village": "KEMANG",
    "postal_code": "31171"
  },
  {
    "village_code": "17955",
    "village": "LEMBAK",
    "postal_code": "31171"
  },
  {
    "village_code": "18701",
    "village": "PETANANG",
    "postal_code": "31171"
  },
  {
    "village_code": "19013",
    "village": "SIALINGAN",
    "postal_code": "31171"
  },
  {
    "village_code": "19417",
    "village": "SUNGAI DUREN",
    "postal_code": "31171"
  },
  {
    "village_code": "19511",
    "village": "TALANG BALAI",
    "postal_code": "31171"
  },
  {
    "village_code": "19544",
    "village": "TALANG NANGKA",
    "postal_code": "31171"
  },
  {
    "village_code": "19679",
    "village": "TANJUNG BUNUT",
    "postal_code": "31171"
  },
  {
    "village_code": "19840",
    "village": "TAPUS",
    "postal_code": "31171"
  }
]