[
  {
    "village_code": "17203",
    "village": "BENAKAT MINYAK",
    "postal_code": "31214"
  },
  {
    "village_code": "17210",
    "village": "BENUANG",
    "postal_code": "31214"
  },
  {
    "village_code": "17522",
    "village": "HANDAYANI MULYA",
    "postal_code": "31214"
  },
  {
    "village_code": "17835",
    "village": "KERTADEWA",
    "postal_code": "31214"
  },
  {
    "village_code": "18547",
    "village": "PANTA DEWA",
    "postal_code": "31214"
  },
  {
    "village_code": "18734",
    "village": "PSR.BAYANGKARA",
    "postal_code": "31214"
  },
  {
    "village_code": "18959",
    "village": "SEMANGUS",
    "postal_code": "31214"
  },
  {
    "village_code": "19085",
    "village": "SINAR DEWA",
    "postal_code": "31214"
  },
  {
    "village_code": "19191",
    "village": "SUKA DAMAI",
    "postal_code": "31214"
  },
  {
    "village_code": "19271",
    "village": "SUKAMAJU",
    "postal_code": "31214"
  },
  {
    "village_code": "19408",
    "village": "SUNGAI BAUNG",
    "postal_code": "31214"
  },
  {
    "village_code": "19419",
    "village": "SUNGAI IBUL",
    "postal_code": "31214"
  },
  {
    "village_code": "19505",
    "village": "TALANG AKAR",
    "postal_code": "31214"
  },
  {
    "village_code": "19520",
    "village": "TALANG BULANG",
    "postal_code": "31214"
  },
  {
    "village_code": "19572",
    "village": "TALANG UBI BARAT",
    "postal_code": "31211"
  },
  {
    "village_code": "19573",
    "village": "TALANG UBI SELATAN",
    "postal_code": "31212"
  },
  {
    "village_code": "19574",
    "village": "TALANG UBI TIMUR",
    "postal_code": "31213"
  },
  {
    "village_code": "19575",
    "village": "TALANG UBI UTARA",
    "postal_code": "31214"
  }
]