[
  {
    "village_code": "17365",
    "village": "DANAU RATA",
    "postal_code": "31357"
  },
  {
    "village_code": "17366",
    "village": "DANAU TAMPANG",
    "postal_code": "31357"
  },
  {
    "village_code": "17739",
    "village": "KASAI",
    "postal_code": "31357"
  },
  {
    "village_code": "18228",
    "village": "MODONG",
    "postal_code": "31357"
  },
  {
    "village_code": "18280",
    "village": "MUARA LEMATANG",
    "postal_code": "31357"
  },
  {
    "village_code": "18577",
    "village": "PAYA ANGUS",
    "postal_code": "31357"
  },
  {
    "village_code": "18633",
    "village": "PENANDINGAN",
    "postal_code": "31357"
  },
  {
    "village_code": "18703",
    "village": "PETAR DALAM",
    "postal_code": "31357"
  },
  {
    "village_code": "19188",
    "village": "SUKA CINTA",
    "postal_code": "31357"
  },
  {
    "village_code": "19195",
    "village": "SUKA DANA",
    "postal_code": "31357"
  },
  {
    "village_code": "19196",
    "village": "SUKA JADI",
    "postal_code": "31357"
  },
  {
    "village_code": "19207",
    "village": "SUKA MAJU",
    "postal_code": "31357"
  },
  {
    "village_code": "19220",
    "village": "SUKA MERINDU",
    "postal_code": "31357"
  },
  {
    "village_code": "19326",
    "village": "SUKARAMI",
    "postal_code": "31357"
  },
  {
    "village_code": "19457",
    "village": "SUNGAI ROTAN",
    "postal_code": "31357"
  },
  {
    "village_code": "19602",
    "village": "TANDING MARGA",
    "postal_code": "31357"
  },
  {
    "village_code": "19763",
    "village": "TANJUNG MIRING",
    "postal_code": "31357"
  }
]