[
  {
    "village_code": "31312",
    "village": "BAKUNG",
    "postal_code": "59583"
  },
  {
    "village_code": "31523",
    "village": "BANTENG MATI",
    "postal_code": "59583"
  },
  {
    "village_code": "31744",
    "village": "BERMI",
    "postal_code": "59583"
  },
  {
    "village_code": "32847",
    "village": "GEMPOLSONGO",
    "postal_code": "59583"
  },
  {
    "village_code": "32862",
    "village": "GENENG",
    "postal_code": "59583"
  },
  {
    "village_code": "33578",
    "village": "JLEPER",
    "postal_code": "59583"
  },
  {
    "village_code": "35910",
    "village": "MIJEN",
    "postal_code": "59583"
  },
  {
    "village_code": "35932",
    "village": "MLATEN",
    "postal_code": "59583"
  },
  {
    "village_code": "36242",
    "village": "NGEGOT",
    "postal_code": "59583"
  },
  {
    "village_code": "36244",
    "village": "NGELO KULON",
    "postal_code": "59583"
  },
  {
    "village_code": "36245",
    "village": "NGELO WETAN",
    "postal_code": "59583"
  },
  {
    "village_code": "36701",
    "village": "PASIR",
    "postal_code": "59583"
  },
  {
    "village_code": "36762",
    "village": "PECUK",
    "postal_code": "59583"
  },
  {
    "village_code": "37504",
    "village": "REJOSARI",
    "postal_code": "59583"
  },
  {
    "village_code": "38764",
    "village": "TANGGUL",
    "postal_code": "59583"
  }
]