[
  {
    "village_code": "31400",
    "village": "BANDUNGREJO",
    "postal_code": "59567"
  },
  {
    "village_code": "31548",
    "village": "BANYUMENENG",
    "postal_code": "59567"
  },
  {
    "village_code": "31618",
    "village": "BATURSARI",
    "postal_code": "59567"
  },
  {
    "village_code": "31994",
    "village": "BRUMBUNG",
    "postal_code": "59567"
  },
  {
    "village_code": "32197",
    "village": "CANDISARI",
    "postal_code": "59567"
  },
  {
    "village_code": "33300",
    "village": "JAMUS",
    "postal_code": "59567"
  },
  {
    "village_code": "33979",
    "village": "KALITENGAH",
    "postal_code": "59567"
  },
  {
    "village_code": "34052",
    "village": "KANGKUNG",
    "postal_code": "59567"
  },
  {
    "village_code": "34388",
    "village": "KARANGSONO",
    "postal_code": "59567"
  },
  {
    "village_code": "34549",
    "village": "KEBONBATUR",
    "postal_code": "59567"
  },
  {
    "village_code": "34812",
    "village": "KEMBANGARUM",
    "postal_code": "59567"
  },
  {
    "village_code": "35878",
    "village": "MENUR",
    "postal_code": "59567"
  },
  {
    "village_code": "36011",
    "village": "MRANGGEN",
    "postal_code": "59567"
  },
  {
    "village_code": "36264",
    "village": "NGEMPLAK",
    "postal_code": "59567"
  },
  {
    "village_code": "38536",
    "village": "SUMBEREJO",
    "postal_code": "59567"
  },
  {
    "village_code": "38687",
    "village": "TAMANSARI",
    "postal_code": "59567"
  },
  {
    "village_code": "38898",
    "village": "TEGALARUM",
    "postal_code": "59567"
  },
  {
    "village_code": "39464",
    "village": "WARU",
    "postal_code": "59567"
  },
  {
    "village_code": "39721",
    "village": "WRINGIN JAJAR",
    "postal_code": "59567"
  }
]