[
  {
    "village_code": "13559",
    "village": "AIR TERJUN",
    "postal_code": "28384"
  },
  {
    "village_code": "13574",
    "village": "ANGKASA",
    "postal_code": "28384"
  },
  {
    "village_code": "14227",
    "village": "LUBUK KERANJI",
    "postal_code": "28384"
  },
  {
    "village_code": "14226",
    "village": "LUBUK KERANJI TIMUR",
    "postal_code": "28384"
  },
  {
    "village_code": "14234",
    "village": "LUBUK RAJA",
    "postal_code": "28384"
  },
  {
    "village_code": "14242",
    "village": "LUBUK TERAP",
    "postal_code": "28384"
  },
  {
    "village_code": "14561",
    "village": "POMPA AIR",
    "postal_code": "28384"
  },
  {
    "village_code": "14862",
    "village": "SIALANG BUNGKUK",
    "postal_code": "28384"
  },
  {
    "village_code": "14864",
    "village": "SIALANG GODANG",
    "postal_code": "28384"
  },
  {
    "village_code": "15132",
    "village": "TAMBUN",
    "postal_code": "28384"
  },
  {
    "village_code": "15340",
    "village": "TERBANGIANG",
    "postal_code": "28384"
  }
]