[
  {
    "village_code": "15461",
    "village": "BARU",
    "postal_code": "37372"
  },
  {
    "village_code": "15495",
    "village": "BERINGIN TINGGI",
    "postal_code": "37372"
  },
  {
    "village_code": "15626",
    "village": "GEDANG",
    "postal_code": "37372"
  },
  {
    "village_code": "15657",
    "village": "JANGKAR",
    "postal_code": "37372"
  },
  {
    "village_code": "15677",
    "village": "KABU",
    "postal_code": "37372"
  },
  {
    "village_code": "15767",
    "village": "KOTO BARU",
    "postal_code": "37372"
  },
  {
    "village_code": "15816",
    "village": "KOTO TAPUS",
    "postal_code": "37372"
  },
  {
    "village_code": "15818",
    "village": "KOTO TEGUH",
    "postal_code": "37372"
  },
  {
    "village_code": "16202",
    "village": "PEMATANG PAUH",
    "postal_code": "37372"
  },
  {
    "village_code": "16363",
    "village": "RANTAU SULI",
    "postal_code": "37372"
  },
  {
    "village_code": "16497",
    "village": "SIMPANG TALANG TEMBAGO",
    "postal_code": "37372"
  },
  {
    "village_code": "16718",
    "village": "TALANG TEMBAGO",
    "postal_code": "37372"
  },
  {
    "village_code": "16745",
    "village": "TANJUNG ALAM",
    "postal_code": "37372"
  },
  {
    "village_code": "16754",
    "village": "TANJUNG BERUANG",
    "postal_code": "37372"
  },
  {
    "village_code": "16780",
    "village": "TANJUNG MUDO",
    "postal_code": "37372"
  }
]