[
  {
    "village_code": "15485",
    "village": "BELURAN PANJANG (BULURAN)",
    "postal_code": "37353"
  },
  {
    "village_code": "15608",
    "village": "DUSUN BARU",
    "postal_code": "37353"
  },
  {
    "village_code": "15683",
    "village": "KAMPUNG BARUH",
    "postal_code": "37353"
  },
  {
    "village_code": "15692",
    "village": "KANDANG",
    "postal_code": "37353"
  },
  {
    "village_code": "15810",
    "village": "KOTO RAYO",
    "postal_code": "37353"
  },
  {
    "village_code": "15917",
    "village": "LUBUK NAPAL",
    "postal_code": "37353"
  },
  {
    "village_code": "15945",
    "village": "MAMPUN",
    "postal_code": "37353"
  },
  {
    "village_code": "16132",
    "village": "PASAR BARU RANTAU",
    "postal_code": "37353"
  },
  {
    "village_code": "16145",
    "village": "PASAR RANTAU PANJANG",
    "postal_code": "37353"
  },
  {
    "village_code": "16433",
    "village": "SELING",
    "postal_code": "37353"
  },
  {
    "village_code": "16766",
    "village": "TANJUNG ILIR",
    "postal_code": "37353"
  }
]