[
  {
    "village_code": "15809",
    "village": "KOTO RAWANG",
    "postal_code": "37372"
  },
  {
    "village_code": "15914",
    "village": "LUBUK MENTILIN",
    "postal_code": "37372"
  },
  {
    "village_code": "15921",
    "village": "LUBUK PUNGGUK",
    "postal_code": "37372"
  },
  {
    "village_code": "16028",
    "village": "MUARA MADRAS (MANDERAS / MANDRAS)",
    "postal_code": "37372"
  },
  {
    "village_code": "16297",
    "village": "PULAU TENGAH",
    "postal_code": "37372"
  },
  {
    "village_code": "16345",
    "village": "RANTAU KERMAS",
    "postal_code": "37372"
  },
  {
    "village_code": "16376",
    "village": "RENAH ALAI",
    "postal_code": "37372"
  },
  {
    "village_code": "16380",
    "village": "RENAH KEMUMU",
    "postal_code": "37372"
  },
  {
    "village_code": "16382",
    "village": "RENAH PELAAN",
    "postal_code": "37372"
  },
  {
    "village_code": "16606",
    "village": "SUNGAI HITAM",
    "postal_code": "37372"
  },
  {
    "village_code": "16634",
    "village": "SUNGAI LISAI",
    "postal_code": "37372"
  },
  {
    "village_code": "16769",
    "village": "TANJUNG KASRI",
    "postal_code": "37372"
  }
]